{
"type": "FeatureCollection",
"name": "indoor_rooms",
"crs": { "type": "name", "properties": { "name": "urn:ogc:def:crs:OGC:1.3:CRS84" } },
"features": [
{ "type": "Feature", "properties": { "id": 1, "name": "EXTENSION OFFICE", "room_code": "admin-001", "type": "office", "floor": 0, "building": "Admin Building" }, "geometry": { "type": "MultiPolygon", "coordinates": [ [ [ [ 0.000162114071068, -0.003467236333207 ], [ 0.000160618141103, -0.000358195225025 ], [ 0.001994275072332, -0.000359337949304 ], [ 0.001994628278018, -0.003466239046566 ], [ 0.000162114071068, -0.003467236333207 ] ] ] ] } },
{ "type": "Feature", "properties": { "id": 2, "name": "Male Comfort Room", "room_code": "MCR", "type": "restroom", "floor": 0, "building": "Admin Building" }, "geometry": { "type": "MultiPolygon", "coordinates": [ [ [ [ 0.002057457336542, -0.001635594753963 ], [ 0.002057208014882, -0.000359441833329 ], [ 0.002865758160887, -0.000359441833329 ], [ 0.002865259517565, -0.001635096110642 ], [ 0.002057457336542, -0.001635594753963 ] ] ] ] } },
{ "type": "Feature", "properties": { "id": 3, "name": "Female Comfort Room", "room_code": "FCR", "type": "restroom", "floor": 0, "building": "Admin Building" }, "geometry": { "type": "MultiPolygon", "coordinates": [ [ [ [ 0.004931138799034, -0.001634098823999 ], [ 0.004931388120695, -0.000359317172499 ], [ 0.005677358529837, -0.00035956649416 ], [ 0.005677109208176, -0.001635594753963 ], [ 0.004931138799034, -0.001634098823999 ] ] ] ] } },
{ "type": "Feature", "properties": { "id": 4, "name": "RESEARCH AND DEVELOPMENT OFFICE", "room_code": "admin-004", "type": "office", "floor": 0, "building": "Admin Building" }, "geometry": { "type": "MultiPolygon", "coordinates": [ [ [ [ 0.005739688945039, -0.006396641175718 ], [ 0.005741434196665, -0.000357073277551 ], [ 0.007628300525672, -0.000359067850838 ], [ 0.007628300525672, -0.006396641175718 ], [ 0.005739688945039, -0.006396641175718 ] ] ] ] } },
{ "type": "Feature", "properties": { "id": 5, "name": "EXECUTIVE OPERATION AND EXTERNAL AFFAIRS", "room_code": "admin-005", "type": "office", "floor": 0, "building": "Admin Building" }, "geometry": { "type": "MultiPolygon", "coordinates": [ [ [ [ 0.00016117911484, -0.006396080201984 ], [ 0.000161740088576, -0.003521463794332 ], [ 0.001995376243001, -0.003520341846861 ], [ 0.001994441286773, -0.00639589321074 ], [ 0.00016117911484, -0.006396080201984 ] ] ] ] } },
{ "type": "Feature", "properties": { "id": 6, "name": "Computer Shop", "room_code": "admin-006", "type": "room", "floor": 0, "building": "Admin Building" }, "geometry": { "type": "MultiPolygon", "coordinates": [ [ [ [ 0.002450699926054, -0.006403559851762 ], [ 0.002448082048616, -0.003511179275843 ], [ 0.005345698390545, -0.003512301223315 ], [ 0.005344576443071, -0.006405055781718 ], [ 0.002450699926054, -0.006403559851762 ] ] ] ] } }
]
}
