{
"type": "FeatureCollection",
"name": "indoor_rooms_1f",
"crs": { "type": "name", "properties": { "name": "urn:ogc:def:crs:OGC:1.3:CRS84" } },
"features": [
{ "type": "Feature", "properties": { "id": null, "name": "PPO OFFICE", "room_code": "admin-101", "type": "office", "floor": 1 }, "geometry": { "type": "MultiPolygon", "coordinates": [ [ [ [ 0.000206296245968, -0.000329819114161 ], [ 0.002146705189224, -0.000329985246212 ], [ 0.002146705189224, -0.002447172105728 ], [ 0.001959806607387, -0.00244718810743 ], [ 0.000206296245968, -0.002447338237779 ], [ 0.000206296245968, -0.000329819114161 ] ] ] ] } },
{ "type": "Feature", "properties": { "id": 2, "name": "PPO TOOL ROOM", "room_code": "admin-102", "type": "room", "floor": 1 }, "geometry": { "type": "MultiPolygon", "coordinates": [ [ [ [ 0.002200811635997, -0.000329902180186 ], [ 0.003048864205688, -0.000329736048135 ], [ 0.003060081395872, -0.002447089039703 ], [ 0.002900730257344, -0.002447458819941 ], [ 0.002200976594676, -0.002449082624316 ], [ 0.002200811635997, -0.000329902180186 ] ] ] ] } },
{ "type": "Feature", "properties": { "id": 3, "name": "IGP OFFICE", "room_code": "admin-103", "type": "office", "floor": 1 }, "geometry": { "type": "MultiPolygon", "coordinates": [ [ [ [ 0.005243474473568, -0.0003318957648 ], [ 0.006623848700989, -0.000330566708391 ], [ 0.006623188866273, -0.002447753567907 ], [ 0.005404804576383, -0.002448339832031 ], [ 0.005242154804134, -0.002448418096112 ], [ 0.005243474473568, -0.0003318957648 ] ] ] ] } },
{ "type": "Feature", "properties": { "id": 4, "name": "STUDENT T AFFAIRS & SERVICES OFFICE", "room_code": "admin-104", "type": "office", "floor": 1 }, "geometry": { "type": "MultiPolygon", "coordinates": [ [ [ [ 0.00667630556097, -0.000330068312238 ], [ 0.008083897970458, -0.000330234444289 ], [ 0.008084062929137, -0.002447421303805 ], [ 0.006843902450181, -0.002449031382426 ], [ 0.00667647051965, -0.002449248756367 ], [ 0.00667630556097, -0.000330068312238 ] ] ] ] } },
{ "type": "Feature", "properties": { "id": 5, "name": "SUPPLY OFFICE", "room_code": "admin-105", "type": "office", "floor": 1 }, "geometry": { "type": "MultiPolygon", "coordinates": [ [ [ [ 0.000206791122006, -0.003830138365305 ], [ 0.001256424978183, -0.003829802564786 ], [ 0.002283950810306, -0.0038294738371 ], [ 0.002283950810306, -0.006747417183031 ], [ 0.000205471452572, -0.006746088126622 ], [ 0.000206791122006, -0.003830138365305 ] ] ] ] } },
{ "type": "Feature", "properties": { "id": 6, "name": "STOCK ROOM", "room_code": "admin-106", "type": "room", "floor": 1 }, "geometry": { "type": "MultiPolygon", "coordinates": [ [ [ [ 0.002345645356321, -0.003828477044793 ], [ 0.00337317369325, -0.003828198713089 ], [ 0.003572278094742, -0.003828144780691 ], [ 0.003572937929459, -0.00674575586252 ], [ 0.002345645356321, -0.006746088126622 ], [ 0.002345645356321, -0.003828477044793 ] ] ] ] } },
{ "type": "Feature", "properties": { "id": 7, "name": "SCHOOL CLINIC & EXAMINATION ROOM", "room_code": "admin-107", "type": "room", "floor": 1 }, "geometry": { "type": "MultiPolygon", "coordinates": [ [ [ [ 0.004718246039042, -0.003828560110819 ], [ 0.006554895519994, -0.003828337655762 ], [ 0.006775693165179, -0.003828310912742 ], [ 0.006776023082538, -0.00674575586252 ], [ 0.00471667893159, -0.006748081711236 ], [ 0.004718246039042, -0.003828560110819 ] ] ] ] } },
{ "type": "Feature", "properties": { "id": 8, "name": "GUIDANCE OFFICE", "room_code": "admin-108", "type": "office", "floor": 1 }, "geometry": { "type": "MultiPolygon", "coordinates": [ [ [ [ 0.006829717132613, -0.003828643176845 ], [ 0.007057690305105, -0.003828673346986 ], [ 0.008085052681212, -0.003828809308896 ], [ 0.008083733011779, -0.006745423598418 ], [ 0.006828727380537, -0.006751404352258 ], [ 0.006829717132613, -0.003828643176845 ] ] ] ] } },
{ "type": "Feature", "properties": { "id": 9, "name": "UNSERVICEABLE STOCK ROOM", "room_code": "admin-109", "type": "room", "floor": 1 }, "geometry": { "type": "MultiPolygon", "coordinates": [ [ [ [ 0.002989808998539, -0.006809882834253 ], [ 0.003581680739456, -0.006809093707011 ], [ 0.003581361439844, -0.007108797721243 ], [ 0.004709338270366, -0.007113447624669 ], [ 0.004709338270366, -0.006809550570151 ], [ 0.0053097878626, -0.006812540947071 ], [ 0.0053058288543, -0.00809308679713 ], [ 0.002987829494389, -0.008101725663789 ], [ 0.002989808998539, -0.006809882834253 ] ] ] ] } }
]
}
