{
"type": "FeatureCollection",
"name": "indoor_rooms",
"crs": { "type": "name", "properties": { "name": "urn:ogc:def:crs:OGC:1.3:CRS84" } },
"features": [
{ "type": "Feature", "properties": { "id": 1, "name": "PPO OFFICE", "room_code": "admin-101", "type": "office", "floor": 1, "building": "Admin Building" }, "geometry": { "type": "MultiPolygon", "coordinates": [ [ [ [ 0.000215605310432, -0.002461304298713 ], [ 0.000215605310432, -0.000368527071327 ], [ 0.002146920313629, -0.000368271673945 ], [ 0.002146971393106, -0.002461457537143 ], [ 0.000215605310432, -0.002461304298713 ] ] ] ] } },
{ "type": "Feature", "properties": { "id": 2, "name": "PPO TOOL ROOM", "room_code": "admin-102", "type": "office", "floor": 1, "building": "Admin Building" }, "geometry": { "type": "MultiPolygon", "coordinates": [ [ [ [ 0.002191001901774, -0.002461610775572 ], [ 0.002199276776953, -0.000366688210176 ], [ 0.003044693191075, -0.000368067356039 ], [ 0.003062622087296, -0.002461610775572 ], [ 0.002191001901774, -0.002461610775572 ] ] ] ] } },
{ "type": "Feature", "properties": { "id": 3, "name": "IGP OFFICE", "room_code": "admin-103", "type": "office", "floor": 1, "building": "Admin Building" }, "geometry": { "type": "MultiPolygon", "coordinates": [ [ [ [ 0.005228915451865, -0.002461610775572 ], [ 0.005227881092468, -0.000369446501902 ], [ 0.006602889518045, -0.000368067356039 ], [ 0.006605647809772, -0.002461610775572 ], [ 0.005228915451865, -0.002461610775572 ] ] ] ] } },
{ "type": "Feature", "properties": { "id": 4, "name": "STUDENT AFFAIRS & SERVICES OFFICE", "room_code": "admin-104", "type": "office", "floor": 1, "building": "Admin Building" }, "geometry": { "type": "MultiPolygon", "coordinates": [ [ [ [ 0.006659434498435, -0.002460188531402 ], [ 0.006656503813476, -0.000368369044197 ], [ 0.008057888403686, -0.000368196650964 ], [ 0.008057888403686, -0.002461567677263 ], [ 0.006659434498435, -0.002460188531402 ] ] ] ] } },
{ "type": "Feature", "properties": { "id": 5, "name": "SUPPLY OFFICE", "room_code": "admin-105", "type": "office", "floor": 1, "building": "Admin Building" }, "geometry": { "type": "MultiPolygon", "coordinates": [ [ [ [ 0.000216065025719, -0.006711405640022 ], [ 0.000210548442267, -0.00382692207971 ], [ 0.001509014272438, -0.00382485336092 ], [ 0.001508669485972, -0.004617517443618 ], [ 0.002282715101675, -0.004616483084224 ], [ 0.002279267237017, -0.006709336921241 ], [ 0.000216065025719, -0.006711405640022 ] ] ] ] } },
{ "type": "Feature", "properties": { "id": 6, "name": "RMO office", "room_code": "admin-106", "type": "office", "floor": 1, "building": "Admin Building" }, "geometry": { "type": "MultiPolygon", "coordinates": [ [ [ [ 0.001544872064881, -0.004585452302403 ], [ 0.001545561637812, -0.00382485336092 ], [ 0.002282025528743, -0.003827611652641 ], [ 0.002281335955812, -0.004584073156544 ], [ 0.001544872064881, -0.004585452302403 ] ] ] ] } },
{ "type": "Feature", "properties": { "id": 7, "name": "STOCK ROOM", "room_code": "admin-107", "type": "room", "floor": 1, "building": "Admin Building" }, "geometry": { "type": "MultiPolygon", "coordinates": [ [ [ [ 0.002345983418148, -0.006711578033254 ], [ 0.00234494905875, -0.003826404900013 ], [ 0.003565837934119, -0.003827094472943 ], [ 0.003565837934119, -0.006708819741546 ], [ 0.002345983418148, -0.006711578033254 ] ] ] ] } },
{ "type": "Feature", "properties": { "id": 8, "name": "SCHOOL CLINIC & EXAMINATION ROOM", "room_code": "admin-108", "type": "room", "floor": 1, "building": "Admin Building" }, "geometry": { "type": "MultiPolygon", "coordinates": [ [ [ [ 0.0047029436983, -0.00671226760618 ], [ 0.004708460281753, -0.003827094472943 ], [ 0.006756491888555, -0.003827094472943 ], [ 0.006755457529158, -0.0067101988874 ], [ 0.0047029436983, -0.00671226760618 ] ] ] ] } },
{ "type": "Feature", "properties": { "id": 9, "name": "GUIDANCE OFFICE", "room_code": "admin-109", "type": "office", "floor": 1, "building": "Admin Building" }, "geometry": { "type": "MultiPolygon", "coordinates": [ [ [ [ 0.006810623363685, -0.006711578033254 ], [ 0.006812002509548, -0.003825025754153 ], [ 0.008058750369851, -0.003826404900013 ], [ 0.008058750369851, -0.0067101988874 ], [ 0.006810623363685, -0.006711578033254 ] ] ] ] } },
{ "type": "Feature", "properties": { "id": 10, "name": "UNSERVICEABLE STOCK ROOM", "room_code": "admin-110", "type": "room", "floor": 1, "building": "Admin Building" }, "geometry": { "type": "MultiPolygon", "coordinates": [ [ [ [ 0.002983213454393, -0.00803958774268 ], [ 0.002982437684845, -0.006773014671201 ], [ 0.005291903629334, -0.006772497491506 ], [ 0.005290869269937, -0.008041656461454 ], [ 0.002983213454393, -0.00803958774268 ] ] ] ] } }
]
}
