{
"type": "FeatureCollection",
"name": "indoor_entrance_2f",
"crs": { "type": "name", "properties": { "name": "urn:ogc:def:crs:OGC:1.3:CRS84" } },
"features": [
{ "type": "Feature", "properties": { "id": null, "name": "STAIRS_2F", "ent_type": "stairs", "room_code": "STAIRS_2F", "floor": 2 }, "geometry": { "type": "Point", "coordinates": [ 0.000651274887551, -0.003156591358328 ] } },
{ "type": "Feature", "properties": { "id": 1, "name": "OFFICE DOOR A", "ent_type": "door", "room_code": "graduate-201", "floor": 2 }, "geometry": { "type": "Point", "coordinates": [ -0.001493494119066, -0.002313645828747 ] } },
{ "type": "Feature", "properties": { "id": 2, "name": "OFFICE DOOR B", "ent_type": "door", "room_code": "graduate-201", "floor": 2 }, "geometry": { "type": "Point", "coordinates": [ 0.00199542376378, -0.002315374061659 ] } },
{ "type": "Feature", "properties": { "id": 3, "name": "EVALUATION ROOM A", "ent_type": "door", "room_code": "graduate-202", "floor": 2 }, "geometry": { "type": "Point", "coordinates": [ 0.003172414508906, -0.002313248851515 ] } },
{ "type": "Feature", "properties": { "id": 4, "name": "EVALUATION ROOM B", "ent_type": "door", "room_code": "graduate-202", "floor": 2 }, "geometry": { "type": "Point", "coordinates": [ 0.006676334551499, -0.002314498780265 ] } },
{ "type": "Feature", "properties": { "id": 5, "name": "CLASSROOM DOOR A", "ent_type": "door", "room_code": "graduate-203", "floor": 2 }, "geometry": { "type": "Point", "coordinates": [ 0.008253504024957, -0.00231309181366 ] } },
{ "type": "Feature", "properties": { "id": 6, "name": "CLASSROOM DOOR B", "ent_type": "door", "room_code": "graduate-203", "floor": 2 }, "geometry": { "type": "Point", "coordinates": [ 0.011276483357639, -0.002312528319028 ] } },
{ "type": "Feature", "properties": { "id": 7, "name": "WAITING AREA DOOR", "ent_type": "door", "room_code": "graduate-204", "floor": 2 }, "geometry": { "type": "Point", "coordinates": [ -0.001568146654196, -0.003488967014919 ] } },
{ "type": "Feature", "properties": { "id": null, "name": "Side Entrance", "ent_type": "side", "room_code": "ENTRANCE", "floor": 2 }, "geometry": { "type": "Point", "coordinates": [ 0.012208209491877, -0.002890419811532 ] } }
]
}
