{
"type": "FeatureCollection",
"name": "indoor_rooms_3f",
"crs": { "type": "name", "properties": { "name": "urn:ogc:def:crs:OGC:1.3:CRS84" } },
"features": [
{ "type": "Feature", "properties": { "id": 1, "name": "GRADUATE & UNDERGRADUATE OFFICE", "room_code": "admin-301", "type": "office", "floor": 3 }, "geometry": { "type": "MultiPolygon", "coordinates": [ [ [ [ 0.000207951103041, -0.000309606256189 ], [ 0.002234849214491, -0.000309268242739 ], [ 0.002234849214491, -0.002653729531967 ], [ 0.000206143631924, -0.002654405558867 ], [ 0.000207951103041, -0.000309606256189 ] ] ] ] } },
{ "type": "Feature", "properties": { "id": 2, "name": "BASE ROOM 302", "room_code": "admin-302", "type": "room", "floor": 3 }, "geometry": { "type": "MultiPolygon", "coordinates": [ [ [ [ 0.002307871047649, -0.000309437249464 ], [ 0.003045951878584, -0.000309437249464 ], [ 0.003046132625695, -0.000979886927547 ], [ 0.002307419179869, -0.000980562954447 ], [ 0.002307871047649, -0.000309437249464 ] ] ] ] } },
{ "type": "Feature", "properties": { "id": 3, "name": "STOCK ROOM", "room_code": "admin-303", "type": "room", "floor": 3 }, "geometry": { "type": "MultiPolygon", "coordinates": [ [ [ [ 0.005229015494607, -0.000309099236014 ], [ 0.005988153364064, -0.000309521752826 ], [ 0.005988334111176, -0.000980393947722 ], [ 0.005229196241719, -0.000980224940997 ], [ 0.005229015494607, -0.000309099236014 ] ] ] ] } },
{ "type": "Feature", "properties": { "id": 4, "name": "HUMAN RESOURCES AND MANAGEMENT OFFICE", "room_code": "admin-304", "type": "office", "floor": 3 }, "geometry": { "type": "MultiPolygon", "coordinates": [ [ [ [ 0.006040027785144, -0.000309268242739 ], [ 0.008067829632153, -0.000309606256189 ], [ 0.008072167562835, -0.003961165556582 ], [ 0.006033352034757, -0.00396546852127 ], [ 0.006040027785144, -0.000309268242739 ] ] ] ] } },
{ "type": "Feature", "properties": { "id": 5, "name": "CAMPUS AD. OFFICE", "room_code": "admin-305", "type": "office", "floor": 3 }, "geometry": { "type": "MultiPolygon", "coordinates": [ [ [ [ 0.00020782005588, -0.002710836364056 ], [ 0.002238365595416, -0.002709234898401 ], [ 0.00223518483966, -0.00510273971021 ], [ 0.000207330708841, -0.005101595806171 ], [ 0.00020782005588, -0.002710836364056 ] ] ] ] } },
{ "type": "Feature", "properties": { "id": 6, "name": "OFFICE OF THE ADMINISTRATIVE OFFICER", "room_code": "admin-306", "type": "office", "floor": 3 }, "geometry": { "type": "MultiPolygon", "coordinates": [ [ [ [ 0.006040163912044, -0.003966271047176 ], [ 0.008067681616774, -0.003961666833418 ], [ 0.008068782647612, -0.006272667566393 ], [ 0.006040928516792, -0.006279988552245 ], [ 0.006040163912044, -0.003966271047176 ] ] ] ] } },
{ "type": "Feature", "properties": { "id": 7, "name": "SEC. OF CAMPUS AD.", "room_code": "admin-307", "type": "office", "floor": 3 }, "geometry": { "type": "MultiPolygon", "coordinates": [ [ [ [ 0.00020742246141, -0.005160564059396 ], [ 0.002235031918711, -0.00515049770385 ], [ 0.002235031918711, -0.006268549511852 ], [ 0.00020742246141, -0.006269693415891 ], [ 0.00020742246141, -0.005160564059396 ] ] ] ] } },
{ "type": "Feature", "properties": { "id": 8, "name": "CONFERENCE ROOM", "room_code": "admin-308", "type": "room", "floor": 3 }, "geometry": { "type": "MultiPolygon", "coordinates": [ [ [ [ 0.002973089590721, -0.005462097164153 ], [ 0.003201981668349, -0.005237891972452 ], [ 0.005032384268815, -0.005238006362856 ], [ 0.005312351943669, -0.005461925578547 ], [ 0.005301892150704, -0.007513574668214 ], [ 0.002983855225585, -0.007513803449022 ], [ 0.002973089590721, -0.005462097164153 ] ] ] ] } }
]
}
