{
"type": "FeatureCollection",
"name": "indoor_rooms_0F",
"crs": { "type": "name", "properties": { "name": "urn:ogc:def:crs:OGC:1.3:CRS84" } },
"features": [
{ "type": "Feature", "properties": { "id": 1, "name": "CLASSROOM 101", "room_code": "bib-101", "type": "classroom", "floor": 1 }, "geometry": { "type": "MultiPolygon", "coordinates": [ [ [ [ -0.00213714686042, 0.000831253072905 ], [ 0.003290723091485, 0.000831217731686 ], [ 0.003290098070476, -0.00170197018727 ], [ -0.00213645933731, -0.001701475410199 ], [ -0.00213714686042, 0.000831253072905 ] ] ] ] } },
{ "type": "Feature", "properties": { "id": 2, "name": "FACAULTY OFFICE", "room_code": "bib-102", "type": "office", "floor": 1 }, "geometry": { "type": "MultiPolygon", "coordinates": [ [ [ [ 0.00337622596557, 0.000831217731686 ], [ 0.008820408965821, 0.000831147049247 ], [ 0.008820596472124, -0.001701669786905 ], [ 0.003376288467672, -0.001701705128125 ], [ 0.00337622596557, 0.000831217731686 ] ] ] ] } },
{ "type": "Feature", "properties": { "id": 3, "name": "PANTRY", "room_code": "bib-103", "type": "room", "floor": 1 }, "geometry": { "type": "MultiPolygon", "coordinates": [ [ [ [ 0.008906849371421, 0.000831412108392 ], [ 0.012286962990239, 0.00083098801376 ], [ 0.012284962923009, -0.001702836047143 ], [ 0.008907849405036, -0.001703966966162 ], [ 0.008906849371421, 0.000831412108392 ] ] ] ] } },
{ "type": "Feature", "properties": { "id": 4, "name": "CONFERENCE ROOM", "room_code": "bib-104", "type": "room", "floor": 1 }, "geometry": { "type": "MultiPolygon", "coordinates": [ [ [ [ 0.003410914631592, -0.003123835793863 ], [ 0.00646176718266, -0.003121291226071 ], [ 0.006460267132238, -0.005657094395257 ], [ 0.003410164606381, -0.005658225314275 ], [ 0.003410914631592, -0.003123835793863 ] ] ] ] } },
{ "type": "Feature", "properties": { "id": 5, "name": "CLASSROOM 105", "room_code": "bib-105", "type": "classroom", "floor": 1 }, "geometry": { "type": "MultiPolygon", "coordinates": [ [ [ [ 0.006563708109293, -0.00312397715874 ], [ 0.012283275366283, -0.00312397715874 ], [ 0.012283775383091, -0.00565695303038 ], [ 0.006563458100889, -0.005657306442573 ], [ 0.006563708109293, -0.00312397715874 ] ] ] ] } }
]
}
