{
"type": "FeatureCollection",
"name": "indoor_path_2f",
"crs": { "type": "name", "properties": { "name": "urn:ogc:def:crs:OGC:1.3:CRS84" } },
"features": [
{ "type": "Feature", "properties": { "id": 1, "name": "Hallway", "path_type": "hallway", "floor": 2, "is_blocked": 0 }, "geometry": { "type": "MultiLineString", "coordinates": [ [ [ 0.004142613226101, -0.007414451055788 ], [ 0.003303765415128, -0.007395174633185 ], [ 0.003314392710031, -0.006222636375532 ] ] ] } },
{ "type": "Feature", "properties": { "id": 2, "name": "Hallway", "path_type": "hallway", "floor": 2, "is_blocked": 0 }, "geometry": { "type": "MultiLineString", "coordinates": [ [ [ 0.004142613226101, -0.007414451055788 ], [ 0.004987168706052, -0.007393958863729 ], [ 0.004955955529307, -0.006233271643175 ] ] ] } },
{ "type": "Feature", "properties": { "id": 3, "name": "Hallway", "path_type": "hallway", "floor": 2, "is_blocked": 0 }, "geometry": { "type": "MultiLineString", "coordinates": [ [ [ 0.002666134735419, -0.000980613766691 ], [ 0.002666831332384, -0.001301143242718 ], [ 0.002668249960001, -0.001953905153782 ], [ 0.002668564870093, -0.002098806684729 ], [ 0.002672089704966, -0.003720710784877 ], [ 0.002676989728574, -0.005975388994121 ], [ 0.002677463502206, -0.006193389389513 ], [ 0.003314392710031, -0.006222636375532 ], [ 0.004955955529307, -0.006233271643175 ], [ 0.005658773965528, -0.006209342290978 ], [ 0.005658676107824, -0.00602588397008 ], [ 0.005658060599175, -0.004871961711553 ], [ 0.005656513310737, -0.001971189196614 ], [ 0.005656136059357, -0.001263938753129 ], [ 0.005655985144424, -0.000981011615778 ] ] ] } },
{ "type": "Feature", "properties": { "id": 4, "name": "Hallway", "path_type": "hallway", "floor": 2, "is_blocked": 0 }, "geometry": { "type": "MultiLineString", "coordinates": [ [ [ 0.002668249960001, -0.001953905153782 ], [ 0.003356493102525, -0.001957885935446 ], [ 0.00414331370029, -0.001962436886724 ], [ 0.004937896778148, -0.001967032735998 ], [ 0.005656513310737, -0.001971189196614 ] ] ] } },
{ "type": "Feature", "properties": { "id": 5, "name": "Stairs Access", "path_type": "hallway", "floor": 2, "is_blocked": 0 }, "geometry": { "type": "MultiLineString", "coordinates": [ [ [ 0.003356493102525, -0.001957885935446 ], [ 0.003348045810555, -0.001284881020103 ] ] ] } },
{ "type": "Feature", "properties": { "id": 6, "name": "Stairs Access", "path_type": "hallway", "floor": 2, "is_blocked": 0 }, "geometry": { "type": "MultiLineString", "coordinates": [ [ [ 0.00414331370029, -0.001962436886724 ], [ 0.004138716551303, -0.001542786260449 ] ] ] } },
{ "type": "Feature", "properties": { "id": 7, "name": "Stairs Access", "path_type": "hallway", "floor": 2, "is_blocked": 0 }, "geometry": { "type": "MultiLineString", "coordinates": [ [ [ 0.004937896778148, -0.001967032735998 ], [ 0.004926553346744, -0.00127158693555 ] ] ] } }
]
}
