{
"type": "FeatureCollection",
"name": "indoor_entrances",
"crs": { "type": "name", "properties": { "name": "urn:ogc:def:crs:OGC:1.3:CRS84" } },
"features": [
{ "type": "Feature", "properties": { "id": null, "name": "Main Entrance", "ent_type": "main", "room_code": "ENTRANCE", "floor": 2, "building": "Admin Building" }, "geometry": { "type": "Point", "coordinates": [ 395.055908684838414, -770.226891498441205 ] } },
{ "type": "Feature", "properties": { "id": null, "name": "Door Entrance A", "ent_type": "door", "room_code": null, "floor": 2, "building": "Admin Building" }, "geometry": { "type": "Point", "coordinates": [ 316.745877958432857, -631.11920063444984 ] } },
{ "type": "Feature", "properties": { "id": null, "name": "Door Entrance B", "ent_type": "door", "room_code": null, "floor": 2, "building": "Admin Building" }, "geometry": { "type": "Point", "coordinates": [ 474.357205623065397, -630.788778565499229 ] } },
{ "type": "Feature", "properties": { "id": 1, "name": "DOOR MCR", "ent_type": "door", "room_code": "MCR", "floor": 2, "building": "Admin Building" }, "geometry": { "type": "Point", "coordinates": [ 199.446042904017901, -139.120738568230848 ] } },
{ "type": "Feature", "properties": { "id": 2, "name": "Door 202", "ent_type": "door", "room_code": "Admin-202", "floor": 2, "building": "Admin Building" }, "geometry": { "type": "Point", "coordinates": [ 255.122161796036323, -97.983190788563277 ] } },
{ "type": "Feature", "properties": { "id": 3, "name": "Door 203", "ent_type": "door", "room_code": "admin-203", "floor": 2, "building": "Admin Building" }, "geometry": { "type": "Point", "coordinates": [ 537.963454208884741, -100.296145282261776 ] } },
{ "type": "Feature", "properties": { "id": null, "name": "Door FCR", "ent_type": "door", "room_code": "FCR", "floor": 2, "building": "Admin Building" }, "geometry": { "type": "Point", "coordinates": [ 594.465628277310543, -140.277215815024874 ] } },
{ "type": "Feature", "properties": { "id": 6, "name": "Door 206", "ent_type": "door", "room_code": "admin-206", "floor": 2, "building": "Admin Building" }, "geometry": { "type": "Point", "coordinates": [ 592.813517924495045, -209.996272680351296 ] } },
{ "type": "Feature", "properties": { "id": 5, "name": "Door 205 A", "ent_type": "door", "room_code": "admin-205", "floor": 2, "building": "Admin Building" }, "geometry": { "type": "Point", "coordinates": [ 197.628721515788556, -222.882733425529636 ] } },
{ "type": "Feature", "properties": { "id": 5, "name": "Door 205 B", "ent_type": "door", "room_code": "admin-205", "floor": 2, "building": "Admin Building" }, "geometry": { "type": "Point", "coordinates": [ 199.28083186871433, -389.085034729808228 ] } },
{ "type": "Feature", "properties": { "id": 7, "name": "Door 207", "ent_type": "door", "room_code": "admin-207", "floor": 2, "building": "Admin Building" }, "geometry": { "type": "Point", "coordinates": [ 196.637455304077264, -619.719639254714025 ] } },
{ "type": "Feature", "properties": { "id": 8, "name": "Door 208", "ent_type": "door", "room_code": "admin-208", "floor": 2, "building": "Admin Building" }, "geometry": { "type": "Point", "coordinates": [ 599.256748300673735, -508.532612944649998 ] } },
{ "type": "Feature", "properties": { "id": 9, "name": "Door 209", "ent_type": "door", "room_code": "admin-209", "floor": 2, "building": "Admin Building" }, "geometry": { "type": "Point", "coordinates": [ 599.091537265370107, -625.006392358697326 ] } },
{ "type": "Feature", "properties": { "id": null, "name": "Stairs 2F A", "ent_type": "stairs", "room_code": "STAIRS_2F_A", "floor": 2, "building": "Admin Building" }, "geometry": { "type": "Point", "coordinates": [ 319.760979352365041, -140.896757197220154 ] } },
{ "type": "Feature", "properties": { "id": null, "name": "Stairs 2F B", "ent_type": "stairs", "room_code": "STAIRS_2F_B", "floor": 2, "building": "Admin Building" }, "geometry": { "type": "Point", "coordinates": [ 395.758055584851093, -166.008834553872362 ] } },
{ "type": "Feature", "properties": { "id": null, "name": "Stairs 2F C", "ent_type": "stairs", "room_code": "STAIRS_2F_C", "floor": 2, "building": "Admin Building" }, "geometry": { "type": "Point", "coordinates": [ 471.424709746729889, -139.244646844736167 ] } }
]
}
