{
"type": "FeatureCollection",
"name": "indoor_smb_entrances",
"crs": { "type": "name", "properties": { "name": "urn:ogc:def:crs:OGC:1.3:CRS84" } },
"features": [
{ "type": "Feature", "properties": { "id": null, "name": "Main Entrance", "ent_type": "main", "room_code": null, "floor": 1 }, "geometry": { "type": "Point", "coordinates": [ 0.006865918063838, -0.005377718317529 ] } },
{ "type": "Feature", "properties": { "id": null, "name": "CR Door", "ent_type": "door", "room_code": "SMB-CR-02", "floor": 1 }, "geometry": { "type": "Point", "coordinates": [ 0.001033149562359, -0.002825493046151 ] } },
{ "type": "Feature", "properties": { "id": null, "name": "CR Door", "ent_type": "door", "room_code": "SMB-CR-01", "floor": 1 }, "geometry": { "type": "Point", "coordinates": [ 0.001406645944524, -0.001301939054935 ] } },
{ "type": "Feature", "properties": { "id": null, "name": "Main Room Door", "ent_type": "door", "room_code": "SMB-101", "floor": 1 }, "geometry": { "type": "Point", "coordinates": [ 0.002013577565542, -0.004389509143319 ] } },
{ "type": "Feature", "properties": { "id": null, "name": "Main Room Door 2", "ent_type": "door", "room_code": "SMB-101", "floor": 1 }, "geometry": { "type": "Point", "coordinates": [ 0.005387494884434, -0.004389509143319 ] } },
{ "type": "Feature", "properties": { "id": null, "name": "Room 103 Door", "ent_type": "door", "room_code": "SMB-103", "floor": 1 }, "geometry": { "type": "Point", "coordinates": [ 0.006034888613521, -0.004364609384581 ] } },
{ "type": "Feature", "properties": { "id": null, "name": "Room 102 Door", "ent_type": "door", "room_code": "SMB-102", "floor": 1 }, "geometry": { "type": "Point", "coordinates": [ 0.006022438734115, -0.00199913230135 ] } },
{ "type": "Feature", "properties": { "id": null, "name": "Room 104 Door", "ent_type": "door", "room_code": "SMB-104", "floor": 1 }, "geometry": { "type": "Point", "coordinates": [ 0.007927270283158, -0.004383284203634 ] } },
{ "type": "Feature", "properties": { "id": null, "name": "Room 104 door", "ent_type": "door", "room_code": "SMB-104", "floor": 1 }, "geometry": { "type": "Point", "coordinates": [ 0.011506610612241, -0.004352159505211 ] } },
{ "type": "Feature", "properties": { "id": null, "name": "Room 106 Door", "ent_type": "door", "room_code": "SMB-106", "floor": 1 }, "geometry": { "type": "Point", "coordinates": [ 0.012119767172962, -0.004361496914738 ] } },
{ "type": "Feature", "properties": { "id": null, "name": "Room 105 Door", "ent_type": "door", "room_code": "SMB-105", "floor": 1 }, "geometry": { "type": "Point", "coordinates": [ 0.012116654703111, -0.001936882904359 ] } },
{ "type": "Feature", "properties": { "id": null, "name": "Stairs A", "ent_type": "stairs", "room_code": null, "floor": 1 }, "geometry": { "type": "Point", "coordinates": [ 0.012985033791645, -0.005416624190499 ] } },
{ "type": "Feature", "properties": { "id": null, "name": "Stairs B", "ent_type": "stairs", "room_code": null, "floor": 1 }, "geometry": { "type": "Point", "coordinates": [ 0.001244797512252, -0.005394836901636 ] } }
]
}
