{
"type": "FeatureCollection",
"name": "indoor_entrances_2f",
"crs": { "type": "name", "properties": { "name": "urn:ogc:def:crs:OGC:1.3:CRS84" } },
"features": [
{ "type": "Feature", "properties": { "id": 1, "name": "Door 201", "ent_type": "door", "room_code": "201", "floor": 2, "building": "IT Building" }, "geometry": { "type": "Point", "coordinates": [ 0.00184793888142, -0.002653884056095 ] } },
{ "type": "Feature", "properties": { "id": 2, "name": "Door 202", "ent_type": "door", "room_code": "202", "floor": 2, "building": "IT Building" }, "geometry": { "type": "Point", "coordinates": [ 0.004381803651631, -0.00168064404807 ] } },
{ "type": "Feature", "properties": { "id": 3, "name": "Door 203", "ent_type": "door", "room_code": "203", "floor": 2, "building": "IT Building" }, "geometry": { "type": "Point", "coordinates": [ 0.006239807304667, -0.002668630116817 ] } },
{ "type": "Feature", "properties": { "id": 4, "name": "Stairs 2F", "ent_type": "stairs", "room_code": "STAIRS_2F", "floor": 2, "building": "IT Building" }, "geometry": { "type": "Point", "coordinates": [ 0.004202393245981, -0.003373983354484 ] } }
]
}
