{
"type": "FeatureCollection",
"name": "indoor_entrance_1f",
"crs": { "type": "name", "properties": { "name": "urn:ogc:def:crs:OGC:1.3:CRS84" } },
"features": [
{ "type": "Feature", "properties": { "id": null, "name": "Main Entrance", "ent_type": "main", "room_code": "ENTRANCE", "floor": 1 }, "geometry": { "type": "Point", "coordinates": [ -0.002232288284999, -0.004941443144849 ] } },
{ "type": "Feature", "properties": { "id": null, "name": "Side Entrance", "ent_type": "side", "room_code": "ENTRANCE", "floor": 1 }, "geometry": { "type": "Point", "coordinates": [ 0.029552890649004, -0.005009056017805 ] } },
{ "type": "Feature", "properties": { "id": null, "name": "SOC SCHI 1 door A", "ent_type": "door", "room_code": "ab-101", "floor": 1 }, "geometry": { "type": "Point", "coordinates": [ 0.000095562976207, -0.004342308964618 ] } },
{ "type": "Feature", "properties": { "id": null, "name": "SOC SCI 2 door A", "ent_type": "door", "room_code": "ab-102", "floor": 1 }, "geometry": { "type": "Point", "coordinates": [ 0.002809341708649, -0.004342675216419 ] } },
{ "type": "Feature", "properties": { "id": 3, "name": "BEED 1 A", "ent_type": "door", "room_code": "ab-103", "floor": 1 }, "geometry": { "type": "Point", "coordinates": [ 0.005471695696474, -0.004343923855342 ] } },
{ "type": "Feature", "properties": { "id": 4, "name": "BEED 2 A", "ent_type": "door", "room_code": "ab-104", "floor": 1 }, "geometry": { "type": "Point", "coordinates": [ 0.008161493580227, -0.004341557537084 ] } },
{ "type": "Feature", "properties": { "id": 5, "name": "ELEMENTARY AND PROFESSIONAL DOOR A", "ent_type": "door", "room_code": "ab-105", "floor": 1 }, "geometry": { "type": "Point", "coordinates": [ 0.009986709994819, -0.004342418073262 ] } },
{ "type": "Feature", "properties": { "id": 6, "name": "FILIPINO door A", "ent_type": "door", "room_code": "ab-106", "floor": 1 }, "geometry": { "type": "Point", "coordinates": [ 0.01350333224143, -0.004341562207864 ] } },
{ "type": "Feature", "properties": { "id": 7, "name": "MATH ROOM DOOR A", "ent_type": "door", "room_code": "ab-107", "floor": 1 }, "geometry": { "type": "Point", "coordinates": [ 0.016186269986596, -0.004363099532801 ] } },
{ "type": "Feature", "properties": { "id": 8, "name": "HUMANITIES 1 A", "ent_type": "door", "room_code": "ab-108", "floor": 1 }, "geometry": { "type": "Point", "coordinates": [ 0.018882927006474, -0.004362037802469 ] } },
{ "type": "Feature", "properties": { "id": 9, "name": "HUMANITIES 2 A", "ent_type": "door", "room_code": "ab-109", "floor": 1 }, "geometry": { "type": "Point", "coordinates": [ 0.021414905242935, -0.004362486849475 ] } },
{ "type": "Feature", "properties": { "id": 10, "name": "HUMANITIES 3 A", "ent_type": "door", "room_code": "ab-110", "floor": 1 }, "geometry": { "type": "Point", "coordinates": [ 0.023857647124221, -0.004338315581869 ] } },
{ "type": "Feature", "properties": { "id": 11, "name": "SOC PHILO 1 A", "ent_type": "door", "room_code": "ab-111", "floor": 1 }, "geometry": { "type": "Point", "coordinates": [ 0.026300452843826, -0.004342437099397 ] } },
{ "type": "Feature", "properties": { "id": 12, "name": "SOC PHILO 2 DOOR A", "ent_type": "door", "room_code": "ab-112", "floor": 1 }, "geometry": { "type": "Point", "coordinates": [ 0.028729475582637, -0.004361939048728 ] } },
{ "type": "Feature", "properties": { "id": 13, "name": "MALE COMFORT ROOM DOOR", "ent_type": "door", "room_code": "MCR", "floor": 1 }, "geometry": { "type": "Point", "coordinates": [ 0.029631526589517, -0.001476958534206 ] } },
{ "type": "Feature", "properties": { "id": 14, "name": "FEMALE COMFORT ROOM DOOR", "ent_type": "door", "room_code": "FCR", "floor": 1 }, "geometry": { "type": "Point", "coordinates": [ 0.029631210885005, -0.003770376016423 ] } },
{ "type": "Feature", "properties": { "id": null, "name": "SOC SCI 1  DOOR B", "ent_type": "door", "room_code": "ab-101", "floor": 1 }, "geometry": { "type": "Point", "coordinates": [ 0.000129871445094, -0.000128263657341 ] } },
{ "type": "Feature", "properties": { "id": null, "name": "SOC SCI 2 DOOR B", "ent_type": "door", "room_code": "ab-102", "floor": 1 }, "geometry": { "type": "Point", "coordinates": [ 0.002840231725411, -0.000128979610739 ] } },
{ "type": "Feature", "properties": { "id": null, "name": "BEED 1 B", "ent_type": "door", "room_code": "ab-103", "floor": 1 }, "geometry": { "type": "Point", "coordinates": [ 0.005502579857557, -0.000129519492653 ] } },
{ "type": "Feature", "properties": { "id": null, "name": "BEED 2 B", "ent_type": "door", "room_code": "ab-104", "floor": 1 }, "geometry": { "type": "Point", "coordinates": [ 0.008164877697047, -0.00012728217598 ] } },
{ "type": "Feature", "properties": { "id": null, "name": "FILIPINO DOOR B", "ent_type": "door", "room_code": "ab-106", "floor": 1 }, "geometry": { "type": "Point", "coordinates": [ 0.013523915606888, -0.000190079625818 ] } },
{ "type": "Feature", "properties": { "id": null, "name": "MATH ROOM DOOR B", "ent_type": "door", "room_code": "ab-107", "floor": 1 }, "geometry": { "type": "Point", "coordinates": [ 0.016200002017677, -0.000189938451526 ] } },
{ "type": "Feature", "properties": { "id": null, "name": "HUMANITIES 1 DOOR B", "ent_type": "door", "room_code": "ab-108", "floor": 1 }, "geometry": { "type": "Point", "coordinates": [ 0.018872631377424, -0.000190709142679 ] } },
{ "type": "Feature", "properties": { "id": null, "name": "HUMANITIES 2 DOOR B", "ent_type": "door", "room_code": "ab-109", "floor": 1 }, "geometry": { "type": "Point", "coordinates": [ 0.021353141060651, -0.000190430005581 ] } },
{ "type": "Feature", "properties": { "id": null, "name": "HUMANITIES 3 DOOR B", "ent_type": "door", "room_code": "ab-110", "floor": 1 }, "geometry": { "type": "Point", "coordinates": [ 0.023905699270584, -0.000190709142679 ] } },
{ "type": "Feature", "properties": { "id": null, "name": "SOC PHILO 1 DOOR B", "ent_type": "door", "room_code": "ab-111", "floor": 1 }, "geometry": { "type": "Point", "coordinates": [ 0.02630043777735, -0.00019079365877 ] } },
{ "type": "Feature", "properties": { "id": null, "name": "SOC PHILO 2 DOOR B", "ent_type": "door", "room_code": "ab-112", "floor": 1 }, "geometry": { "type": "Point", "coordinates": [ 0.028763791772836, -0.000169939243938 ] } }
]
}
