{
"type": "FeatureCollection",
"name": "indoor_entrance_1f",
"crs": { "type": "name", "properties": { "name": "urn:ogc:def:crs:OGC:1.3:CRS84" } },
"features": [
{ "type": "Feature", "properties": { "id": null, "name": "Main Entrance", "ent_type": "main", "room_code": "ENTRANCE", "floor": 1 }, "geometry": { "type": "Point", "coordinates": [ -0.002284269991428, -0.004931203683442 ] } },
{ "type": "Feature", "properties": { "id": null, "name": "Side Entrance", "ent_type": "side", "room_code": "ENTRANCE", "floor": 1 }, "geometry": { "type": "Point", "coordinates": [ 0.011539714752807, -0.004998698617427 ] } },
{ "type": "Feature", "properties": { "id": null, "name": "SOC SCHI 1 door A", "ent_type": "door", "room_code": "ab-101", "floor": 1 }, "geometry": { "type": "Point", "coordinates": [ -0.001271842772171, -0.004333114589231 ] } },
{ "type": "Feature", "properties": { "id": null, "name": "SOC SCI 2 door A", "ent_type": "door", "room_code": "ab-102", "floor": 1 }, "geometry": { "type": "Point", "coordinates": [ -0.000091568284039, -0.00433348020217 ] } },
{ "type": "Feature", "properties": { "id": 3, "name": "BEED 1 A", "ent_type": "door", "room_code": "ab-103", "floor": 1 }, "geometry": { "type": "Point", "coordinates": [ 0.00106634059506, -0.004334726663058 ] } },
{ "type": "Feature", "properties": { "id": 4, "name": "BEED 2 A", "ent_type": "door", "room_code": "ab-104", "floor": 1 }, "geometry": { "type": "Point", "coordinates": [ 0.002236185351552, -0.004332364472433 ] } },
{ "type": "Feature", "properties": { "id": 5, "name": "ELEMENTARY AND PROFESSIONAL DOOR A", "ent_type": "door", "room_code": "ab-105", "floor": 1 }, "geometry": { "type": "Point", "coordinates": [ 0.003030007023049, -0.004333223507554 ] } },
{ "type": "Feature", "properties": { "id": 6, "name": "FILIPINO door A", "ent_type": "door", "room_code": "ab-106", "floor": 1 }, "geometry": { "type": "Point", "coordinates": [ 0.004559453573888, -0.004332369135066 ] } },
{ "type": "Feature", "properties": { "id": 7, "name": "MATH ROOM DOOR A", "ent_type": "door", "room_code": "ab-107", "floor": 1 }, "geometry": { "type": "Point", "coordinates": [ 0.00572631472436, -0.004353868891862 ] } },
{ "type": "Feature", "properties": { "id": 8, "name": "HUMANITIES 1 A", "ent_type": "door", "room_code": "ab-108", "floor": 1 }, "geometry": { "type": "Point", "coordinates": [ 0.00689914265088, -0.004352809013535 ] } },
{ "type": "Feature", "properties": { "id": 9, "name": "HUMANITIES 2 A", "ent_type": "door", "room_code": "ab-109", "floor": 1 }, "geometry": { "type": "Point", "coordinates": [ 0.00800034861188, -0.004353257277256 ] } },
{ "type": "Feature", "properties": { "id": 10, "name": "HUMANITIES 3 A", "ent_type": "door", "room_code": "ab-110", "floor": 1 }, "geometry": { "type": "Point", "coordinates": [ 0.009062743968254, -0.004329128172248 ] } },
{ "type": "Feature", "properties": { "id": 11, "name": "SOC PHILO 1 A", "ent_type": "door", "room_code": "ab-111", "floor": 1 }, "geometry": { "type": "Point", "coordinates": [ 0.010125167089139, -0.004333242500502 ] } },
{ "type": "Feature", "properties": { "id": 12, "name": "SOC PHILO 2 DOOR A", "ent_type": "door", "room_code": "ab-112", "floor": 1 }, "geometry": { "type": "Point", "coordinates": [ 0.011181595726978, -0.004352710432053 ] } },
{ "type": "Feature", "properties": { "id": 13, "name": "MALE COMFORT ROOM DOOR", "ent_type": "door", "room_code": "MCR", "floor": 1 }, "geometry": { "type": "Point", "coordinates": [ 0.011573915033518, -0.001472762267386 ] } },
{ "type": "Feature", "properties": { "id": 14, "name": "FEMALE COMFORT ROOM DOOR", "ent_type": "door", "room_code": "FCR", "floor": 1 }, "geometry": { "type": "Point", "coordinates": [ 0.011573777727563, -0.00376217927921 ] } },
{ "type": "Feature", "properties": { "id": null, "name": "SOC SCI 1  DOOR B", "ent_type": "door", "room_code": "ab-101", "floor": 1 }, "geometry": { "type": "Point", "coordinates": [ -0.001256921360167, -0.000126419955619 ] } },
{ "type": "Feature", "properties": { "id": null, "name": "SOC SCI 2 DOOR B", "ent_type": "door", "room_code": "ab-102", "floor": 1 }, "geometry": { "type": "Point", "coordinates": [ -0.000078133622514, -0.00012713466016 ] } },
{ "type": "Feature", "properties": { "id": null, "name": "BEED 1 B", "ent_type": "door", "room_code": "ab-103", "floor": 1 }, "geometry": { "type": "Point", "coordinates": [ 0.001079772709837, -0.000127673600343 ] } },
{ "type": "Feature", "properties": { "id": null, "name": "BEED 2 B", "ent_type": "door", "room_code": "ab-104", "floor": 1 }, "geometry": { "type": "Point", "coordinates": [ 0.002237657168948, -0.000125440186283 ] } },
{ "type": "Feature", "properties": { "id": null, "name": "FILIPINO DOOR B", "ent_type": "door", "room_code": "ab-106", "floor": 1 }, "geometry": { "type": "Point", "coordinates": [ 0.004568405674824, -0.000188128096823 ] } },
{ "type": "Feature", "properties": { "id": null, "name": "MATH ROOM DOOR B", "ent_type": "door", "room_code": "ab-107", "floor": 1 }, "geometry": { "type": "Point", "coordinates": [ 0.005732287048398, -0.000187987168786 ] } },
{ "type": "Feature", "properties": { "id": null, "name": "HUMANITIES 1 DOOR B", "ent_type": "door", "room_code": "ab-108", "floor": 1 }, "geometry": { "type": "Point", "coordinates": [ 0.006894664884082, -0.000188756515601 ] } },
{ "type": "Feature", "properties": { "id": null, "name": "HUMANITIES 2 DOOR B", "ent_type": "door", "room_code": "ab-109", "floor": 1 }, "geometry": { "type": "Point", "coordinates": [ 0.00797348618284, -0.00018847786541 ] } },
{ "type": "Feature", "properties": { "id": null, "name": "HUMANITIES 3 DOOR B", "ent_type": "door", "room_code": "ab-110", "floor": 1 }, "geometry": { "type": "Point", "coordinates": [ 0.009083642769536, -0.000188756515601 ] } },
{ "type": "Feature", "properties": { "id": null, "name": "SOC PHILO 1 DOOR B", "ent_type": "door", "room_code": "ab-111", "floor": 1 }, "geometry": { "type": "Point", "coordinates": [ 0.010125160536439, -0.000188840884268 ] } },
{ "type": "Feature", "properties": { "id": null, "name": "SOC PHILO 2 DOOR B", "ent_type": "door", "room_code": "ab-112", "floor": 1 }, "geometry": { "type": "Point", "coordinates": [ 0.011196520497129, -0.000168022846359 ] } }
]
}
