{
"type": "FeatureCollection",
"name": "indoor_path_1f",
"crs": { "type": "name", "properties": { "name": "urn:ogc:def:crs:OGC:1.3:CRS84" } },
"features": [
{ "type": "Feature", "properties": { "id": null, "name": "Hallway", "path_type": "hallway", "floor": 1, "is_blocked": 0 }, "geometry": { "type": "MultiLineString", "coordinates": [ [ [ 0.013346197243567, -0.004212820789277 ], [ 0.012960470152668, -0.004212894335264 ], [ 0.009448806527659, -0.004213563898734 ], [ 0.000393225610118, -0.004215290512334 ], [ -0.002274136645362, -0.004215799094168 ] ] ] } },
{ "type": "Feature", "properties": { "id": null, "name": "Hallway", "path_type": "hallway", "floor": 1, "is_blocked": 0 }, "geometry": { "type": "MultiLineString", "coordinates": [ [ [ 0.000393225610118, -0.004215290512334 ], [ 0.000391339590804, -0.003700772591935 ], [ 0.000390426139996, -0.002972356802107 ], [ -0.000180394371122, -0.002951508667869 ], [ -0.000588354721923, -0.002960443582542 ] ] ] } }
]
}
