{
"type": "FeatureCollection",
"name": "indoor_rooms_2f",
"crs": { "type": "name", "properties": { "name": "urn:ogc:def:crs:OGC:1.3:CRS84" } },
"features": [
{ "type": "Feature", "properties": { "id": 1, "name": "OFFICE", "room_code": "admin-201", "type": "office", "floor": 2 }, "geometry": { "type": "MultiPolygon", "coordinates": [ [ [ [ -0.00207914694602, 0.000754623590397 ], [ 0.002538953189036, 0.000754051419831 ], [ 0.002539699971076, -0.002315643668479 ], [ -0.002080640510099, -0.002313354986213 ], [ -0.00207914694602, 0.000754623590397 ] ] ] ] } },
{ "type": "Feature", "properties": { "id": 2, "name": "EVALUATION ROOM", "room_code": "admin-202", "type": "room", "floor": 2 }, "geometry": { "type": "MultiPolygon", "coordinates": [ [ [ [ 0.002668333177458, 0.000754194462473 ], [ 0.007481343424941, 0.000754623590397 ], [ 0.007479849860861, -0.002314785412629 ], [ 0.002667959786438, -0.00231306890093 ], [ 0.002668333177458, 0.000754194462473 ] ] ] ] } },
{ "type": "Feature", "properties": { "id": 3, "name": "CLASSROOM", "room_code": "admin-203", "type": "classroom", "floor": 2 }, "geometry": { "type": "MultiPolygon", "coordinates": [ [ [ [ 0.007610536717852, 0.000755195760964 ], [ 0.012212954430069, 0.000754623590397 ], [ 0.012213327821089, -0.002312353687722 ], [ 0.007609043153773, -0.002313211943572 ], [ 0.007610536717852, 0.000755195760964 ] ] ] ] } },
{ "type": "Feature", "properties": { "id": 4, "name": "WAITING AREA", "room_code": "admin-204", "type": "room", "floor": 2 }, "geometry": { "type": "MultiPolygon", "coordinates": [ [ [ [ 0.000075505934749, -0.003492455480759 ], [ 0.000076252716789, -0.005564285101405 ], [ -0.00207970703255, -0.0055728676599 ], [ -0.002081200596629, -0.003487878116228 ], [ 0.000075505934749, -0.003492455480759 ] ] ] ] } }
]
}
