{
"type": "FeatureCollection",
"name": "Buildings",
"crs": { "type": "name", "properties": { "name": "urn:ogc:def:crs:OGC:1.3:CRS84" } },
"features": [
{ "type": "Feature", "properties": { "id": 1, "name": "B1" }, "geometry": { "type": "MultiPolygon", "coordinates": [ [ [ [ 124.984302776331646, 10.250969099787101 ], [ 124.984484531404789, 10.250924777403352 ], [ 124.98446439527423, 10.250853861576454 ], [ 124.984482213100264, 10.250848712356795 ], [ 124.984464991409652, 10.250773885712194 ], [ 124.984446378736394, 10.250777209892769 ], [ 124.984427832300355, 10.250704729712226 ], [ 124.984247137023544, 10.250745923485935 ], [ 124.984302776331646, 10.250969099787101 ] ] ] ] } },
{ "type": "Feature", "properties": { "id": 2, "name": "B2" }, "geometry": { "type": "MultiPolygon", "coordinates": [ [ [ [ 124.984378161563725, 10.25056340484125 ], [ 124.984380936312149, 10.250494849959196 ], [ 124.984381726348829, 10.250463780824299 ], [ 124.984132191393044, 10.250449047692374 ], [ 124.984134330264112, 10.250406251448132 ], [ 124.984085783030153, 10.250404119290007 ], [ 124.984038794023903, 10.250401340403339 ], [ 124.984036655152849, 10.250445539803716 ], [ 124.983819025023593, 10.250439488697406 ], [ 124.983810469539378, 10.250536306410586 ], [ 124.984378161563725, 10.25056340484125 ] ] ] ] } },
{ "type": "Feature", "properties": { "id": 4, "name": "B4" }, "geometry": { "type": "MultiPolygon", "coordinates": [ [ [ [ 124.983550774946167, 10.24929547641724 ], [ 124.983647737100398, 10.24929477483696 ], [ 124.983652727799509, 10.249332660169888 ], [ 124.983816707913292, 10.249325644367834 ], [ 124.983815281999256, 10.249288460614366 ], [ 124.983845226193949, 10.249284952712868 ], [ 124.983839522537835, 10.249035190026547 ], [ 124.983540080590885, 10.249053080337864 ], [ 124.983550774946167, 10.24929547641724 ] ] ] ] } },
{ "type": "Feature", "properties": { "id": 5, "name": "B5" }, "geometry": { "type": "MultiPolygon", "coordinates": [ [ [ [ 124.98250691675409, 10.248765168979437 ], [ 124.983335372807176, 10.248528034359301 ], [ 124.983312558182647, 10.248445247674978 ], [ 124.983050499188622, 10.248521003193812 ], [ 124.982484102129561, 10.2486851886836 ], [ 124.98250691675409, 10.248765168979437 ] ] ] ] } },
{ "type": "Feature", "properties": { "id": 7, "name": "B7" }, "geometry": { "type": "MultiPolygon", "coordinates": [ [ [ [ 124.982843878064259, 10.248446212350535 ], [ 124.982997734281255, 10.248401111480394 ], [ 124.983132625655927, 10.248363425644841 ], [ 124.983116940601533, 10.248302387975093 ], [ 124.982826054138854, 10.248385174696738 ], [ 124.982843878064259, 10.248446212350535 ] ] ] ] } },
{ "type": "Feature", "properties": { "id": 8, "name": "B8" }, "geometry": { "type": "MultiPolygon", "coordinates": [ [ [ [ 124.983160430979524, 10.248352901909513 ], [ 124.983213902755779, 10.248337467097075 ], [ 124.983200356572439, 10.248282042082561 ], [ 124.983145458882191, 10.248299581645165 ], [ 124.983160430979524, 10.248352901909513 ] ] ] ] } },
{ "type": "Feature", "properties": { "id": 10, "name": "B10" }, "geometry": { "type": "MultiPolygon", "coordinates": [ [ [ [ 124.983699426483781, 10.24853671643621 ], [ 124.983794962723977, 10.248528999034558 ], [ 124.983783555411719, 10.248330451272942 ], [ 124.983688019171538, 10.248334660767414 ], [ 124.983695372920081, 10.248454281436253 ], [ 124.983699426483781, 10.24853671643621 ] ] ] ] } },
{ "type": "Feature", "properties": { "id": 16, "name": "B16" }, "geometry": { "type": "MultiPolygon", "coordinates": [ [ [ [ 124.984365328337176, 10.24955611338393 ], [ 124.984424503769475, 10.24949016488501 ], [ 124.984352675076437, 10.249422244926434 ], [ 124.984282625323246, 10.249352655204829 ], [ 124.984222736933901, 10.249421410052381 ], [ 124.984365328337176, 10.24955611338393 ] ] ] ] } },
{ "type": "Feature", "properties": { "id": 17, "name": "B17" }, "geometry": { "type": "MultiPolygon", "coordinates": [ [ [ [ 124.983719301075524, 10.249880965308687 ], [ 124.983687335539287, 10.249806629884718 ], [ 124.983584334308532, 10.249855580930664 ], [ 124.983508245702353, 10.249855580930664 ], [ 124.983454495035645, 10.249823982591682 ], [ 124.983327457890923, 10.249591479458655 ], [ 124.983256910595557, 10.249642428950661 ], [ 124.983263304202382, 10.249651871662637 ], [ 124.983383919478527, 10.249870673693165 ], [ 124.983410174929475, 10.249902393887233 ], [ 124.983481797172288, 10.249941752148015 ], [ 124.983564866384512, 10.249943812908787 ], [ 124.983595399668431, 10.249935882617265 ], [ 124.983719301075524, 10.249880965308687 ] ] ] ] } },
{ "type": "Feature", "properties": { "id": 18, "name": "B18" }, "geometry": { "type": "MultiPolygon", "coordinates": [ [ [ [ 124.983993877731521, 10.24899765544847 ], [ 124.984075154831373, 10.248989938058051 ], [ 124.984065886390184, 10.248898732520612 ], [ 124.983983183376267, 10.248912062562336 ], [ 124.983988105133776, 10.248953641750109 ], [ 124.983993877731521, 10.24899765544847 ] ] ] ] } },
{ "type": "Feature", "properties": { "id": 19, "name": "B19" }, "geometry": { "type": "MultiPolygon", "coordinates": [ [ [ [ 124.983268087488824, 10.249547694427376 ], [ 124.983320133351029, 10.249464908009449 ], [ 124.983060616997051, 10.249312665133571 ], [ 124.983006432263807, 10.249392645271032 ], [ 124.983268087488824, 10.249547694427376 ] ] ] ] } },
{ "type": "Feature", "properties": { "id": 20, "name": "B20" }, "geometry": { "type": "MultiPolygon", "coordinates": [ [ [ [ 124.984564956301824, 10.249951804089166 ], [ 124.984670473940227, 10.249901290409626 ], [ 124.984628398758645, 10.249812804981948 ], [ 124.984584919098268, 10.249723089309164 ], [ 124.984479401459851, 10.24977219985866 ], [ 124.984564956301824, 10.249951804089166 ] ] ] ] } },
{ "type": "Feature", "properties": { "id": 21, "name": "B21" }, "geometry": { "type": "MultiPolygon", "coordinates": [ [ [ [ 124.982344095195614, 10.249274078217923 ], [ 124.982401844713962, 10.249255135548525 ], [ 124.982373326433304, 10.249180066440143 ], [ 124.982317715786024, 10.249197605953039 ], [ 124.982344095195614, 10.249274078217923 ] ] ] ] } },
{ "type": "Feature", "properties": { "id": 22, "name": "B22" }, "geometry": { "type": "MultiPolygon", "coordinates": [ [ [ [ 124.983685880300513, 10.249763079322681 ], [ 124.983834175359931, 10.249697832452165 ], [ 124.983647380621619, 10.249354058391347 ], [ 124.98357125190482, 10.249394434668242 ], [ 124.98349623373413, 10.249431232190428 ], [ 124.983596687017098, 10.249609268849305 ], [ 124.983685880300513, 10.249763079322681 ] ] ] ] } },
{ "type": "Feature", "properties": { "id": 24, "name": "B24" }, "geometry": { "type": "MultiPolygon", "coordinates": [ [ [ [ 124.983862411252389, 10.251112877504816 ], [ 124.983938300486201, 10.251109929695566 ], [ 124.983935804129814, 10.250994965116128 ], [ 124.983858916353469, 10.250994965116128 ], [ 124.983862411252389, 10.251112877504816 ] ] ] ] } },
{ "type": "Feature", "properties": { "id": 15, "name": "B15" }, "geometry": { "type": "MultiPolygon", "coordinates": [ [ [ [ 124.984905029876543, 10.251021904556652 ], [ 124.984887023250181, 10.251071778711411 ], [ 124.98498923435146, 10.251108681133461 ], [ 124.985007240977794, 10.251058806978701 ], [ 124.984905029876543, 10.251021904556652 ] ] ] ] } },
{ "type": "Feature", "properties": { "id": 13, "name": "B13" }, "geometry": { "type": "MultiPolygon", "coordinates": [ [ [ [ 124.984810241271077, 10.251498184598288 ], [ 124.984843740363019, 10.25162268326608 ], [ 124.984950201011671, 10.251594037698057 ], [ 124.984916701919715, 10.251469539030266 ], [ 124.984810241271077, 10.251498184598288 ] ] ] ] } },
{ "type": "Feature", "properties": { "id": 14, "name": "B14" }, "geometry": { "type": "MultiPolygon", "coordinates": [ [ [ [ 124.984835621728223, 10.25192938797996 ], [ 124.984937135745042, 10.251873725240369 ], [ 124.984864703891759, 10.251741628824963 ], [ 124.98476318987494, 10.251797291564568 ], [ 124.984835621728223, 10.25192938797996 ] ] ] ] } },
{ "type": "Feature", "properties": { "id": 12, "name": "B12" }, "geometry": { "type": "MultiPolygon", "coordinates": [ [ [ [ 124.984750669056936, 10.251288802732889 ], [ 124.984792390921982, 10.251392067972571 ], [ 124.984894532978231, 10.251350799903069 ], [ 124.984852811113242, 10.251247534663387 ], [ 124.984750669056936, 10.251288802732889 ] ] ] ] } },
{ "type": "Feature", "properties": { "id": 28, "name": "B28" }, "geometry": { "type": "MultiPolygon", "coordinates": [ [ [ [ 124.984545191679032, 10.251263197368914 ], [ 124.984545191679032, 10.251432637346987 ], [ 124.984672886481604, 10.251432637346987 ], [ 124.984672886481604, 10.251263197368914 ], [ 124.984545191679032, 10.251263197368914 ] ] ] ] } },
{ "type": "Feature", "properties": { "id": 3, "name": "B3" }, "geometry": { "type": "MultiPolygon", "coordinates": [ [ [ [ 124.984262117243958, 10.250032511615156 ], [ 124.984218106033467, 10.250152020352374 ], [ 124.984443187730818, 10.250234910676559 ], [ 124.984487198941324, 10.250115401939336 ], [ 124.984262117243958, 10.250032511615156 ] ] ] ] } },
{ "type": "Feature", "properties": { "id": 9, "name": "B9" }, "geometry": { "type": "MultiPolygon", "coordinates": [ [ [ [ 124.982444349753109, 10.249123319733222 ], [ 124.982415146400868, 10.249038998831796 ], [ 124.98245448383841, 10.249027213751965 ], [ 124.982433512909495, 10.248968449394663 ], [ 124.98239519827149, 10.248981401175975 ], [ 124.982358621843545, 10.248875791421234 ], [ 124.982257703773286, 10.248910742959218 ], [ 124.982343431682835, 10.249158271271213 ], [ 124.982375314175556, 10.249146516767318 ], [ 124.982444349753109, 10.249123319733222 ] ] ] ] } },
{ "type": "Feature", "properties": { "id": 11, "name": "B11" }, "geometry": { "type": "MultiPolygon", "coordinates": [ [ [ [ 124.983708173559648, 10.248624137016467 ], [ 124.983740809304194, 10.248801344645628 ], [ 124.983812106702715, 10.248787320929775 ], [ 124.983823707743269, 10.248851776634172 ], [ 124.983893929731664, 10.248838844080723 ], [ 124.983849591315987, 10.248598092572301 ], [ 124.983708173559648, 10.248624137016467 ] ] ] ] } },
{ "type": "Feature", "properties": { "id": 6, "name": "B6" }, "geometry": { "type": "MultiPolygon", "coordinates": [ [ [ [ 124.983338862385253, 10.248363343920573 ], [ 124.983355795542082, 10.248423093637207 ], [ 124.983408571557376, 10.248407023843292 ], [ 124.983418315444553, 10.248440942130022 ], [ 124.983468248226146, 10.248426053576363 ], [ 124.983476902464034, 10.248455260185619 ], [ 124.983524407483429, 10.248441797191918 ], [ 124.983490032287122, 10.248320502145775 ], [ 124.983338862385253, 10.248363343920573 ] ] ] ] } }
]
}
