{
"type": "FeatureCollection",
"name": "indoor_rooms_1f",
"crs": { "type": "name", "properties": { "name": "urn:ogc:def:crs:OGC:1.3:CRS84" } },
"features": [
{ "type": "Feature", "properties": { "id": 1, "name": "CLASSROOM 101", "room_code": "LHS-101", "type": "classroom", "floor": 1 }, "geometry": { "type": "MultiPolygon", "coordinates": [ [ [ [ -0.002275697431885, 0.000292898234089 ], [ 0.000544226442529, 0.000292898234089 ], [ 0.000545721233875, -0.003746120796375 ], [ -0.002260749518424, -0.003744798262311 ], [ -0.002275697431885, 0.000292898234089 ] ] ] ] } },
{ "type": "Feature", "properties": { "id": 2, "name": "CLASSROOM 102", "room_code": "lhs-102", "type": "classroom", "floor": 1 }, "geometry": { "type": "MultiPolygon", "coordinates": [ [ [ [ 0.000582343621854, 0.000292898234089 ], [ 0.003170574837623, 0.000291575700025 ], [ 0.003167585254931, -0.003746120796375 ], [ 0.000580848830508, -0.003746120796375 ], [ 0.000582343621854, 0.000292898234089 ] ] ] ] } },
{ "type": "Feature", "properties": { "id": 3, "name": "CLASSROOM 103", "room_code": "lhs-103", "type": "classroom", "floor": 1 }, "geometry": { "type": "MultiPolygon", "coordinates": [ [ [ [ 0.003221958290145, 0.000292898234089 ], [ 0.005666035565474, 0.000293228867605 ], [ 0.005666409263311, -0.003745790162859 ], [ 0.003221304318931, -0.003747773963954 ], [ 0.003221958290145, 0.000292898234089 ] ] ] ] } },
{ "type": "Feature", "properties": { "id": 4, "name": "CLASSROOM 104", "room_code": "lhs-104", "type": "classroom", "floor": 1 }, "geometry": { "type": "MultiPolygon", "coordinates": [ [ [ [ 0.005718726960424, 0.000293890134636 ], [ 0.008362639153835, 0.000291906333541 ], [ 0.008360770664652, -0.003747773963954 ], [ 0.00572022175177, -0.003751080299114 ], [ 0.005718726960424, 0.000293890134636 ] ] ] ] } },
{ "type": "Feature", "properties": { "id": 5, "name": "MALE COMFORT ROOM", "room_code": "MCR", "type": "restroom", "floor": 1 }, "geometry": { "type": "MultiPolygon", "coordinates": [ [ [ [ 0.008396645656959, 0.000290583799477 ], [ 0.009815202644406, 0.000293228867605 ], [ 0.009815950040079, -0.001679991955398 ], [ 0.008397019354795, -0.001678669421335 ], [ 0.008396645656959, 0.000290583799477 ] ] ] ] } },
{ "type": "Feature", "properties": { "id": null, "name": "FEMALE COMFORT ROOM", "room_code": "FCR", "type": "restroom", "floor": 1 }, "geometry": { "type": "MultiPolygon", "coordinates": [ [ [ [ 0.008396832505877, -0.001741820422875 ], [ 0.009834167809609, -0.001742151056391 ], [ 0.009834354658528, -0.003745790162859 ], [ 0.008396739081418, -0.003777530980387 ], [ 0.008396832505877, -0.001741820422875 ] ] ] ] } },
{ "type": "Feature", "properties": { "id": 7, "name": "HE ROOM", "room_code": "lhs-107", "type": "office", "floor": 1 }, "geometry": { "type": "MultiPolygon", "coordinates": [ [ [ [ 0.010374721730142, 0.000289261265414 ], [ 0.012356815055068, -0.000504259172791 ], [ 0.012004044297389, -0.004524762726363 ], [ 0.010123596783998, -0.003778853514451 ], [ 0.010374721730142, 0.000289261265414 ] ] ] ] } }
]
}
