{
"type": "FeatureCollection",
"name": "indoor_path_1f",
"crs": { "type": "name", "properties": { "name": "urn:ogc:def:crs:OGC:1.3:CRS84" } },
"features": [
{ "type": "Feature", "properties": { "id": null, "name": "Hallway", "path_type": "hallway", "floor": 1, "is_blocked": 0 }, "geometry": { "type": "MultiLineString", "coordinates": [ [ [ -0.002253766764165, -0.002538373344216 ], [ -0.001859273433576, -0.002537895616662 ], [ -0.000000132384167, -0.002535644214995 ], [ 0.000860478438375, -0.00253460202368 ], [ 0.003213305205583, -0.002531752773628 ], [ 0.003883696833789, -0.002530940935863 ], [ 0.006277890029488, -0.002528041591269 ], [ 0.009273530806248, -0.002524413899586 ], [ 0.009637659950962, -0.002523972942875 ], [ 0.009630450564211, -0.003167917070421 ], [ 0.009626626050428, -0.003509523556409 ] ] ] } },
{ "type": "Feature", "properties": { "id": null, "name": "Hallway", "path_type": "hallway", "floor": 1, "is_blocked": 0 }, "geometry": { "type": "MultiLineString", "coordinates": [ [ [ 0.009784146274578, -0.000381068316993 ], [ 0.009787991961568, -0.00252954470583 ], [ 0.009637659950962, -0.002523972942875 ] ] ] } },
{ "type": "Feature", "properties": { "id": null, "name": "Hallway", "path_type": "hallway", "floor": 1, "is_blocked": 0 }, "geometry": { "type": "MultiLineString", "coordinates": [ [ [ 0.003213305205583, -0.002531752773628 ], [ 0.003199573517754, -0.003503637797457 ] ] ] } },
{ "type": "Feature", "properties": { "id": null, "name": "Hallway", "path_type": "hallway", "floor": 1, "is_blocked": 0 }, "geometry": { "type": "MultiLineString", "coordinates": [ [ [ 0.006291730551603, -0.003712582237063 ], [ 0.006277890029488, -0.002528041591269 ] ] ] } }
]
}
