{
"type": "FeatureCollection",
"name": "indoor_smb_entrances",
"crs": { "type": "name", "properties": { "name": "urn:ogc:def:crs:OGC:1.3:CRS84" } },
"features": [
{ "type": "Feature", "properties": { "id": null, "name": "Side Entrance", "ent_type": "side", "room_code": null, "floor": 2 }, "geometry": { "type": "Point", "coordinates": [ 0.012115183574782, -0.004573995929961 ] } },
{ "type": "Feature", "properties": { "id": null, "name": "Stairs B", "ent_type": "stairs", "room_code": null, "floor": 2 }, "geometry": { "type": "Point", "coordinates": [ 0.000441087279733, -0.004983674772722 ] } },
{ "type": "Feature", "properties": { "id": null, "name": "Stairs A", "ent_type": "stairs", "room_code": null, "floor": 2 }, "geometry": { "type": "Point", "coordinates": [ 0.011112579223908, -0.004938154901317 ] } },
{ "type": "Feature", "properties": { "id": null, "name": "Room 201 Door", "ent_type": "door", "room_code": "SMB-201", "floor": 2 }, "geometry": null },
{ "type": "Feature", "properties": { "id": null, "name": "Room 201 Door A", "ent_type": "door", "room_code": "SMB-201", "floor": 2 }, "geometry": { "type": "Point", "coordinates": [ 0.003028716902421, -0.004025423120203 ] } },
{ "type": "Feature", "properties": { "id": null, "name": "Room 202 Door B", "ent_type": "door", "room_code": "SMB-202", "floor": 2 }, "geometry": { "type": "Point", "coordinates": [ 0.004746800260381, -0.00400674830114 ] } },
{ "type": "Feature", "properties": { "id": null, "name": "Room 202 Door A", "ent_type": "door", "room_code": "SMB-202", "floor": 2 }, "geometry": { "type": "Point", "coordinates": [ 0.005349063176622, -0.004011417005906 ] } },
{ "type": "Feature", "properties": { "id": null, "name": "Room 203 Door", "ent_type": "door", "room_code": "SMB-203", "floor": 2 }, "geometry": { "type": "Point", "coordinates": [ 0.008915953626299, -0.003988073482077 ] } },
{ "type": "Feature", "properties": { "id": null, "name": "Room 203 Door A", "ent_type": "door", "room_code": "SMB-203", "floor": 2 }, "geometry": { "type": "Point", "coordinates": [ 0.009555566180757, -0.003997410891609 ] } },
{ "type": "Feature", "properties": { "id": null, "name": "Room 204 Door", "ent_type": "door", "room_code": "SMB-204", "floor": 2 }, "geometry": { "type": "Point", "coordinates": [ 0.01131566788171, -0.00400674830114 ] } }
]
}
