{
"type": "FeatureCollection",
"name": "indoor_entrance_1f",
"crs": { "type": "name", "properties": { "name": "urn:ogc:def:crs:OGC:1.3:CRS84" } },
"features": [
{ "type": "Feature", "properties": { "id": null, "name": "COMFORT ROOM DOOR", "ent_type": "door", "room_code": "cr1", "floor": 1 }, "geometry": { "type": "Point", "coordinates": [ -0.000829588000819, -0.000198006984068 ] } },
{ "type": "Feature", "properties": { "id": null, "name": "COMFORT ROOM  DOOR 2", "ent_type": "door", "room_code": "cr2", "floor": 1 }, "geometry": { "type": "Point", "coordinates": [ -0.001151737661757, -0.001482357958094 ] } },
{ "type": "Feature", "properties": { "id": null, "name": "PHYSICS DOOR A", "ent_type": "door", "room_code": "smb-101", "floor": 1 }, "geometry": { "type": "Point", "coordinates": [ -0.000179001002427, -0.002952502468358 ] } },
{ "type": "Feature", "properties": { "id": null, "name": "PHYSICS DOOR  B", "ent_type": "door", "room_code": "smb-101", "floor": 1 }, "geometry": { "type": "Point", "coordinates": [ 0.003557385420071, -0.002952251421696 ] } },
{ "type": "Feature", "properties": { "id": 2, "name": "LABORATORY STOCK ROOM DOOR", "ent_type": "door", "room_code": "smb-102", "floor": 1 }, "geometry": { "type": "Point", "coordinates": [ 0.004239307291319, -0.000849908375312 ] } },
{ "type": "Feature", "properties": { "id": 3, "name": "LABORATORY COUNTER DOOR", "ent_type": "door", "room_code": "smb-103", "floor": 1 }, "geometry": { "type": "Point", "coordinates": [ 0.004255721408147, -0.002951576780017 ] } },
{ "type": "Feature", "properties": { "id": null, "name": "BIOLOGY ROOM DOOR A", "ent_type": "door", "room_code": "smb-104", "floor": 1 }, "geometry": { "type": "Point", "coordinates": [ 0.006359716655292, -0.002954185941027 ] } },
{ "type": "Feature", "properties": { "id": null, "name": "BIOLOGY ROOM DOOR B", "ent_type": "door", "room_code": "smb-104", "floor": 1 }, "geometry": { "type": "Point", "coordinates": [ 0.010322854556483, -0.002952141151651 ] } },
{ "type": "Feature", "properties": { "id": null, "name": "WEIGHING ROOM DOOR", "ent_type": "door", "room_code": "smb-105", "floor": 1 }, "geometry": { "type": "Point", "coordinates": [ 0.010988395290521, -0.000850604634001 ] } },
{ "type": "Feature", "properties": { "id": null, "name": "NatSci Room", "ent_type": "door", "room_code": "smb-106", "floor": 1 }, "geometry": { "type": "Point", "coordinates": [ 0.011013007207614, -0.002952327540802 ] } },
{ "type": "Feature", "properties": { "id": null, "name": "Main Entrance", "ent_type": "main", "room_code": "ENTRANCE", "floor": 1 }, "geometry": { "type": "Point", "coordinates": [ 0.00520250375866, -0.003807249830063 ] } },
{ "type": "Feature", "properties": { "id": null, "name": "STAIRS 1F A", "ent_type": "stairs", "room_code": "STAIRS_1F_A", "floor": 1 }, "geometry": { "type": "Point", "coordinates": [ -0.000998951999086, -0.003938512641261 ] } },
{ "type": "Feature", "properties": { "id": null, "name": "STAIRS 1F B", "ent_type": "stairs", "room_code": "STAIRS_1F_B", "floor": 1 }, "geometry": { "type": "Point", "coordinates": [ 0.011962776932497, -0.003865490311608 ] } }
]
}
