{
"type": "FeatureCollection",
"name": "campus_path",
"crs": { "type": "name", "properties": { "name": "urn:ogc:def:crs:OGC:1.3:CRS84" } },
"features": [
{ "type": "Feature", "properties": { "id": null, "name": "walkway", "type": "walkway" }, "geometry": { "type": "LineString", "coordinates": [ [ 124.983759535168943, 10.249878100050655 ], [ 124.98371734560493, 10.249768811091574 ] ] } },
{ "type": "Feature", "properties": { "id": 1, "name": "Main Road", "type": "road" }, "geometry": { "type": "LineString", "coordinates": [ [ 124.985554359451598, 10.251270992849825 ], [ 124.985443411558975, 10.251188169056912 ], [ 124.985263599457156, 10.251120404119328 ], [ 124.98509335182888, 10.251052639167254 ], [ 124.985085394912161, 10.251049097067863 ], [ 124.985074661405633, 10.251044318942272 ], [ 124.985013010251478, 10.25101687432559 ], [ 124.984921191305858, 10.250975462398621 ], [ 124.984838936833782, 10.250930285744845 ], [ 124.984714598678281, 10.250821108804956 ], [ 124.984697957808095, 10.250792452114348 ], [ 124.984676096213633, 10.250754804983593 ], [ 124.984668689205478, 10.250742049618106 ], [ 124.984603650785658, 10.250597107724309 ], [ 124.984547136811003, 10.25053125146535 ], [ 124.984530960787055, 10.250512401392038 ], [ 124.984490221991933, 10.25047004365747 ], [ 124.984429577367962, 10.250406989035808 ], [ 124.984347318754516, 10.25034394498828 ], [ 124.98427400951789, 10.25031368497161 ], [ 124.984244270270153, 10.250301409435348 ], [ 124.984095076901994, 10.25026440760041 ], [ 124.98374858685473, 10.250194281853059 ], [ 124.983545820016545, 10.250149105087898 ], [ 124.983341140283642, 10.250103928316289 ], [ 124.983077160815014, 10.249996633457915 ], [ 124.982870568187423, 10.249851691223112 ], [ 124.982711797927294, 10.249599453929143 ], [ 124.982711797927294, 10.24958963331898 ], [ 124.982711797927294, 10.249426275969267 ], [ 124.982776701704452, 10.249312315268083 ], [ 124.982809355557009, 10.249254980285407 ], [ 124.982923549867564, 10.249188210777918 ], [ 124.982956043569033, 10.249169211681323 ], [ 124.982962251936101, 10.249165530308733 ], [ 124.98310386978396, 10.249081555227127 ], [ 124.983132055004688, 10.249072703477285 ], [ 124.983155388973117, 10.249065375294247 ], [ 124.983377485282929, 10.249023448609508 ], [ 124.983515253714828, 10.249000853581757 ], [ 124.983524487907502, 10.248999339106748 ], [ 124.983710328960697, 10.248968859815752 ], [ 124.983689576508837, 10.248867534840654 ], [ 124.98368417347173, 10.24884115421276 ], [ 124.983606075010456, 10.248461084198969 ] ] } },
{ "type": "Feature", "properties": { "id": null, "name": "walkway", "type": "walkway" }, "geometry": { "type": "LineString", "coordinates": [ [ 124.983605619072421, 10.249821119024716 ], [ 124.983583255001363, 10.249780985005909 ] ] } },
{ "type": "Feature", "properties": { "id": 3, "name": "Main Road", "type": "road" }, "geometry": { "type": "LineString", "coordinates": [ [ 124.98368417347173, 10.24884115421276 ], [ 124.983129765419349, 10.248973330450074 ], [ 124.983113853509238, 10.248977425623945 ], [ 124.982756750952845, 10.249069331424574 ], [ 124.98252529069417, 10.249129567315295 ], [ 124.982465041917735, 10.248919746494675 ] ] } },
{ "type": "Feature", "properties": { "id": 4, "name": "Main Road", "type": "road" }, "geometry": { "type": "LineString", "coordinates": [ [ 124.984714598678281, 10.250821108804956 ], [ 124.98475617338174, 10.250908801631494 ], [ 124.98477772622627, 10.250954262676313 ], [ 124.984821242557871, 10.251046050907254 ], [ 124.984918800187543, 10.251196639673093 ], [ 124.984932452679203, 10.251273408559255 ], [ 124.984958970976237, 10.251422522687648 ], [ 124.98497850351913, 10.251514579858803 ], [ 124.984995315975553, 10.251593817199637 ], [ 124.984938249713252, 10.251719147271757 ], [ 124.984961204449675, 10.251792559149632 ] ] } },
{ "type": "Feature", "properties": { "id": 5, "name": "Walkway Connected to Building", "type": "walkway" }, "geometry": { "type": "LineString", "coordinates": [ [ 124.984961204449675, 10.251792559149632 ], [ 124.984883650747477, 10.251818052869998 ] ] } },
{ "type": "Feature", "properties": { "id": 6, "name": "walkway", "type": "walkway" }, "geometry": { "type": "LineString", "coordinates": [ [ 124.98477772622627, 10.250954262676313 ], [ 124.984781059504854, 10.251005393817367 ], [ 124.984781311450234, 10.25100925855668 ], [ 124.984788467717223, 10.251119032759576 ], [ 124.984808528140604, 10.251233713919776 ], [ 124.984721233938501, 10.251265647751007 ], [ 124.98474761931962, 10.251335341084026 ], [ 124.984775683659066, 10.251409469136236 ], [ 124.984787321456963, 10.25149962480508 ], [ 124.984810247655105, 10.251572945464613 ], [ 124.984849604245596, 10.25156177700946 ] ] } },
{ "type": "Feature", "properties": { "id": 7, "name": "walkway", "type": "walkway" }, "geometry": { "type": "LineString", "coordinates": [ [ 124.98474761931962, 10.251335341084026 ], [ 124.984787512458965, 10.251323719801261 ] ] } },
{ "type": "Feature", "properties": { "id": null, "name": "walkway", "type": "walkway" }, "geometry": { "type": "LineString", "coordinates": [ [ 124.984593812218577, 10.250762097905573 ], [ 124.984592173564181, 10.250760461842095 ], [ 124.984590429678946, 10.250758934744011 ], [ 124.984588588030448, 10.250757523150599 ], [ 124.984586656504888, 10.250756233106506 ], [ 124.98458464337341, 10.250755070135909 ], [ 124.984582557256459, 10.250754039218837 ], [ 124.984580407087208, 10.250753144769815 ], [ 124.984578202072981, 10.250752390619029 ], [ 124.984575951655984, 10.250751779995863 ], [ 124.984573665472823, 10.250751315515101 ], [ 124.984571353313299, 10.250750999165716 ], [ 124.984569025078457, 10.250750832302375 ], [ 124.98456669073812, 10.250750815639604 ], [ 124.984564360288346, 10.250750949248756 ], [ 124.984562043708422, 10.250751232557704 ], [ 124.984559750918265, 10.250751664353267 ], [ 124.984557491736126, 10.250752242786433 ], [ 124.984555275836016, 10.250752965380261 ], [ 124.98455311270672, 10.250753829040493 ], [ 124.984551011611217, 10.250754830068804 ], [ 124.984548981546652, 10.25075596417863 ], [ 124.98454703120612, 10.250757226513546 ], [ 124.98454516894131, 10.250758611668031 ], [ 124.98454340272653, 10.250760113710651 ], [ 124.984541740125195, 10.250761726209413 ], [ 124.984540188256744, 10.250763442259361 ], [ 124.984538753766515, 10.2507652545121 ], [ 124.984537442797148, 10.25076715520728 ], [ 124.984536260962557, 10.250769136205838 ], [ 124.984535213323426, 10.25077118902483 ], [ 124.984534304365951, 10.250773304873768 ], [ 124.984533537982458, 10.250775474692263 ], [ 124.984532917454629, 10.250777689188817 ], [ 124.984532445439754, 10.250779938880621 ], [ 124.984532123959042, 10.250782214134134 ], [ 124.98453195438907, 10.25078450520639 ], [ 124.984531937456012, 10.250786802286651 ], [ 124.984532073232401, 10.250789095538476 ], [ 124.984532361136729, 10.250791375141798 ], [ 124.984532799936261, 10.250793631335018 ], [ 124.984533387751924, 10.250795854456763 ], [ 124.984534122066634, 10.250798034987293 ], [ 124.984534999735871, 10.250800163589231 ], [ 124.984536017001432, 10.250802231147581 ], [ 124.984537169507149, 10.250804228808748 ], [ 124.984538452317821, 10.250806148018437 ], [ 124.984539859940242, 10.250807980558296 ], [ 124.984541386346848, 10.250809718581113 ], [ 124.984543025001244, 10.250811354644405 ], [ 124.984544768886536, 10.250812881742304 ], [ 124.984546610534977, 10.250814293335537 ], [ 124.984548542060594, 10.250815583379454 ], [ 124.984550555192044, 10.250816746349885 ], [ 124.984552641308966, 10.250817777266809 ], [ 124.984554791478217, 10.250818671715695 ], [ 124.984556996492444, 10.25081942586637 ], [ 124.98455924690947, 10.25082003648944 ], [ 124.984561533092631, 10.250820500970127 ], [ 124.984563845252183, 10.250820817319463 ], [ 124.984566173486968, 10.250820984182775 ], [ 124.984568507827305, 10.250821000845546 ], [ 124.984570838277079, 10.250820867236413 ], [ 124.98457315485706, 10.250820583927508 ], [ 124.984575447647131, 10.250820152132018 ], [ 124.984577706829327, 10.250819573698942 ], [ 124.984579922729466, 10.250818851105226 ], [ 124.984582085858705, 10.250817987445123 ], [ 124.984584186954237, 10.250816986416961 ], [ 124.984586217018744, 10.250815852307293 ], [ 124.984588167359362, 10.250814589972551 ], [ 124.984590029624172, 10.25081320481824 ], [ 124.984591795838895, 10.250811702775806 ], [ 124.98459345844023, 10.250810090277227 ], [ 124.984595010308738, 10.250808374227464 ], [ 124.984596444798967, 10.250806561974912 ], [ 124.984597755768277, 10.250804661279901 ], [ 124.984598937602868, 10.250802680281504 ], [ 124.984599985241999, 10.250800627462661 ], [ 124.984600894199474, 10.250798511613862 ], [ 124.984601660582967, 10.25079634179548 ], [ 124.984602281110796, 10.25079412729902 ], [ 124.984602753125728, 10.250791877607293 ], [ 124.98460307460644, 10.250789602353828 ], [ 124.984603244176384, 10.2507873112816 ], [ 124.984603261109442, 10.250785014201341 ], [ 124.984603125333052, 10.250782720949498 ], [ 124.984602837428724, 10.250780441346128 ], [ 124.984602398629193, 10.250778185152839 ], [ 124.98460181081353, 10.250775962031001 ], [ 124.984601076498819, 10.250773781500362 ], [ 124.984600198829554, 10.250771652898296 ], [ 124.984599181564022, 10.250769585339793 ], [ 124.984598029058304, 10.250767587678471 ], [ 124.984596746247632, 10.250765668468613 ], [ 124.984595338625155, 10.25076383592857 ], [ 124.984593812218577, 10.250762097905573 ] ] } },
{ "type": "Feature", "properties": { "id": 9, "name": "Walkway Connected to Building", "type": "walkway" }, "geometry": { "type": "LineString", "coordinates": [ [ 124.985085394912161, 10.251049097067863 ], [ 124.985068149423228, 10.251082108002178 ], [ 124.984979788034593, 10.251047797643004 ] ] } },
{ "type": "Feature", "properties": { "id": 10, "name": "walkway", "type": "walkway" }, "geometry": { "type": "LineString", "coordinates": [ [ 124.982465041917735, 10.248919746494675 ], [ 124.982370283567022, 10.248944368697204 ], [ 124.982332018161216, 10.248811793210516 ] ] } },
{ "type": "Feature", "properties": { "id": 11, "name": "walkway", "type": "walkway" }, "geometry": { "type": "LineString", "coordinates": [ ] } },
{ "type": "Feature", "properties": { "id": 12, "name": "covered_walkway", "type": "covered" }, "geometry": { "type": "LineString", "coordinates": [ [ 124.983043491327749, 10.248499199680005 ], [ 124.983013239656941, 10.248391700436276 ] ] } },
{ "type": "Feature", "properties": { "id": 13, "name": "walkway", "type": "walkway" }, "geometry": { "type": "LineString", "coordinates": [ [ 124.983043491327749, 10.248499199680005 ], [ 124.983338368257847, 10.24841892674797 ], [ 124.983367342598811, 10.248520111402511 ] ] } },
{ "type": "Feature", "properties": { "id": 14, "name": "walkway", "type": "walkway" }, "geometry": { "type": "LineString", "coordinates": [ ] } },
{ "type": "Feature", "properties": { "id": 15, "name": "covered_walkway", "type": "covered" }, "geometry": { "type": "LineString", "coordinates": [ [ 124.983367342598811, 10.248520111402511 ], [ 124.983446452109177, 10.24849845387457 ], [ 124.983510223453351, 10.24848220702283 ], [ 124.983548542899641, 10.24847244448144 ], [ 124.983606075010456, 10.248461084198969 ], [ 124.983699115084249, 10.248445281444695 ] ] } },
{ "type": "Feature", "properties": { "id": 16, "name": "walkway", "type": "walkway" }, "geometry": { "type": "LineString", "coordinates": [ [ 124.984095076901994, 10.25026440760041 ], [ 124.984085755863077, 10.250476887996218 ], [ 124.984376154372782, 10.250489108146592 ], [ 124.984490221991933, 10.25047004365747 ] ] } },
{ "type": "Feature", "properties": { "id": 17, "name": "stairs", "type": "stairs" }, "geometry": { "type": "LineString", "coordinates": [ [ 124.984095076901994, 10.25026440760041 ], [ 124.984177938284788, 10.250066102667212 ] ] } },
{ "type": "Feature", "properties": { "id": 18, "name": "covered_stairs", "type": "covered_stairs" }, "geometry": { "type": "LineString", "coordinates": [ [ 124.984177938284788, 10.250066102667212 ], [ 124.984002170765791, 10.249996541712088 ], [ 124.98387034512659, 10.24993638087372 ], [ 124.983784371883615, 10.249902540397114 ], [ 124.983759535168943, 10.249878100050655 ] ] } },
{ "type": "Feature", "properties": { "id": null, "name": "walkway", "type": "walkway" }, "geometry": { "type": "LineString", "coordinates": [ [ 124.98371734560493, 10.249768811091574 ], [ 124.983605619072421, 10.249821119024716 ] ] } },
{ "type": "Feature", "properties": { "id": 20, "name": "stairs", "type": "stairs" }, "geometry": { "type": "LineString", "coordinates": [ [ 124.983132055004688, 10.249072703477285 ], [ 124.983113853509238, 10.248977425623945 ] ] } },
{ "type": "Feature", "properties": { "id": 21, "name": "walkway", "type": "walkway" }, "geometry": { "type": "LineString", "coordinates": [ [ 124.98252529069417, 10.249129567315295 ], [ 124.982485227961106, 10.249143563616178 ], [ 124.982382888615717, 10.24917931684741 ], [ 124.982396739860448, 10.249217387470221 ], [ 124.982381455728358, 10.249222557554452 ] ] } },
{ "type": "Feature", "properties": { "id": 22, "name": "stairs", "type": "stairs" }, "geometry": { "type": "LineString", "coordinates": [ [ 124.982485227961106, 10.249143563616178 ], [ 124.982540983856993, 10.24930151883035 ], [ 124.982544327260882, 10.249314209033569 ], [ 124.9825237892084, 10.249326899236287 ], [ 124.98254241674438, 10.249455211257377 ], [ 124.982581582332827, 10.249554382783867 ], [ 124.982620747921317, 10.249584463240746 ], [ 124.982645584635932, 10.249591043340306 ], [ 124.982711797927294, 10.24958963331898 ] ] } },
{ "type": "Feature", "properties": { "id": null, "name": "walkway", "type": "walkway" }, "geometry": { "type": "LineString", "coordinates": [ [ 124.983541849619328, 10.249796233641515 ], [ 124.983542126901938, 10.249865677627616 ] ] } },
{ "type": "Feature", "properties": { "id": null, "name": "walkway", "type": "walkway" }, "geometry": { "type": "LineString", "coordinates": [ [ 124.983496831856328, 10.249772448995408 ], [ 124.983435814430493, 10.249795933724647 ] ] } },
{ "type": "Feature", "properties": { "id": null, "name": "walkway", "type": "walkway" }, "geometry": { "type": "LineString", "coordinates": [ [ 124.983530835176126, 10.249684045735258 ], [ 124.983537454369383, 10.249632022311095 ], [ 124.983495515074225, 10.249529148682498 ], [ 124.983451072238893, 10.249422512983045 ], [ 124.983504442176539, 10.249313898316053 ], [ 124.9835283456556, 10.249280118965681 ], [ 124.983515253714828, 10.249000853581757 ] ] } },
{ "type": "Feature", "properties": { "id": null, "name": "walkway", "type": "walkway" }, "geometry": { "type": "LineString", "coordinates": [ [ 124.983510223453351, 10.24848220702283 ], [ 124.983500783162953, 10.248445611244236 ] ] } },
{ "type": "Feature", "properties": { "id": 27, "name": "walkway", "type": "walkway" }, "geometry": { "type": "LineString", "coordinates": [ [ 124.983504442176539, 10.249313898316053 ], [ 124.983591767937995, 10.24943053587274 ] ] } },
{ "type": "Feature", "properties": { "id": 28, "name": "walkway", "type": "walkway" }, "geometry": { "type": "LineString", "coordinates": [ [ 124.983537454369383, 10.249632022311095 ], [ 124.983624246718662, 10.249594098386487 ] ] } },
{ "type": "Feature", "properties": { "id": 29, "name": "walkway", "type": "walkway" }, "geometry": { "type": "LineString", "coordinates": [ [ 124.98427400951789, 10.25031368497161 ], [ 124.9843344868206, 10.250176811340893 ] ] } },
{ "type": "Feature", "properties": { "id": 30, "name": "walkway", "type": "walkway" }, "geometry": { "type": "LineString", "coordinates": [ [ 124.983710328960697, 10.248968859815752 ], [ 124.983713563365527, 10.249064399939684 ] ] } },
{ "type": "Feature", "properties": { "id": 31, "name": "walkway", "type": "walkway" }, "geometry": { "type": "LineString", "coordinates": [ [ 124.983446452109177, 10.24849845387457 ], [ 124.98343032929283, 10.248435763766228 ] ] } },
{ "type": "Feature", "properties": { "id": 32, "name": "walkway", "type": "walkway" }, "geometry": { "type": "LineString", "coordinates": [ [ 124.983317119896142, 10.24835868687528 ], [ 124.983338368257847, 10.24841892674797 ] ] } },
{ "type": "Feature", "properties": { "id": 33, "name": "walkway", "type": "walkway" }, "geometry": { "type": "LineString", "coordinates": [ [ 124.983317119896142, 10.24835868687528 ], [ 124.983509642535594, 10.24830612279785 ], [ 124.983548542899641, 10.24847244448144 ] ] } },
{ "type": "Feature", "properties": { "id": 34, "name": "walkway", "type": "walkway" }, "geometry": { "type": "LineString", "coordinates": [ [ 124.982776701704452, 10.249312315268083 ], [ 124.982941475880708, 10.249367084874839 ], [ 124.982956043569033, 10.249169211681323 ] ] } },
{ "type": "Feature", "properties": { "id": null, "name": "walkway", "type": "walkway" }, "geometry": { "type": "LineString", "coordinates": [ [ 124.983588566801146, 10.249703448283071 ], [ 124.983586079822672, 10.249700647179296 ], [ 124.98358341199706, 10.249698012133331 ], [ 124.983580574748345, 10.249695554428854 ], [ 124.983577580226068, 10.249693284590135 ], [ 124.983574441253253, 10.24969121233698 ], [ 124.983571171271421, 10.249689346543095 ], [ 124.983567784283167, 10.249687695198102 ], [ 124.983564294792131, 10.249686265373311 ], [ 124.983560717740744, 10.249685063191462 ], [ 124.983557068446572, 10.249684093800484 ], [ 124.983553362536469, 10.249683361351456 ], [ 124.983549615879639, 10.249682868980841 ], [ 124.983545844519909, 10.249682618797047 ], [ 124.983542064606752, 10.2496826118714 ], [ 124.983538292326386, 10.249682848233554 ], [ 124.98353454383232, 10.249683326871375 ], [ 124.983530835176126, 10.249684045735261 ], [ 124.983527182238845, 10.249685001746919 ], [ 124.983523600662906, 10.249686190812561 ], [ 124.983520105785246, 10.249687607840423 ], [ 124.983516712571358, 10.24968924676257 ], [ 124.9835134355516, 10.249691100560884 ], [ 124.983510288758609, 10.249693161297111 ], [ 124.983507285667443, 10.249695420146864 ], [ 124.983504439137832, 10.249697867437385 ], [ 124.983501761359051, 10.249700492689007 ], [ 124.983499263797725, 10.249703284659994 ], [ 124.983496957148802, 10.249706231394688 ], [ 124.983494851289706, 10.249709320274716 ], [ 124.983492955238091, 10.249712538073023 ], [ 124.983491277113117, 10.249715871010489 ], [ 124.983489824100758, 10.249719304814965 ], [ 124.983488602423037, 10.249722824782371 ], [ 124.983487617311383, 10.249726415839659 ], [ 124.983486872984187, 10.249730062609377 ], [ 124.983486372628761, 10.249733749475483 ], [ 124.983486118387717, 10.249737460650262 ], [ 124.983486111349762, 10.249741180241886 ], [ 124.983486351545025, 10.249744892322493 ], [ 124.983486837944938, 10.249748580996389 ], [ 124.9834875684667, 10.249752230468099 ], [ 124.983488539982062, 10.249755825110034 ], [ 124.98348974833084, 10.249759349529386 ], [ 124.983491188338746, 10.249762788634051 ], [ 124.983492853839408, 10.249766127697258 ], [ 124.983494737700937, 10.24976935242063 ], [ 124.983496831856328, 10.249772448995408 ], [ 124.98349912733805, 10.249775404161591 ], [ 124.983501614316538, 10.249778205264702 ], [ 124.983504282142135, 10.249780840310001 ], [ 124.983507119390879, 10.249783298013815 ], [ 124.983510113913127, 10.249785567851889 ], [ 124.983513252885984, 10.249787640104429 ], [ 124.983516522867802, 10.249789505897736 ], [ 124.983519909856028, 10.249791157242198 ], [ 124.983523399347106, 10.249792587066516 ], [ 124.983526976398451, 10.249793789247956 ], [ 124.983530625692623, 10.2497947586386 ], [ 124.983534331602726, 10.249795491087369 ], [ 124.983538078259556, 10.249795983457808 ], [ 124.983541849619314, 10.249796233641515 ], [ 124.983545629532458, 10.249796240567155 ], [ 124.983549401812823, 10.249796004205086 ], [ 124.983553150306889, 10.249795525567436 ], [ 124.983556858963084, 10.249794806703806 ], [ 124.983560511900365, 10.24979385069248 ], [ 124.983564093476289, 10.249792661627239 ], [ 124.983567588353978, 10.24979124459985 ], [ 124.983570981567851, 10.249789605678229 ], [ 124.983574258587637, 10.249787751880492 ], [ 124.983577405380601, 10.249785691144876 ], [ 124.983580408471781, 10.249783432295771 ], [ 124.983583255001378, 10.249780985005909 ], [ 124.983585932780187, 10.249778359754954 ], [ 124.983588430341513, 10.249775567784628 ], [ 124.983590736990422, 10.24977262105058 ], [ 124.98359284284949, 10.249769532171168 ], [ 124.983594738901104, 10.249766314373442 ], [ 124.983596417026078, 10.249762981436506 ], [ 124.983597870038437, 10.249759547632504 ], [ 124.983599091716158, 10.249756027665507 ], [ 124.983600076827813, 10.249752436608551 ], [ 124.983600821155008, 10.249748789839094 ], [ 124.983601321510463, 10.24974510297316 ], [ 124.983601575751479, 10.249741391798469 ], [ 124.983601582789433, 10.24973767220685 ], [ 124.983601342594199, 10.249733960126157 ], [ 124.983600856194258, 10.249730271452091 ], [ 124.983600125672538, 10.249726621980129 ], [ 124.983599154157162, 10.249723027337863 ], [ 124.98359794580837, 10.249719502918108 ], [ 124.983596505800449, 10.249716063812972 ], [ 124.983594840299787, 10.249712724749239 ], [ 124.983592956438272, 10.24970950002529 ], [ 124.983590862282881, 10.249706403449895 ], [ 124.983588566801146, 10.249703448283071 ] ] } },
{ "type": "Feature", "properties": { "id": 36, "name": "walkway", "type": "walkway" }, "geometry": { "type": "LineString", "coordinates": [ [ 124.982941475880708, 10.249367084874839 ], [ 124.983010732104233, 10.24939293528292 ], [ 124.983267696574913, 10.249544277629731 ], [ 124.983310683196393, 10.249581878201578 ], [ 124.983495515074225, 10.249529148682498 ] ] } },
{ "type": "Feature", "properties": { "id": 37, "name": "walkway", "type": "walkway" }, "geometry": { "type": "LineString", "coordinates": [ [ 124.983689576508837, 10.248867534840654 ], [ 124.983822701621307, 10.248835976023873 ] ] } },
{ "type": "Feature", "properties": { "id": 38, "name": "walkway", "type": "walkway" }, "geometry": { "type": "LineString", "coordinates": [ [ 124.984326427472524, 10.250687588994273 ], [ 124.984339496337384, 10.250740913640177 ] ] } },
{ "type": "Feature", "properties": { "id": null, "name": "walkway", "type": "walkway" }, "geometry": { "type": "LineString", "coordinates": [ [ 124.984208420778842, 10.250864757031685 ], [ 124.984283853265083, 10.250847660464942 ] ] } },
{ "type": "Feature", "properties": { "id": 38, "name": "walkway", "type": "walkway" }, "geometry": { "type": "LineString", "coordinates": [ [ 124.984547136811003, 10.25053125146535 ], [ 124.984482307446555, 10.250606492066998 ], [ 124.984414803572761, 10.25066414241644 ], [ 124.984326427472524, 10.250687588994273 ], [ 124.984173357201115, 10.250726335499888 ], [ 124.984208420778842, 10.250864757031687 ], [ 124.984071546396748, 10.250955236030503 ], [ 124.983916435395059, 10.251037276035841 ] ] } },
{ "type": "Feature", "properties": { "id": null, "name": "walkway", "type": "walkway" }, "geometry": { "type": "LineString", "coordinates": [ [ 124.98475617338174, 10.250908801631494 ], [ 124.984690646124733, 10.251030011073528 ], [ 124.984625677392174, 10.251284768985744 ] ] } },
{ "type": "Feature", "properties": { "id": null, "name": "Main Road", "type": "road" }, "geometry": { "type": "LineString", "coordinates": [ [ 124.983825823417718, 10.248963070801452 ], [ 124.983952365072881, 10.249070402490259 ], [ 124.984180740011567, 10.249211827934655 ], [ 124.984355679432312, 10.24935154217226 ], [ 124.984416333469795, 10.24939998311285 ], [ 124.98445242743864, 10.249428809315676 ], [ 124.984468538141726, 10.249445931218215 ], [ 124.984550864912208, 10.249533425285581 ], [ 124.984635521139495, 10.249721346478106 ], [ 124.984671992185483, 10.24979662588767 ], [ 124.984716239867851, 10.24988795692672 ], [ 124.984741833610968, 10.249969324788394 ] ] } },
{ "type": "Feature", "properties": { "id": 43, "name": "walkway", "type": "walkway" }, "geometry": { "type": "LineString", "coordinates": [ [ 124.984177938284788, 10.250066102667212 ], [ 124.984254245127161, 10.250096440264052 ] ] } },
{ "type": "Feature", "properties": { "id": null, "name": "Main Road", "type": "road" }, "geometry": { "type": "LineString", "coordinates": [ [ 124.983710328960697, 10.248968859815752 ], [ 124.983825823417718, 10.248963070801452 ] ] } },
{ "type": "Feature", "properties": { "id": null, "name": "walkway", "type": "walkway" }, "geometry": { "type": "LineString", "coordinates": [ [ 124.983825823417718, 10.248963070801452 ], [ 124.983993216624427, 10.248946897341638 ] ] } },
{ "type": "Feature", "properties": { "id": null, "name": "walkway", "type": "walkway" }, "geometry": { "type": "LineString", "coordinates": [ [ 124.984355679432312, 10.24935154217226 ], [ 124.984314122788263, 10.249398296317949 ] ] } },
{ "type": "Feature", "properties": { "id": null, "name": "walkway", "type": "walkway" }, "geometry": { "type": "LineString", "coordinates": [ [ 124.984416333469795, 10.24939998311285 ], [ 124.984366294649249, 10.249457384977552 ] ] } },
{ "type": "Feature", "properties": { "id": null, "name": "walkway", "type": "walkway" }, "geometry": { "type": "LineString", "coordinates": [ [ 124.984671992185483, 10.24979662588767 ], [ 124.984620263331024, 10.249816275697942 ] ] } },
{ "type": "Feature", "properties": { "id": null, "name": "walkway", "type": "walkway" }, "geometry": { "type": "LineString", "coordinates": [ [ 124.984741833610968, 10.249969324788394 ], [ 124.984611896145779, 10.24991556388213 ] ] } },
{ "type": "Feature", "properties": { "id": null, "name": "walkway", "type": "walkway" }, "geometry": { "type": "LineString", "coordinates": [ [ 124.984676096213633, 10.250754804983593 ], [ 124.984601810813515, 10.250775962031 ] ] } },
{ "type": "Feature", "properties": { "id": null, "name": "walkway", "type": "walkway" }, "geometry": { "type": "LineString", "coordinates": [ [ 124.984533387751924, 10.250795854456763 ], [ 124.98446026196433, 10.250815715341632 ] ] } },
{ "type": "Feature", "properties": { "id": null, "name": "walkway", "type": "walkway" }, "geometry": { "type": "LineString", "coordinates": [ [ 124.984468538141726, 10.249445931218215 ], [ 124.9844176929345, 10.249491494630089 ] ] } },
{ "type": "Feature", "properties": { "id": null, "name": "walkway", "type": "walkway" }, "geometry": { "type": "LineString", "coordinates": [ [ 124.983317119896142, 10.24835868687528 ], [ 124.983301557658308, 10.248312373651654 ], [ 124.983129778470001, 10.248363334810852 ] ] } },
{ "type": "Feature", "properties": { "id": null, "name": "Walkway", "type": "walkway" }, "geometry": { "type": "LineString", "coordinates": [ [ 124.982332018161216, 10.248811793210516 ], [ 124.982507222061642, 10.248765154962177 ], [ 124.983367342598811, 10.248520111402511 ] ] } },
{ "type": "Feature", "properties": { "id": null, "name": "Walkway", "type": "walkway" }, "geometry": { "type": "LineString", "coordinates": [ ] } }
]
}
