{
"type": "FeatureCollection",
"name": "indoor_paths_2f",
"crs": { "type": "name", "properties": { "name": "urn:ogc:def:crs:OGC:1.3:CRS84" } },
"features": [
{ "type": "Feature", "properties": { "id": 1, "name": "Main Hallway", "path_type": "hallway", "floor": 2, "building": "IT Building", "is_blocked": 0 }, "geometry": { "type": "MultiLineString", "coordinates": [ [ [ 0.001953618983379, -0.002653884056095 ], [ 0.00419749760188, -0.002661848132815 ], [ 0.006108321596416, -0.002668630116817 ] ] ] } },
{ "type": "Feature", "properties": { "id": 2, "name": "Stairs Access", "path_type": "hallway", "floor": 2, "building": "IT Building", "is_blocked": 0 }, "geometry": { "type": "MultiLineString", "coordinates": [ [ [ 0.00419749760188, -0.002661848132815 ], [ 0.004199935569191, -0.003306397242882 ] ] ] } }
]
}
