{
"type": "FeatureCollection",
"name": "indoor_paths",
"crs": { "type": "name", "properties": { "name": "urn:ogc:def:crs:OGC:1.3:CRS84" } },
"features": [
{ "type": "Feature", "properties": { "id": 1, "name": "Main Hallway", "path_type": "hallway", "floor": 1, "building": "Admin Building", "isblocked": 0 }, "geometry": { "type": "MultiLineString", "coordinates": [ [ [ 0.000224576941594, -0.003087074972936 ], [ 0.004130320307447, -0.003130311984302 ], [ 0.008065021173697, -0.00314086166152 ] ] ] } },
{ "type": "Feature", "properties": { "id": 2, "name": "Main Hallway", "path_type": "hallway", "floor": 1, "building": "Admin Building", "isblocked": 0 }, "geometry": { "type": "MultiLineString", "coordinates": [ [ [ 0.004130320307447, -0.003130311984302 ], [ 0.004134455463672, -0.00701350322935 ] ] ] } },
{ "type": "Feature", "properties": { "id": 3, "name": "Stairs Access", "path_type": "hallway", "floor": 1, "building": "Admin Building", "isblocked": 0 }, "geometry": { "type": "MultiLineString", "coordinates": [ [ [ 0.004130320307447, -0.003130311984302 ], [ 0.004129708639131, -0.002266827670681 ], [ 0.004129283666685, -0.001666899521598 ] ] ] } },
{ "type": "Feature", "properties": { "id": 4, "name": "Stairs Access", "path_type": "hallway", "floor": 1, "building": "Admin Building", "isblocked": 0 }, "geometry": { "type": "MultiLineString", "coordinates": [ [ [ 0.003347307962269, -0.00141451582873 ], [ 0.003347307962269, -0.002266827971719 ], [ 0.004129708639131, -0.002266827670681 ], [ 0.004932928747794, -0.00227309794212 ], [ 0.00491539680869, -0.001406240953554 ] ] ] } }
]
}
