{
"type": "FeatureCollection",
"name": "indoor_path_1f",
"crs": { "type": "name", "properties": { "name": "urn:ogc:def:crs:OGC:1.3:CRS84" } },
"features": [
{ "type": "Feature", "properties": { "id": null, "name": "Hallway", "path_type": "hallway", "floor": 1, "is_blocked": 0 }, "geometry": { "type": "MultiLineString", "coordinates": [ [ [ -0.002260002122751, -0.004081052548001 ], [ -0.002104543822757, -0.004081052548001 ], [ 0.000771434727135, -0.004081052548001 ], [ 0.003414225827037, -0.004081052548001 ], [ 0.005877641965406, -0.004081052548001 ], [ 0.009668432819111, -0.004081052548001 ], [ 0.009982339001791, -0.004081052548001 ], [ 0.011946494830564, -0.004848122304932 ] ] ] } },
{ "type": "Feature", "properties": { "id": null, "name": "Hallway", "path_type": "hallway", "floor": 1, "is_blocked": 0 }, "geometry": { "type": "MultiLineString", "coordinates": [ [ [ 0.003414225827037, -0.004081052548001 ], [ 0.00341497322271, -0.004310512208048 ] ] ] } },
{ "type": "Feature", "properties": { "id": null, "name": "Hallway", "path_type": "hallway", "floor": 1, "is_blocked": 0 }, "geometry": { "type": "MultiLineString", "coordinates": [ [ [ 0.009982339001791, -0.004081052548001 ], [ 0.010134807719093, 0.000616588446173 ], [ 0.009653478328393, 0.000617627386861 ], [ 0.005919473221468, 0.000625687168598 ], [ 0.003396291063919, 0.000631133411143 ], [ 0.000765476796157, 0.000636811975629 ], [ -0.002119491736218, 0.000643039127447 ] ] ] } }
]
}
