{
  "type": "FeatureCollection",
  "name": "indoor_paths",
  "crs": {
    "type": "name",
    "properties": {
      "name": "urn:ogc:def:crs:OGC:1.3:CRS84"
    }
  },
  "features": [
    {
      "type": "Feature",
      "properties": {
        "id": 1,
        "name": "hallway",
        "path_type": "hallway",
        "floor": 1,
        "building": "IT Building",
        "is_blocked": 0
      },
      "geometry": {
        "type": "MultiLineString",
        "coordinates": [
          [
            [
              0.000265670948272,
              -0.002716485446076
            ],
            [
              0.007677890405047,
              -0.002643425935302
            ],
            [
              0.007724382820995,
              -0.003413871685289
            ]
          ]
        ]
      }
    },
    {
      "type": "Feature",
      "properties": {
        "id": 2,
        "name": "Stairs connect",
        "path_type": "hallway",
        "floor": 1,
        "building": "IT Building",
        "is_blocked": 0
      },
      "geometry": {
        "type": "MultiLineString",
        "coordinates": [
          [
            [
              0.00506023842958,
              -0.002669227164451
            ],
            [
              0.005034464469745,
              -0.003387304590462
            ]
          ]
        ]
      }
    },
    {
      "type": "Feature",
      "properties": {
        "id": 3,
        "name": "hallway",
        "path_type": "hallway",
        "floor": 1,
        "building": "IT Building",
        "is_blocked": 0
      },
      "geometry": {
        "type": "MultiLineString",
        "coordinates": [
          [
            [
              0.002808830408896,
              -0.002691418462145
            ],
            [
              0.002769619635731,
              -0.003400588137875
            ]
          ]
        ]
      }
    }
  ]
}