{
"type": "FeatureCollection",
"name": "indoor_rooms_1f",
"crs": { "type": "name", "properties": { "name": "urn:ogc:def:crs:OGC:1.3:CRS84" } },
"features": [
{ "type": "Feature", "properties": { "id": 1, "name": "OFFICE", "room_code": "it-101", "type": "office", "floor": 1 }, "geometry": { "type": "MultiPolygon", "coordinates": [ [ [ [ -0.002264127914311, 0.000862088625343 ], [ 0.000348199997012, 0.000862696973701 ], [ 0.00034781985608, -0.001684254815566 ], [ -0.002264888196175, -0.001685674295012 ], [ -0.002264127914311, 0.000862088625343 ] ] ] ] } },
{ "type": "Feature", "properties": { "id": 2, "name": "CONFERENCE ROOM", "room_code": "it-102", "type": "room", "floor": 1 }, "geometry": { "type": "MultiPolygon", "coordinates": [ [ [ [ 0.000403890631281, 0.000862291408157 ], [ 0.003298283052124, 0.000862291408157 ], [ 0.003298663193056, -0.001684254815566 ], [ 0.000403890631281, -0.001686282643371 ], [ 0.000403890631281, 0.000862291408157 ] ] ] ] } },
{ "type": "Feature", "properties": { "id": 3, "name": "LABORATORY 1", "room_code": "it-103", "type": "classroom", "floor": 1 }, "geometry": { "type": "MultiPolygon", "coordinates": [ [ [ [ 0.00335416375686, 0.000862291408157 ], [ 0.007705445979931, 0.000863305322059 ], [ 0.007705445979931, -0.001686079860556 ], [ 0.003355114109019, -0.001685268729469 ], [ 0.00335416375686, 0.000862291408157 ] ] ] ] } },
{ "type": "Feature", "properties": { "id": 4, "name": "STOCK ROOM", "room_code": "it-104", "type": "room", "floor": 1 }, "geometry": { "type": "MultiPolygon", "coordinates": [ [ [ [ 0.007760851508757, 0.000862392799565 ], [ 0.009442594622678, 0.000862392799565 ], [ 0.009442404552382, -0.001684558989703 ], [ 0.007761041579052, -0.001683747858615 ], [ 0.007760851508757, 0.000862392799565 ] ] ] ] } },
{ "type": "Feature", "properties": { "id": 6, "name": "MALE COMFORT ROOM", "room_code": "MCR", "type": "restroom", "floor": 1 }, "geometry": { "type": "MultiPolygon", "coordinates": [ [ [ [ 0.009499045538811, 0.00086219001675 ], [ 0.01240199112875, 0.000862595582294 ], [ 0.012402371269682, -0.000381071242695 ], [ 0.009498095186652, -0.000381071242695 ], [ 0.009499045538811, 0.00086219001675 ] ] ] ] } },
{ "type": "Feature", "properties": { "id": 7, "name": "FEMALE COMFORT ROOM", "room_code": "FCR", "type": "restroom", "floor": 1 }, "geometry": { "type": "MultiPolygon", "coordinates": [ [ [ [ 0.010232527306081, -0.000442311644075 ], [ 0.01240199112875, -0.000440892164629 ], [ 0.012402181199045, -0.003548538356461 ], [ 0.010231576953922, -0.003547727225374 ], [ 0.010232527306081, -0.000442311644075 ] ] ] ] } }
]
}
