{
"type": "FeatureCollection",
"name": "indoor_entrance_2f",
"crs": { "type": "name", "properties": { "name": "urn:ogc:def:crs:OGC:1.3:CRS84" } },
"features": [
{ "type": "Feature", "properties": { "id": 1, "name": "MCR DOOR", "ent_type": "door", "room_code": "MCR", "floor": 2 }, "geometry": { "type": "Point", "coordinates": [ 0.002244812985965, -0.001287524517922 ] } },
{ "type": "Feature", "properties": { "id": 2, "name": "BASE ROOM DOOR", "ent_type": "door", "room_code": "admin-202", "floor": 2 }, "geometry": { "type": "Point", "coordinates": [ 0.002674030975213, -0.000998175511197 ] } },
{ "type": "Feature", "properties": { "id": 3, "name": "STOCK ROOM", "ent_type": "door", "room_code": "admin-203", "floor": 2 }, "geometry": { "type": "Point", "coordinates": [ 0.005631909348385, -0.000998514140699 ] } },
{ "type": "Feature", "properties": { "id": 4, "name": "FCR", "ent_type": "door", "room_code": "FCR", "floor": 2 }, "geometry": { "type": "Point", "coordinates": [ 0.006037350929428, -0.001326506009991 ] } },
{ "type": "Feature", "properties": { "id": 5, "name": "REGISTRAR  OFFICE DOOR A", "ent_type": "door", "room_code": "admin-205", "floor": 2 }, "geometry": { "type": "Point", "coordinates": [ 0.002244754200358, -0.002099314439545 ] } },
{ "type": "Feature", "properties": { "id": 5, "name": "REGISTRAR OFFICE DOOR B", "ent_type": "door", "room_code": "admin-205", "floor": 2 }, "geometry": { "type": "Point", "coordinates": [ 0.002244977044113, -0.003755152965421 ] } },
{ "type": "Feature", "properties": { "id": 6, "name": "RECORD OFFICE DOOR", "ent_type": "door", "room_code": "admin-206", "floor": 2 }, "geometry": { "type": "Point", "coordinates": [ 0.006037930344234, -0.001947456341083 ] } },
{ "type": "Feature", "properties": { "id": 7, "name": "CASHIER OFFICE DOOR", "ent_type": "door", "room_code": "admin-207", "floor": 2 }, "geometry": { "type": "Point", "coordinates": [ 0.002244888080214, -0.005962052157702 ] } },
{ "type": "Feature", "properties": { "id": 8, "name": "ACCOUNTING & BUDGET OFFICE", "ent_type": "door", "room_code": "admin-208", "floor": 2 }, "geometry": { "type": "Point", "coordinates": [ 0.00603574900792, -0.004870699462921 ] } },
{ "type": "Feature", "properties": { "id": 9, "name": "HEAD QUALITY/ASSURANCE OFFICE DOOR", "ent_type": "door", "room_code": "admin-209", "floor": 2 }, "geometry": { "type": "Point", "coordinates": [ 0.006036247697495, -0.006007756039546 ] } },
{ "type": "Feature", "properties": { "id": 10, "name": "MAIN ENTRANCE", "ent_type": "main", "room_code": "ENTRANCE", "floor": 2 }, "geometry": { "type": "Point", "coordinates": [ 0.004137191050614, -0.007160926143739 ] } },
{ "type": "Feature", "properties": { "id": null, "name": "MAIN ENTRANCE SIDE A", "ent_type": "door", "room_code": "ENTRANCE", "floor": 2 }, "geometry": { "type": "Point", "coordinates": [ 0.003319542773184, -0.006238922300698 ] } },
{ "type": "Feature", "properties": { "id": null, "name": "MAIN ENTRANCE SIDE B", "ent_type": "door", "room_code": "ENTRANCE", "floor": 2 }, "geometry": { "type": "Point", "coordinates": [ 0.00495914274003, -0.006236234242847 ] } },
{ "type": "Feature", "properties": { "id": null, "name": "STAIRS OF A", "ent_type": "stairs", "room_code": "STAIRS_OF_A", "floor": 2 }, "geometry": { "type": "Point", "coordinates": [ 0.003367597540366, -0.001290207796213 ] } },
{ "type": "Feature", "properties": { "id": null, "name": "STAIRS OF B", "ent_type": "stairs", "room_code": "STAIRS_OF_B", "floor": 2 }, "geometry": { "type": "Point", "coordinates": [ 0.004145797874587, -0.001552965451191 ] } },
{ "type": "Feature", "properties": { "id": null, "name": "STAIRS OF C", "ent_type": "stairs", "room_code": "STAIRS_OF_C", "floor": 2 }, "geometry": { "type": "Point", "coordinates": [ 0.004915391384834, -0.00128718373113 ] } }
]
}
