{
"type": "FeatureCollection",
"name": "indoor_path_1f",
"crs": { "type": "name", "properties": { "name": "urn:ogc:def:crs:OGC:1.3:CRS84" } },
"features": [
{ "type": "Feature", "properties": { "id": null, "name": "Hallway", "path_type": "hallway", "floor": 1, "is_blocked": 0 }, "geometry": { "type": "MultiLineString", "coordinates": [ [ [ -0.000998951999086, -0.003938512641261 ], [ -0.001001190253089, -0.003477614617259 ], [ -0.000831045062368, -0.003477862885116 ], [ -0.000156669230245, -0.003478846902601 ], [ 0.003579732098088, -0.003484298883624 ], [ 0.004260098566262, -0.003485291642364 ], [ 0.005200472370609, -0.003486663791575 ], [ 0.006367083977888, -0.003488366056344 ], [ 0.010378087491061, -0.003494218723956 ], [ 0.011016673359482, -0.00349515051841 ], [ 0.011965761271168, -0.003496535382837 ], [ 0.011962776932497, -0.003865490311608 ] ] ] } },
{ "type": "Feature", "properties": { "id": null, "name": "Hallway", "path_type": "hallway", "floor": 1, "is_blocked": 0 }, "geometry": { "type": "MultiLineString", "coordinates": [ [ [ -0.000829588000819, -0.000198006984068 ], [ -0.000830162375953, -0.001490929492405 ], [ -0.000831045062368, -0.003477862885116 ] ] ] } },
{ "type": "Feature", "properties": { "id": null, "name": "Hallway", "path_type": "hallway", "floor": 1, "is_blocked": 0 }, "geometry": { "type": "MultiLineString", "coordinates": [ [ [ 0.004260098566262, -0.003485291642364 ], [ 0.004239307291319, -0.000849908375312 ] ] ] } },
{ "type": "Feature", "properties": { "id": null, "name": "Hallway", "path_type": "hallway", "floor": 1, "is_blocked": 0 }, "geometry": { "type": "MultiLineString", "coordinates": [ [ [ 0.011016673359482, -0.00349515051841 ], [ 0.010988395290521, -0.000850604634001 ] ] ] } }
]
}
