{
"type": "FeatureCollection",
"name": "indoor_rooms_1f",
"crs": { "type": "name", "properties": { "name": "urn:ogc:def:crs:OGC:1.3:CRS84" } },
"features": [
{ "type": "Feature", "properties": { "id": 1, "name": "OFFICE", "room_code": "it-101", "type": "office", "floor": 1 }, "geometry": { "type": "MultiPolygon", "coordinates": [ [ [ [ -0.000798108278554, 0.000207102671588 ], [ 0.001291754050505, 0.000207589350274 ], [ 0.001291449937759, -0.00182997208114 ], [ -0.000798716504045, -0.001831107664696 ], [ -0.000798108278554, 0.000207102671588 ] ] ] ] } },
{ "type": "Feature", "properties": { "id": 2, "name": "CONFERENCE ROOM", "room_code": "it-102", "type": "room", "floor": 1 }, "geometry": { "type": "MultiPolygon", "coordinates": [ [ [ [ 0.00133630655792, 0.000207264897839 ], [ 0.003651820494594, 0.000207264897839 ], [ 0.00365212460734, -0.00182997208114 ], [ 0.00133630655792, -0.001831594343383 ], [ 0.00133630655792, 0.000207264897839 ] ] ] ] } },
{ "type": "Feature", "properties": { "id": 3, "name": "LABORATORY 1", "room_code": "it-103", "type": "classroom", "floor": 1 }, "geometry": { "type": "MultiPolygon", "coordinates": [ [ [ [ 0.003696525058383, 0.000207264897839 ], [ 0.00717755083684, 0.000208076028961 ], [ 0.00717755083684, -0.001831432117131 ], [ 0.003697285340111, -0.001830783212261 ], [ 0.003696525058383, 0.000207264897839 ] ] ] ] } },
{ "type": "Feature", "properties": { "id": 4, "name": "STOCK ROOM", "room_code": "it-104", "type": "room", "floor": 1 }, "geometry": { "type": "MultiPolygon", "coordinates": [ [ [ [ 0.0072218752599, 0.000207346010965 ], [ 0.008567269751037, 0.000207346010965 ], [ 0.008567117694801, -0.001830215420449 ], [ 0.007222027316137, -0.001829566515579 ], [ 0.0072218752599, 0.000207346010965 ] ] ] ] } },
{ "type": "Feature", "properties": { "id": 6, "name": "MALE COMFORT ROOM", "room_code": "MCR", "type": "restroom", "floor": 1 }, "geometry": { "type": "MultiPolygon", "coordinates": [ [ [ [ 0.008612430483944, 0.000207183784714 ], [ 0.010934786955895, 0.000207508237149 ], [ 0.01093509106864, -0.000787425222843 ], [ 0.008611670202216, -0.000787425222843 ], [ 0.008612430483944, 0.000207183784714 ] ] ] ] } },
{ "type": "Feature", "properties": { "id": 7, "name": "FEMALE COMFORT ROOM", "room_code": "FCR", "type": "restroom", "floor": 1 }, "geometry": { "type": "MultiPolygon", "coordinates": [ [ [ [ 0.00919921589776, -0.000836417543946 ], [ 0.010934786955895, -0.000835281960389 ], [ 0.010934939012131, -0.003321398913856 ], [ 0.009198455616032, -0.003320750008985 ], [ 0.00919921589776, -0.000836417543946 ] ] ] ] } }
]
}
