{
"type": "FeatureCollection",
"name": "indoor_rooms_1f",
"crs": { "type": "name", "properties": { "name": "urn:ogc:def:crs:OGC:1.3:CRS84" } },
"features": [
{ "type": "Feature", "properties": { "id": 1, "name": "IGP OFFICE", "room_code": "mpb-101", "type": "office", "floor": 1 }, "geometry": { "type": "MultiPolygon", "coordinates": [ [ [ [ -0.00223595438131, 0.000403213377483 ], [ 0.002197849586266, 0.000402715596876 ], [ 0.00220147279739, -0.001401573176889 ], [ -0.002236558249831, -0.001405555421746 ], [ -0.00223595438131, 0.000403213377483 ] ] ] ] } },
{ "type": "Feature", "properties": { "id": 2, "name": "STORAGE ROOM", "room_code": "mpb-102", "type": "room", "floor": 1 }, "geometry": { "type": "MultiPolygon", "coordinates": [ [ [ [ 0.003225468083236, 0.000402898127492 ], [ 0.004714354333781, 0.00040324038014 ], [ 0.004714354333781, -0.001404538104889 ], [ 0.0032287896365, -0.001404538104889 ], [ 0.003225468083236, 0.000402898127492 ] ] ] ] } },
{ "type": "Feature", "properties": { "id": 3, "name": "STOCK ROOM", "room_code": "mpb-103", "type": "room", "floor": 1 }, "geometry": { "type": "MultiPolygon", "coordinates": [ [ [ [ 0.004782498074961, 0.000403112035397 ], [ 0.005672907896401, 0.000403347334092 ], [ 0.005672596500782, -0.001403233266669 ], [ 0.004782524024596, -0.001403062140346 ], [ 0.004782498074961, 0.000403112035397 ] ] ] ] } },
{ "type": "Feature", "properties": { "id": 4, "name": "FEMALE COMFORT ROOM", "room_code": "FCR", "type": "restroom", "floor": 1 }, "geometry": { "type": "MultiPolygon", "coordinates": [ [ [ [ 0.010242988917828, 0.000403117383095 ], [ 0.012158902359864, 0.000402775130447 ], [ 0.012160147942338, -0.000303634334358 ], [ 0.010241950932433, -0.000304661092301 ], [ 0.010242988917828, 0.000403117383095 ] ] ] ] } },
{ "type": "Feature", "properties": { "id": 5, "name": "MALE COMFORT ROOM", "room_code": "MCR", "type": "restroom", "floor": 1 }, "geometry": { "type": "MultiPolygon", "coordinates": [ [ [ [ 0.010242781320749, -0.000358822573796 ], [ 0.012160044143798, -0.000358908136958 ], [ 0.012160044143798, -0.00107857989186 ], [ 0.010243196514907, -0.001078836581346 ], [ 0.010242781320749, -0.000358822573796 ] ] ] ] } },
{ "type": "Feature", "properties": { "id": 6, "name": "DINING AREA", "room_code": null, "type": "dining", "floor": 1 }, "geometry": { "type": "MultiPolygon", "coordinates": [ [ [ [ 0.00204373468588, -0.001459421525562 ], [ 0.010174066687602, -0.001459250399238 ], [ 0.01017448188176, -0.003801627519938 ], [ 0.002088575654942, -0.00380128526729 ], [ 0.00204373468588, -0.001459421525562 ] ] ] ] } },
{ "type": "Feature", "properties": { "id": 7, "name": "DINING AREA EXTENSION", "room_code": null, "type": "Dining", "floor": 1 }, "geometry": { "type": "MultiPolygon", "coordinates": [ [ [ [ 0.010242988917828, -0.001134966015565 ], [ 0.012159940345259, -0.001135137141889 ], [ 0.012160044143798, -0.005495093620643 ], [ 0.005723496709588, -0.005495606999614 ], [ 0.004765436190031, -0.004577514272221 ], [ 0.004765436190031, -0.003858184769967 ], [ 0.010242885119289, -0.003858184769967 ], [ 0.010242988917828, -0.001134966015565 ] ] ] ] } },
{ "type": "Feature", "properties": { "id": null, "name": "KITCHEN ROOM", "room_code": "mpb-104", "type": "room", "floor": 1 }, "geometry": { "type": "MultiPolygon", "coordinates": [ [ [ [ 0.006598258743515, 0.000868669417264 ], [ 0.009216058067314, 0.000868880455002 ], [ 0.009204006927873, -0.001402886555154 ], [ 0.006596596382425, -0.00140415731971 ], [ 0.006598258743515, 0.000868669417264 ] ] ] ] } }
]
}
