{
"type": "FeatureCollection",
"name": "indoor_paths_1f",
"crs": { "type": "name", "properties": { "name": "urn:ogc:def:crs:OGC:1.3:CRS84" } },
"features": [
{ "type": "Feature", "properties": { "id": null, "name": "Hallway", "path_type": "hallway", "floor": 1, "is_blocked": 0 }, "geometry": { "type": "MultiLineString", "coordinates": [ [ [ -0.002232288284999, -0.004941443144849 ], [ 0.000102436054746, -0.004946409529354 ], [ 0.002778425937119, -0.004952101847913 ], [ 0.005481936693669, -0.004957852708391 ], [ 0.00817174256148, -0.004963574416071 ], [ 0.009983361615232, -0.004967428060224 ], [ 0.013510110018069, -0.004974930097327 ], [ 0.016186248029374, -0.004980622730984 ], [ 0.018917187079519, -0.004986431936445 ], [ 0.021442367637412, -0.004991803456064 ], [ 0.023898820074329, -0.004997028778435 ], [ 0.02627304317881, -0.005002079184018 ], [ 0.028756923909322, -0.005007362851371 ], [ 0.029381352717338, -0.005008691125337 ], [ 0.029552890649004, -0.005009056017805 ] ] ] } },
{ "type": "Feature", "properties": { "id": null, "name": "Hallway", "path_type": "hallway", "floor": 1, "is_blocked": 0 }, "geometry": { "type": "MultiLineString", "coordinates": [ [ [ 0.029381352717338, -0.005008691125337 ], [ 0.029387499433611, -0.003781453677579 ], [ 0.029399096463468, -0.001466020738604 ], [ 0.029408794635703, 0.000470291206558 ], [ 0.028736346573631, 0.000470291206558 ], [ 0.026293576062431, 0.000470291206558 ], [ 0.023898837555665, 0.000470291206558 ], [ 0.021353141320679, 0.000470291206558 ], [ 0.018848615375207, 0.000470291206558 ], [ 0.016165684841839, 0.000470291206558 ], [ 0.013510201168147, 0.000470291206558 ], [ 0.008164925246168, 0.000470291206558 ], [ 0.005536888432152, 0.000470291206558 ], [ 0.002833372754027, 0.000470291206558 ], [ 0.000109271931144, 0.000470291206558 ], [ -0.002127647132483, 0.000470291206558 ] ] ] } }
]
}
