{
"type": "FeatureCollection",
"name": "indoor_paths_1f",
"crs": { "type": "name", "properties": { "name": "urn:ogc:def:crs:OGC:1.3:CRS84" } },
"features": [
{ "type": "Feature", "properties": { "id": null, "name": "Hallway", "path_type": "hallway", "floor": 1, "is_blocked": 0 }, "geometry": { "type": "MultiLineString", "coordinates": [ [ [ -0.002284269991428, -0.004931203683442 ], [ -0.001268853538318, -0.004936161404948 ], [ -0.000105014146806, -0.004941843794241 ], [ 0.001070794601416, -0.004947584623337 ], [ 0.002240642830328, -0.004953296350487 ], [ 0.003028550748463, -0.004957143272623 ], [ 0.004562401359114, -0.00496463222372 ], [ 0.005726305174743, -0.004970314927561 ], [ 0.006914043014603, -0.004976113999867 ], [ 0.008012292534646, -0.004981476149799 ], [ 0.009080650874971, -0.004986692357498 ], [ 0.010113246099428, -0.004991733953521 ], [ 0.011193533531391, -0.00499700840443 ], [ 0.011465109611985, -0.004998334361452 ], [ 0.011539714752807, -0.004998698617427 ] ] ] } },
{ "type": "Feature", "properties": { "id": null, "name": "Hallway", "path_type": "hallway", "floor": 1, "is_blocked": 0 }, "geometry": { "type": "MultiLineString", "coordinates": [ [ [ 0.011465109611985, -0.004998334361452 ], [ 0.011467782936938, -0.003773237617301 ], [ 0.011472826707941, -0.001461843550877 ], [ 0.011477044629297, 0.000471090832777 ], [ 0.011184584052917, 0.000471090832777 ], [ 0.010122176244844, 0.000471090832777 ], [ 0.00908065847794, 0.000471090832777 ], [ 0.007973486295931, 0.000471090832777 ], [ 0.006884219863497, 0.000471090832777 ], [ 0.005717361849573, 0.000471090832777 ], [ 0.004562441002033, 0.000471090832777 ], [ 0.002237677848974, 0.000471090832777 ], [ 0.001094694167816, 0.000471090832777 ], [ -0.000081116720894, 0.000471090832777 ], [ -0.001265880484392, 0.000471090832777 ], [ -0.002238759544594, 0.000471090832777 ] ] ] } }
]
}
