{
  "type": "FeatureCollection",
  "name": "indoor_entrances",
  "crs": {
    "type": "name",
    "properties": {
      "name": "urn:ogc:def:crs:OGC:1.3:CRS84"
    }
  },
  "features": [
    {
      "type": "Feature",
      "properties": {
        "id": 1,
        "name": "Main Entrance",
        "ent_type": "main",
        "room_code": null,
        "floor": 1,
        "building": "IT Building"
      },
      "geometry": {
        "type": "Point",
        "coordinates": [
          0.002770199092174,
          -0.003390254497965
        ]
      }
    },
    {
      "type": "Feature",
      "properties": {
        "id": 2,
        "name": "ROOM 101",
        "ent_type": "door",
        "room_code": "IT-101",
        "floor": 1,
        "building": "IT Building"
      },
      "geometry": {
        "type": "Point",
        "coordinates": [
          0.002053724865781,
          -0.001937371361536
        ]
      }
    },
    {
      "type": "Feature",
      "properties": {
        "id": 3,
        "name": "ROOM 102",
        "ent_type": "door",
        "room_code": "IT-102",
        "floor": 1,
        "building": "IT Building"
      },
      "geometry": {
        "type": "Point",
        "coordinates": [
          0.003312385534445,
          -0.001950934232718
        ]
      }
    }
  ]
}