{
"type": "FeatureCollection",
"name": "indoor_rooms_0f",
"crs": { "type": "name", "properties": { "name": "urn:ogc:def:crs:OGC:1.3:CRS84" } },
"features": [
{ "type": "Feature", "properties": { "id": null, "name": "EXTENSION OFFICE", "room_code": "admin-001", "type": "office", "floor": 0 }, "geometry": { "type": "MultiPolygon", "coordinates": [ [ [ [ 0.000202711486745, -0.000355249207704 ], [ 0.002134213477128, -0.000355416449082 ], [ 0.002134213477128, -0.003545880220322 ], [ 0.000202539751884, -0.003545880220322 ], [ 0.000202711486745, -0.000355249207704 ] ] ] ] } },
{ "type": "Feature", "properties": { "id": null, "name": "MALE COMFORT ROOM", "room_code": "MCR", "type": "restroom", "floor": 0 }, "geometry": { "type": "MultiPolygon", "coordinates": [ [ [ [ 0.002200331398912, -0.000355750931838 ], [ 0.003052737385332, -0.000355416449082 ], [ 0.003052651517901, -0.00166474919873 ], [ 0.002200503133774, -0.001664916440108 ], [ 0.002200331398912, -0.000355750931838 ] ] ] ] } },
{ "type": "Feature", "properties": { "id": null, "name": "FEMALE COMFORT ROOM", "room_code": "FCR", "type": "restroom", "floor": 0 }, "geometry": { "type": "MultiPolygon", "coordinates": [ [ [ [ 0.005230163697777, -0.000355291018048 ], [ 0.006016365894982, -0.000355792742183 ], [ 0.00601610829269, -0.001664665578041 ], [ 0.005230292498923, -0.001664916440108 ], [ 0.005230163697777, -0.000355291018048 ] ] ] ] } },
{ "type": "Feature", "properties": { "id": null, "name": "RESEARCH AND DEVELOPMENT OFFICE", "room_code": "admin-004", "type": "office", "floor": 0 }, "geometry": { "type": "MultiPolygon", "coordinates": [ [ [ [ 0.006082263781474, -0.000355557558995 ], [ 0.008070872980112, -0.000355588916753 ], [ 0.008070872980112, -0.006551881977739 ], [ 0.006082183280758, -0.006551756546705 ], [ 0.006082263781474, -0.000355557558995 ] ] ] ] } },
{ "type": "Feature", "properties": { "id": null, "name": "EXECUTIVE OPERATION AND EXTERNAL AFFAIRS", "room_code": "admin-005", "type": "office", "floor": 0 }, "geometry": { "type": "MultiPolygon", "coordinates": [ [ [ [ 0.000202861754749, -0.003601305058304 ], [ 0.002134492546279, -0.003600928765203 ], [ 0.002134878949718, -0.006551066676021 ], [ 0.00020247535131, -0.006552571848424 ], [ 0.000202861754749, -0.003601305058304 ] ] ] ] } },
{ "type": "Feature", "properties": { "id": null, "name": "COMPUTER SHOP", "room_code": "admin-006", "type": "room", "floor": 0 }, "geometry": { "type": "MultiPolygon", "coordinates": [ [ [ [ 0.002617013840722, -0.003591874212463 ], [ 0.005665821500135, -0.003591885971623 ], [ 0.005665724899275, -0.006560932610759 ], [ 0.002617001765615, -0.00656130890386 ], [ 0.002617013840722, -0.003591874212463 ] ] ] ] } },
{ "type": "Feature", "properties": { "id": null, "name": "OFFICE 2", "room_code": "admin-007", "type": "office", "floor": 0 }, "geometry": { "type": "MultiPolygon", "coordinates": [ [ [ [ 0.00262646864987, -0.006597715261369 ], [ 0.003734770313764, -0.006597433041543 ], [ 0.003734383910325, -0.007621326569009 ], [ 0.00262656525073, -0.007620950275909 ], [ 0.00262646864987, -0.006597715261369 ] ] ] ] } },
{ "type": "Feature", "properties": { "id": null, "name": "CLERK 1", "room_code": "admin-008", "type": "office", "floor": 0 }, "geometry": { "type": "MultiPolygon", "coordinates": [ [ [ [ 0.003772154846486, -0.006597621188094 ], [ 0.004482750770796, -0.006597386004906 ], [ 0.004482183240745, -0.007621097265401 ], [ 0.003772148808933, -0.007621179579517 ], [ 0.003772154846486, -0.006597621188094 ] ] ] ] } },
{ "type": "Feature", "properties": { "id": null, "name": "OFFICE 1", "room_code": "admin-009", "type": "office", "floor": 0 }, "geometry": { "type": "MultiPolygon", "coordinates": [ [ [ [ 0.004520080965535, -0.006597662345152 ], [ 0.005647268097509, -0.006597191978776 ], [ 0.005647268097509, -0.007621273652792 ], [ 0.004520129265965, -0.007622402532095 ], [ 0.004520080965535, -0.006597662345152 ] ] ] ] } }
]
}
