{
"type": "FeatureCollection",
"name": "indoor_rooms_2f",
"crs": { "type": "name", "properties": { "name": "urn:ogc:def:crs:OGC:1.3:CRS84" } },
"features": [
{ "type": "Feature", "properties": { "id": 1, "name": "MALE COMFORT ROOM", "room_code": "MCR", "type": "restroom", "floor": 2 }, "geometry": { "type": "MultiPolygon", "coordinates": [ [ [ [ 0.000201658033081, -0.000310923150474 ], [ 0.002235013791097, -0.000311089326531 ], [ 0.002233796703121, -0.001288535171127 ], [ 0.002233596818444, -0.001449062964344 ], [ 0.000200949546754, -0.001447068851661 ], [ 0.000201658033081, -0.000310923150474 ] ] ] ] } },
{ "type": "Feature", "properties": { "id": 2, "name": "BASE ROOM", "room_code": "admin-202", "type": "room", "floor": 2 }, "geometry": { "type": "MultiPolygon", "coordinates": [ [ [ [ 0.002297006344695, -0.000310756974417 ], [ 0.003040208501545, -0.000311421678645 ], [ 0.003039854258382, -0.000980446483819 ], [ 0.002666134735419, -0.000980613766691 ], [ 0.002297360587859, -0.000980778835933 ], [ 0.002297006344695, -0.000310756974417 ] ] ] ] } },
{ "type": "Feature", "properties": { "id": 3, "name": "STOCK ROOM", "room_code": "admin-203", "type": "room", "floor": 2 }, "geometry": { "type": "MultiPolygon", "coordinates": [ [ [ [ 0.005231556710446, -0.000313748143442 ], [ 0.005971216435662, -0.000311089326531 ], [ 0.005971393557244, -0.000980446483819 ], [ 0.005655985144424, -0.000981011615778 ], [ 0.005229431251466, -0.000981775892275 ], [ 0.005231556710446, -0.000313748143442 ] ] ] ] } },
{ "type": "Feature", "properties": { "id": 4, "name": "FEMLAE COMFORT ROOM", "room_code": "FCR", "type": "restroom", "floor": 2 }, "geometry": { "type": "MultiPolygon", "coordinates": [ [ [ [ 0.00603427171875, -0.000311089326531 ], [ 0.008067627476767, -0.000305771692709 ], [ 0.008067627476767, -0.001454380598165 ], [ 0.006035688691404, -0.001454380598165 ], [ 0.006035470020786, -0.001277945147334 ], [ 0.00603427171875, -0.000311089326531 ] ] ] ] } },
{ "type": "Feature", "properties": { "id": 5, "name": "REGISTRAR OFFICE", "room_code": "admin-205", "type": "office", "floor": 2 }, "geometry": { "type": "MultiPolygon", "coordinates": [ [ [ [ 0.000202012276244, -0.001502239302559 ], [ 0.002233951061607, -0.001503568711015 ], [ 0.002234265496626, -0.002096821715015 ], [ 0.002235116660857, -0.003702736154933 ], [ 0.002235368034261, -0.004177009114802 ], [ 0.000202012276244, -0.004175347354233 ], [ 0.000202012276244, -0.001502239302559 ] ] ] ] } },
{ "type": "Feature", "properties": { "id": 6, "name": "RECORD OFFICE", "room_code": "admin-206", "type": "office", "floor": 2 }, "geometry": { "type": "MultiPolygon", "coordinates": [ [ [ [ 0.006032500502933, -0.001502239302559 ], [ 0.008068690206257, -0.001502904006787 ], [ 0.008069398692584, -0.00266680110948 ], [ 0.006027541098646, -0.002668130517936 ], [ 0.006030536988669, -0.001963835877377 ], [ 0.006032500502933, -0.001502239302559 ] ] ] ] } },
{ "type": "Feature", "properties": { "id": 7, "name": "CASHIER OFFICE", "room_code": "admin-207", "type": "office", "floor": 2 }, "geometry": { "type": "MultiPolygon", "coordinates": [ [ [ [ 0.000202012276244, -0.004232844269928 ], [ 0.002234659547934, -0.004233176622042 ], [ 0.002235556903448, -0.005968055860604 ], [ 0.002235722277424, -0.006287777389846 ], [ 0.000200241060427, -0.006288442094073 ], [ 0.000202012276244, -0.004232844269928 ] ] ] ] } },
{ "type": "Feature", "properties": { "id": 8, "name": "ACCOUNTING & BUDGET OFFICE", "room_code": "admin-208", "type": "office", "floor": 2 }, "geometry": { "type": "MultiPolygon", "coordinates": [ [ [ [ 0.006032500502933, -0.00272030979981 ], [ 0.008070107178911, -0.00272296861672 ], [ 0.008067273233604, -0.00540438547124 ], [ 0.006030375043953, -0.005405714879695 ], [ 0.006030792791749, -0.004877912619575 ], [ 0.006032500502933, -0.00272030979981 ] ] ] ] } },
{ "type": "Feature", "properties": { "id": 9, "name": "HEAD QUALITY/ASSURANCE OFFICE", "room_code": "admin-209", "type": "office", "floor": 2 }, "geometry": { "type": "MultiPolygon", "coordinates": [ [ [ [ 0.006033917475587, -0.005462879443277 ], [ 0.008067273233604, -0.005462547091163 ], [ 0.008067627476767, -0.006285118572935 ], [ 0.006038522636711, -0.006289771502529 ], [ 0.006036997883214, -0.006015990298007 ], [ 0.006033917475587, -0.005462879443277 ] ] ] ] } }
]
}
