{
"type": "FeatureCollection",
"name": "indoor_rooms",
"crs": { "type": "name", "properties": { "name": "urn:ogc:def:crs:OGC:1.3:CRS84" } },
"features": [
{ "type": "Feature", "properties": { "id": 1, "name": "MALE COMFORT ROOM", "room_code": "MCR", "type": "restroom", "floor": 2, "building": "Admin Building" }, "geometry": { "type": "MultiPolygon", "coordinates": [ [ [ [ 0.000145658841454, -0.001384652502446 ], [ 0.000143788928998, -0.000332639754793 ], [ 0.001913848059916, -0.000333013737284 ], [ 0.001913848059916, -0.001381660642517 ], [ 0.000145658841454, -0.001384652502446 ] ] ] ] } },
{ "type": "Feature", "properties": { "id": 2, "name": "BASE ROOM", "room_code": "admin-202", "type": "room", "floor": 2, "building": "Admin Building" }, "geometry": { "type": "MultiPolygon", "coordinates": [ [ [ [ 0.001965831626195, -0.000951954760202 ], [ 0.00196732755616, -0.000333013737284 ], [ 0.002614317265961, -0.000332639754793 ], [ 0.002614317265961, -0.000951954760202 ], [ 0.001965831626195, -0.000951954760202 ] ] ] ] } },
{ "type": "Feature", "properties": { "id": 3, "name": "STOCK ROOM", "room_code": "admin-203", "type": "room", "floor": 2, "building": "Admin Building" }, "geometry": { "type": "MultiPolygon", "coordinates": [ [ [ [ 0.004520132041189, -0.000951954760202 ], [ 0.004519384076207, -0.000332639754793 ], [ 0.005165625821025, -0.000332639754793 ], [ 0.005165625821025, -0.000950458830237 ], [ 0.004520132041189, -0.000951954760202 ] ] ] ] } },
{ "type": "Feature", "properties": { "id": 4, "name": "WOMENS COMFORT ROOM", "room_code": "FCR", "type": "restroom", "floor": 2, "building": "Admin Building" }, "geometry": { "type": "MultiPolygon", "coordinates": [ [ [ [ 0.005218731334778, -0.001385774449919 ], [ 0.005220227264743, -0.000331143824828 ], [ 0.006997392062993, -0.000334135684757 ], [ 0.006989912413169, -0.00138278258999 ], [ 0.005218731334778, -0.001385774449919 ] ] ] ] } },
{ "type": "Feature", "properties": { "id": 5, "name": "REGISTRAR OFFICE", "room_code": "admin-205", "type": "office", "floor": 2, "building": "Admin Building" }, "geometry": { "type": "MultiPolygon", "coordinates": [ [ [ [ 0.000143040964016, -0.003919879807465 ], [ 0.000144536893981, -0.001438131998673 ], [ 0.001912726112442, -0.001435140138744 ], [ 0.001912726112442, -0.00391389608762 ], [ 0.000143040964016, -0.003919879807465 ] ] ] ] } },
{ "type": "Feature", "properties": { "id": 6, "name": "RECORD\"S OFFICE", "room_code": "admin-206", "type": "office", "floor": 2, "building": "Admin Building" }, "geometry": { "type": "MultiPolygon", "coordinates": [ [ [ [ 0.005223219124672, -0.002521185292568 ], [ 0.005223219124672, -0.001438131998673 ], [ 0.006991408343134, -0.001435140138744 ], [ 0.006988416483204, -0.002512209712787 ], [ 0.005223219124672, -0.002521185292568 ] ] ] ] } },
{ "type": "Feature", "properties": { "id": 7, "name": "CASHIER'S OFFICE", "room_code": "admin-207", "type": "office", "floor": 2, "building": "Admin Building" }, "geometry": { "type": "MultiPolygon", "coordinates": [ [ [ [ 0.000143040964016, -0.005881043984125 ], [ 0.000146032823945, -0.003966253636266 ], [ 0.001920205762267, -0.003966253636266 ], [ 0.001917213902337, -0.005875060264297 ], [ 0.000143040964016, -0.005881043984125 ] ] ] ] } },
{ "type": "Feature", "properties": { "id": 8, "name": "ACCOUNTING AND BUDGET OFFICE", "room_code": "admin-208", "type": "office", "floor": 2, "building": "Admin Building" }, "geometry": { "type": "MultiPolygon", "coordinates": [ [ [ [ 0.005222097177199, -0.005059404454678 ], [ 0.005219105317269, -0.002569429033887 ], [ 0.006988790465696, -0.002570176998868 ], [ 0.006988790465696, -0.005057908524719 ], [ 0.005222097177199, -0.005059404454678 ] ] ] ] } },
{ "type": "Feature", "properties": { "id": 9, "name": "HEAD QUALITY/ASSURANCE OFFICE", "room_code": "admin-209", "type": "office", "floor": 2, "building": "Admin Building" }, "geometry": { "type": "MultiPolygon", "coordinates": [ [ [ [ 0.005219853282251, -0.005885157791506 ], [ 0.005223593107164, -0.005113257933201 ], [ 0.006988790465696, -0.005113257933201 ], [ 0.006986546570748, -0.005871694421893 ], [ 0.005219853282251, -0.005885157791506 ] ] ] ] } }
]
}
