{
"type": "FeatureCollection",
"name": "start_point",
"crs": { "type": "name", "properties": { "name": "urn:ogc:def:crs:OGC:1.3:CRS84" } },
"features": [
{ "type": "Feature", "properties": { "id": 1, "name": "Default Start", "type": "default_start" }, "geometry": { "type": "Point", "coordinates": [ 124.985554279662196, 10.251272726040797 ] } },
{ "type": "Feature", "properties": { "id": 2, "name": "Main Gate", "type": "main_gate" }, "geometry": { "type": "Point", "coordinates": [ 124.985011515137288, 10.251014595403982 ] } }
]
}
