{
"type": "FeatureCollection",
"name": "indoor_paths",
"crs": { "type": "name", "properties": { "name": "urn:ogc:def:crs:OGC:1.3:CRS84" } },
"features": [
{ "type": "Feature", "properties": { "id": null, "name": "Main Hallway", "path_type": "hallway", "floor": 0, "building": "Admin Building", "isblocked": 0 }, "geometry": { "type": "MultiLineString", "coordinates": [ [ [ 0.002231857838279, -0.00639408562871 ], [ 0.002237841558138, -0.002633317709403 ], [ 0.003132177510261, -0.002640608491614 ], [ 0.003889360433612, -0.002646781178482 ], [ 0.004661087057305, -0.002653072428125 ], [ 0.005540854920544, -0.002660244448742 ], [ 0.005537863060614, -0.006397077488621 ] ] ] } },
{ "type": "Feature", "properties": { "id": null, "name": "Stairs Access", "path_type": "hallway", "floor": 0, "building": "Admin Building", "isblocked": 0 }, "geometry": { "type": "MultiLineString", "coordinates": [ [ [ 0.003886356379411, -0.00375975297117 ], [ 0.003889360433612, -0.002646781178482 ], [ 0.0038953319592, -0.001628052773727 ] ] ] } },
{ "type": "Feature", "properties": { "id": null, "name": "Stairs Access", "path_type": "hallway", "floor": 0, "building": "Admin Building", "isblocked": 0 }, "geometry": { "type": "MultiLineString", "coordinates": [ [ [ 0.003132177510261, -0.002640608491614 ], [ 0.003141383256912, -0.001337842360642 ] ] ] } },
{ "type": "Feature", "properties": { "id": null, "name": "Stairs Access", "path_type": "hallway", "floor": 1, "building": "Admin Building", "isblocked": 0 }, "geometry": { "type": "MultiLineString", "coordinates": [ [ [ 0.004661087057305, -0.002653072428125 ], [ 0.004649280661489, -0.001340834220571 ] ] ] } }
]
}
