{
"type": "FeatureCollection",
"name": "indoor_entrance_1f",
"crs": { "type": "name", "properties": { "name": "urn:ogc:def:crs:OGC:1.3:CRS84" } },
"features": [
{ "type": "Feature", "properties": { "id": 1, "name": "OFFICE DOOR A", "ent_type": "door", "room_code": "it-101", "floor": 1 }, "geometry": { "type": "Point", "coordinates": [ -0.000479931641798, -0.00183093394416 ] } },
{ "type": "Feature", "properties": { "id": 2, "name": "OFFICE DOOR B", "ent_type": "door", "room_code": "it-101", "floor": 1 }, "geometry": { "type": "Point", "coordinates": [ 0.000999285672703, -0.00183013028813 ] } },
{ "type": "Feature", "properties": { "id": 3, "name": "CONFERENCE ROOM DOOR", "ent_type": "door", "room_code": "it-102", "floor": 1 }, "geometry": { "type": "Point", "coordinates": [ 0.001646433240382, -0.00183137709534 ] } },
{ "type": "Feature", "properties": { "id": 4, "name": "LABORATORY 1 DOOR", "ent_type": "door", "room_code": "it-103", "floor": 1 }, "geometry": { "type": "Point", "coordinates": [ 0.004098786556922, -0.001830855109659 ] } },
{ "type": "Feature", "properties": { "id": 5, "name": "STOCK ROOM DOOR", "ent_type": "door", "room_code": "it-104", "floor": 1 }, "geometry": { "type": "Point", "coordinates": [ 0.008397714384008, -0.001830129743524 ] } },
{ "type": "Feature", "properties": { "id": 6, "name": "MALE COMFORT ROOM DOOR", "ent_type": "door", "room_code": "MCR", "floor": 1 }, "geometry": { "type": "Point", "coordinates": [ 0.008840511072557, -0.000787422882281 ] } },
{ "type": "Feature", "properties": { "id": null, "name": "FEMALE COMFORT ROOM DOOR", "ent_type": "door", "room_code": "FCR", "floor": 1 }, "geometry": { "type": "Point", "coordinates": [ 0.009198534139349, -0.003064163439846 ] } },
{ "type": "Feature", "properties": { "id": null, "name": "Main Entrance", "ent_type": "main", "room_code": "ENTRANCE", "floor": 1 }, "geometry": { "type": "Point", "coordinates": [ 0.003572852867098, -0.003285478466652 ] } },
{ "type": "Feature", "properties": { "id": null, "name": "Side Entrance A", "ent_type": "side", "room_code": "ENTRANCE", "floor": 1 }, "geometry": { "type": "Point", "coordinates": [ -0.000789819358437, -0.002513266904059 ] } },
{ "type": "Feature", "properties": { "id": null, "name": "Side Entrancee B", "ent_type": "side", "room_code": "ENTRANCE", "floor": 1 }, "geometry": { "type": "Point", "coordinates": [ 0.008714494893237, -0.003290187073814 ] } },
{ "type": "Feature", "properties": { "id": null, "name": "STAIRS 1F", "ent_type": "stairs", "room_code": "STAIRS_1F", "floor": 1 }, "geometry": { "type": "Point", "coordinates": [ 0.006046578494177, -0.003452634018337 ] } }
]
}
