{
"type": "FeatureCollection",
"name": "indoor_smb_rooms",
"crs": { "type": "name", "properties": { "name": "urn:ogc:def:crs:OGC:1.3:CRS84" } },
"features": [
{ "type": "Feature", "properties": { "id": 1, "name": "Comfort Room", "room_code": "SMB-CR-01", "type": "restroom", "floor": 1 }, "geometry": { "type": "MultiPolygon", "coordinates": [ [ [ [ 0.000241641994841, -0.000144473118286 ], [ 0.001623578608853, -0.000139285668534 ], [ 0.001627728568654, -0.001346923970744 ], [ 0.00023956701494, -0.001348998950644 ], [ 0.000241641994841, -0.000144473118286 ] ] ] ] } },
{ "type": "Feature", "properties": { "id": 2, "name": "Comfort Room", "room_code": "SMB-CR-02", "type": "restroom", "floor": 1 }, "geometry": { "type": "MultiPolygon", "coordinates": [ [ [ [ 0.000243716974742, -0.001393611018501 ], [ 0.001114041356933, -0.001392443842307 ], [ 0.001113976513812, -0.003054356844608 ], [ 0.000242874014158, -0.00305620487358 ], [ 0.000243716974742, -0.001393611018501 ] ] ] ] } },
{ "type": "Feature", "properties": { "id": 3, "name": "classroom", "room_code": "SMB-101", "type": "classroom", "floor": 1 }, "geometry": { "type": "MultiPolygon", "coordinates": [ [ [ [ 0.001674999204522, -0.000143322152872 ], [ 0.00564962320473, -0.000140209683021 ], [ 0.005652735674581, -0.004489886295724 ], [ 0.001670330499745, -0.004492998765566 ], [ 0.001674999204522, -0.000143322152872 ] ] ] ] } },
{ "type": "Feature", "properties": { "id": 4, "name": "Classroom", "room_code": "SMB-102", "type": "classroom", "floor": 1 }, "geometry": { "type": "MultiPolygon", "coordinates": [ [ [ [ 0.005694754017575, -0.000143322152872 ], [ 0.007591804391989, -0.000144100270335 ], [ 0.007590637215795, -0.002093284514294 ], [ 0.005695532135038, -0.002094062631756 ], [ 0.005694754017575, -0.000143322152872 ] ] ] ] } },
{ "type": "Feature", "properties": { "id": 5, "name": "Classroom", "room_code": "SMB-103", "type": "classroom", "floor": 1 }, "geometry": { "type": "MultiPolygon", "coordinates": [ [ [ [ 0.005701757074741, -0.002143862149344 ], [ 0.007597251214229, -0.002143862149344 ], [ 0.007591026274526, -0.004491442530645 ], [ 0.005695337605672, -0.004491831589376 ], [ 0.005701757074741, -0.002143862149344 ] ] ] ] } },
{ "type": "Feature", "properties": { "id": 6, "name": "Classroom", "room_code": "NULLSMB-104", "type": "classroom", "floor": 1 }, "geometry": { "type": "MultiPolygon", "coordinates": [ [ [ [ 0.007645591761608, -0.000143322152872 ], [ 0.011787511016327, -0.000143322152872 ], [ 0.011785954781402, -0.004491053471915 ], [ 0.007644424585414, -0.004491442530645 ], [ 0.007645591761608, -0.000143322152872 ] ] ] ] } },
{ "type": "Feature", "properties": { "id": 7, "name": "Classroom", "room_code": "SMB-105", "type": "classroom", "floor": 1 }, "geometry": { "type": "MultiPolygon", "coordinates": [ [ [ [ 0.011836921475218, -0.000144100270335 ], [ 0.013240645378189, -0.000144100270335 ], [ 0.01324375784804, -0.002092506396832 ], [ 0.011833809005367, -0.002086281457133 ], [ 0.011836921475218, -0.000144100270335 ] ] ] ] } },
{ "type": "Feature", "properties": { "id": 8, "name": "Classroom", "room_code": "SMB-106", "type": "classroom", "floor": 1 }, "geometry": { "type": "MultiPolygon", "coordinates": [ [ [ [ 0.011832641829172, -0.002138026268377 ], [ 0.013241812554383, -0.002138804385839 ], [ 0.013240256319457, -0.004493387824296 ], [ 0.011831085594247, -0.004492220648106 ], [ 0.011832641829172, -0.002138026268377 ] ] ] ] } }
]
}
