{
"type": "FeatureCollection",
"name": "indoor_path_1f",
"crs": { "type": "name", "properties": { "name": "urn:ogc:def:crs:OGC:1.3:CRS84" } },
"features": [
{ "type": "Feature", "properties": { "id": null, "name": "Hallway", "path_type": "hallway", "floor": 1, "is_blocked": 0 }, "geometry": { "type": "MultiLineString", "coordinates": [ [ [ 0.001218290525169, -0.004199509658176 ], [ 0.00169101432851, -0.004200795323838 ], [ 0.00547246312824, -0.004211079720006 ], [ 0.007070731753626, -0.004215426526905 ], [ 0.009750341741961, -0.004211243061337 ], [ 0.011652147042766, -0.004208273921414 ], [ 0.01216829975502, -0.00420746809254 ], [ 0.012165928425511, 0.000559634091565 ], [ 0.01166009235082, 0.000560883433289 ], [ 0.01166320534356, 0.000186812495507 ] ] ] } }
]
}
