{
"type": "FeatureCollection",
"name": "campus_landuse",
"crs": { "type": "name", "properties": { "name": "urn:ogc:def:crs:OGC:1.3:CRS84" } },
"features": [
{ "type": "Feature", "properties": { "id": 1, "type": "open_field", "name": "Open Field Area" }, "geometry": { "type": "MultiPolygon", "coordinates": [ [ [ [ 124.982643021420657, 10.249075491177196 ], [ 124.983644202102056, 10.248828078259713 ], [ 124.983563860524669, 10.248497250997646 ], [ 124.982568418527322, 10.248775723364666 ], [ 124.982585586236709, 10.248844706326881 ], [ 124.98262632584543, 10.249008405384663 ], [ 124.982643021420657, 10.249075491177196 ] ] ] ] } },
{ "type": "Feature", "properties": { "id": 2, "type": "court", "name": "multipurpose" }, "geometry": { "type": "MultiPolygon", "coordinates": [ [ [ [ 124.983331762634236, 10.249191885887276 ], [ 124.983502010262569, 10.249175650436678 ], [ 124.983497228025797, 10.249090080970731 ], [ 124.98332347342388, 10.249110943922398 ], [ 124.983331762634236, 10.249191885887276 ] ] ] ] } },
{ "type": "Feature", "properties": { "id": 3, "type": "design", "name": "Admin Flag" }, "geometry": { "type": "MultiPolygon", "coordinates": [ [ [ [ 124.984548181434064, 10.250806451823955 ], [ 124.984549581842927, 10.250807667754662 ], [ 124.984551060069052, 10.250808790952807 ], [ 124.984552609782412, 10.250809816608674 ], [ 124.984554224346979, 10.250810740330257 ], [ 124.98455589684886, 10.250811558162042 ], [ 124.984557620126154, 10.250812266601937 ], [ 124.984559386799546, 10.250812862616304 ], [ 124.984561189303875, 10.250813343652915 ], [ 124.984563019920543, 10.250813707651895 ], [ 124.98456487081053, 10.25081395305455 ], [ 124.984566734048087, 10.250814078810032 ], [ 124.984568601654502, 10.250814084379826 ], [ 124.984570465632416, 10.250813969740086 ], [ 124.984572318, 10.250813735381721 ], [ 124.984574150825154, 10.250813382308287 ], [ 124.984575956259377, 10.250812912031693 ], [ 124.984577726571558, 10.250812326565741 ], [ 124.984579454180974, 10.250811628417486 ], [ 124.984581131689666, 10.250810820576504 ], [ 124.984582751914374, 10.25080990650209 ], [ 124.984584307916961, 10.250808890108448 ], [ 124.984585793034427, 10.250807775747941 ], [ 124.984587200907256, 10.25080656819242 ], [ 124.984588525506751, 10.250805272612832 ], [ 124.984589761160777, 10.250803894557036 ], [ 124.984590902578034, 10.250802439926087 ], [ 124.984591944870786, 10.250800914948933 ], [ 124.984592883575829, 10.250799326155759 ], [ 124.984593714673451, 10.250797680350018 ], [ 124.984594434604801, 10.250795984579307 ], [ 124.984595040286962, 10.250794246105173 ], [ 124.984595529126338, 10.25079247237203 ], [ 124.984595899029671, 10.250790670975272 ], [ 124.984596148412948, 10.250788849628758 ], [ 124.984596276208279, 10.250787016131774 ], [ 124.98459628186842, 10.250785178335637 ], [ 124.984596165369126, 10.250783344110067 ], [ 124.984595927209284, 10.250781521309504 ], [ 124.98459556840875, 10.25077971773946 ], [ 124.98459509050393, 10.250777941123095 ], [ 124.984594495541273, 10.250776199068156 ], [ 124.984593786068501, 10.250774499034394 ], [ 124.984592965123724, 10.250772848301608 ], [ 124.984592036222352, 10.250771253938495 ], [ 124.984591003342061, 10.250769722772365 ], [ 124.984589870905793, 10.250768261359905 ], [ 124.984588643762805, 10.250766875959107 ], [ 124.984587327167972, 10.250765572502473 ], [ 124.984585926759109, 10.250764356571604 ], [ 124.984584448532999, 10.250763233373304 ], [ 124.98458289881961, 10.250762207717283 ], [ 124.984581284255071, 10.250761283995558 ], [ 124.98457961175319, 10.250760466163646 ], [ 124.984577888475883, 10.250759757723635 ], [ 124.984576121802462, 10.250759161709169 ], [ 124.984574319298133, 10.250758680672474 ], [ 124.984572488681493, 10.25075831667343 ], [ 124.984570637791492, 10.250758071270733 ], [ 124.984568774553964, 10.250757945515227 ], [ 124.984566906947521, 10.250757939945434 ], [ 124.984565042969606, 10.250758054585193 ], [ 124.984563190602017, 10.250758288943599 ], [ 124.984561357776897, 10.250758642017097 ], [ 124.984559552342631, 10.250759112293769 ], [ 124.984557782030464, 10.250759697759818 ], [ 124.984556054421063, 10.250760395908191 ], [ 124.984554376912357, 10.250761203749303 ], [ 124.984552756687677, 10.250762117823857 ], [ 124.984551200685061, 10.250763134217646 ], [ 124.984549715567596, 10.250764248578314 ], [ 124.984548307694766, 10.250765456133992 ], [ 124.984546983095257, 10.250766751713746 ], [ 124.98454574744126, 10.250768129769702 ], [ 124.984544606024002, 10.250769584400809 ], [ 124.984543563731222, 10.250771109378112 ], [ 124.98454262502618, 10.25077269817143 ], [ 124.984541793928571, 10.250774343977298 ], [ 124.984541073997249, 10.250776039748128 ], [ 124.984540468315075, 10.250777778222361 ], [ 124.984539979475684, 10.250779551955583 ], [ 124.984539609572366, 10.250781353352407 ], [ 124.984539360189089, 10.250783174698961 ], [ 124.984539232393772, 10.250785008195969 ], [ 124.984539226733631, 10.250786845992108 ], [ 124.984539343232896, 10.250788680217656 ], [ 124.984539581392724, 10.250790503018179 ], [ 124.984539940193287, 10.250792306588162 ], [ 124.984540418098121, 10.250794083204449 ], [ 124.984541013060763, 10.250795825259287 ], [ 124.984541722533507, 10.250797525292935 ], [ 124.984542543478284, 10.250799176025591 ], [ 124.984543472379684, 10.250800770388564 ], [ 124.98454450525999, 10.250802301554543 ], [ 124.984545637696229, 10.250803762966846 ], [ 124.984546864839203, 10.250805148367483 ], [ 124.984548181434064, 10.250806451823955 ] ] ] ] } },
{ "type": "Feature", "properties": { "id": null, "type": "design", "name": "tree" }, "geometry": { "type": "MultiPolygon", "coordinates": [ [ [ [ 124.983581191359235, 10.249704952231546 ], [ 124.983578848408087, 10.249702669402348 ], [ 124.983576358747911, 10.249700542251791 ], [ 124.983573733039819, 10.249698579888666 ], [ 124.983570982527482, 10.24969679071611 ], [ 124.983568118989069, 10.249695182395641 ], [ 124.983565154686673, 10.249693761814337 ], [ 124.983562102313826, 10.249692535055345 ], [ 124.983558974941317, 10.249691507371844 ], [ 124.983555785961073, 10.249690683164527 ], [ 124.983552549028701, 10.249690065962787 ], [ 124.983549278005313, 10.249689658409563 ], [ 124.983545986897894, 10.249689462250073 ], [ 124.983542689799492, 10.249689478324303 ], [ 124.983539400828775, 10.249689706563416 ], [ 124.983536134069638, 10.249690145990058 ], [ 124.983532903510863, 10.249690794722538 ], [ 124.983529722986148, 10.249691649982875 ], [ 124.983526606115007, 10.249692708108721 ], [ 124.983523566244429, 10.249693964569014 ], [ 124.983520616391459, 10.249695413983391 ], [ 124.983517769187927, 10.249697050145237 ], [ 124.983515036825978, 10.249698866048258 ], [ 124.983512431006034, 10.249700853916467 ], [ 124.983509962886529, 10.249703005237508 ], [ 124.983507643036432, 10.249705310799095 ], [ 124.983505481389628, 10.249707760728448 ], [ 124.98350348720264, 10.249710344534597 ], [ 124.983501669014885, 10.249713051153281 ], [ 124.983500034612135, 10.249715868994342 ], [ 124.983498590993165, 10.249718785991346 ], [ 124.983497344339696, 10.249721789653265 ], [ 124.983496299990151, 10.249724867117953 ], [ 124.983495462416613, 10.249728005207231 ], [ 124.983494835205661, 10.249731190483324 ], [ 124.983494421043119, 10.249734409306381 ], [ 124.983494221702486, 10.249737647892909 ], [ 124.983494238037409, 10.249740892374788 ], [ 124.98349446997787, 10.249744128858639 ], [ 124.983494916530731, 10.249747343485353 ], [ 124.983495575783749, 10.249750522489398 ], [ 124.983496444913925, 10.249753652257795 ], [ 124.983497520199492, 10.249756719388394 ], [ 124.983498797035907, 10.249759710747272 ], [ 124.983500269955556, 10.249762613524981 ], [ 124.983501932651237, 10.249765415291376 ], [ 124.983503778002927, 10.24976810404887 ], [ 124.983505798108624, 10.249770668283794 ], [ 124.983507984317853, 10.249773097015703 ], [ 124.983510327269045, 10.249775379844394 ], [ 124.983512816929192, 10.249777506994452 ], [ 124.983515442637298, 10.24977946935709 ], [ 124.983518193149621, 10.249781258529181 ], [ 124.983521056688033, 10.249782866849216 ], [ 124.983524020990458, 10.249784287430124 ], [ 124.983527073363305, 10.249785514188762 ], [ 124.983530200735785, 10.249786541871961 ], [ 124.983533389716058, 10.249787366079028 ], [ 124.983536626648387, 10.249787983280582 ], [ 124.983539897671818, 10.249788390833679 ], [ 124.983543188779223, 10.249788586993102 ], [ 124.983546485877611, 10.249788570918879 ], [ 124.983549774848328, 10.249788342679837 ], [ 124.983553041607465, 10.249787903253333 ], [ 124.983556272166268, 10.249787254521051 ], [ 124.983559452690955, 10.249786399260968 ], [ 124.983562569562096, 10.249785341135432 ], [ 124.983565609432702, 10.249784084675502 ], [ 124.983568559285672, 10.249782635261532 ], [ 124.983571406489176, 10.249780999100121 ], [ 124.983574138851111, 10.249779183197571 ], [ 124.983576744671097, 10.249777195329852 ], [ 124.983579212790573, 10.24977504400931 ], [ 124.983581532640699, 10.249772738448227 ], [ 124.983583694287461, 10.249770288519372 ], [ 124.983585688474463, 10.249767704713713 ], [ 124.983587506662218, 10.249764998095491 ], [ 124.983589141064996, 10.249762180254869 ], [ 124.983590584683967, 10.249759263258261 ], [ 124.983591831337435, 10.249756259596696 ], [ 124.983592875686966, 10.249753182132311 ], [ 124.98359371326049, 10.249750044043278 ], [ 124.983594340471441, 10.249746858767374 ], [ 124.983594754634012, 10.249743639944443 ], [ 124.983594953974645, 10.249740401357979 ], [ 124.983594937639722, 10.249737156876096 ], [ 124.983594705699232, 10.249733920392172 ], [ 124.983594259146344, 10.249730705765321 ], [ 124.983593599893354, 10.249727526761079 ], [ 124.983592730763206, 10.249724396992427 ], [ 124.983591655477611, 10.249721329861517 ], [ 124.983590378641196, 10.249718338502275 ], [ 124.983588905721518, 10.249715435724164 ], [ 124.983587243025866, 10.249712633957328 ], [ 124.98358539767419, 10.249709945199363 ], [ 124.983583377568507, 10.249707380963956 ], [ 124.983581191359235, 10.249704952231546 ] ] ] ] } }
]
}
