{
"type": "FeatureCollection",
"name": "indoor_rooms_2f",
"crs": { "type": "name", "properties": { "name": "urn:ogc:def:crs:OGC:1.3:CRS84" } },
"features": [
{ "type": "Feature", "properties": { "id": null, "name": "MALE COMFORT ROOM", "room_code": "MCR", "type": "restroom", "floor": 2 }, "geometry": { "type": "MultiPolygon", "coordinates": [ [ [ [ 0.000214720679359, -0.000330697145964 ], [ 0.002245572519309, -0.000330361138732 ], [ 0.002244675975145, -0.001460185454412 ], [ 0.000214541370527, -0.001460185454412 ], [ 0.000214720679359, -0.000330697145964 ] ] ] ] } },
{ "type": "Feature", "properties": { "id": 2, "name": "BASE ROOM", "room_code": "admin-202", "type": "room", "floor": 2 }, "geometry": { "type": "MultiPolygon", "coordinates": [ [ [ [ 0.002308151301946, -0.000330529142348 ], [ 0.003049772634282, -0.000330529142348 ], [ 0.003049055398951, -0.000998175511197 ], [ 0.002306358213618, -0.000998175511197 ], [ 0.002308151301946, -0.000330529142348 ] ] ] ] } },
{ "type": "Feature", "properties": { "id": 3, "name": "STOCK ROOM", "room_code": "admin-203", "type": "room", "floor": 2 }, "geometry": { "type": "MultiPolygon", "coordinates": [ [ [ [ 0.005233754217417, -0.000330529142348 ], [ 0.005974299696756, -0.000330865149579 ], [ 0.005974837623254, -0.000997503496734 ], [ 0.005233754217417, -0.000999687543739 ], [ 0.005233754217417, -0.000330529142348 ] ] ] ] } },
{ "type": "Feature", "properties": { "id": 4, "name": "FEMALE COMFORT ROOM", "room_code": "FCR", "type": "restroom", "floor": 2 }, "geometry": { "type": "MultiPolygon", "coordinates": [ [ [ [ 0.006034188846901, -0.000331033153195 ], [ 0.008068268245841, -0.000332377182121 ], [ 0.008065399304517, -0.001461361479722 ], [ 0.006037775023557, -0.001460017450796 ], [ 0.006034188846901, -0.000331033153195 ] ] ] ] } },
{ "type": "Feature", "properties": { "id": 5, "name": "REGISTRAR OFFICE", "room_code": "admin-205", "type": "office", "floor": 2 }, "geometry": { "type": "MultiPolygon", "coordinates": [ [ [ [ 0.000215168951441, -0.001518062700026 ], [ 0.002244675975145, -0.001518062700026 ], [ 0.002245034592811, -0.004182768048873 ], [ 0.000214899988192, -0.004183104056104 ], [ 0.000215168951441, -0.001518062700026 ] ] ] ] } },
{ "type": "Feature", "properties": { "id": 6, "name": "RECORDS OFFICE", "room_code": "admin-205", "type": "office", "floor": 2 }, "geometry": { "type": "MultiPolygon", "coordinates": [ [ [ [ 0.006036340552894, -0.001517222681947 ], [ 0.008065399304517, -0.00151789469641 ], [ 0.008064682069186, -0.002677791659303 ], [ 0.006040643964881, -0.00268182374608 ], [ 0.006036340552894, -0.001517222681947 ] ] ] ] } },
{ "type": "Feature", "properties": { "id": 7, "name": "CASHIERS OFFICE", "room_code": "admin-207", "type": "office", "floor": 2 }, "geometry": { "type": "MultiPolygon", "coordinates": [ [ [ [ 0.000215079297025, -0.004240225285447 ], [ 0.002244586320729, -0.004239637272792 ], [ 0.002244944938395, -0.006286593326657 ], [ 0.000215168951441, -0.006286593326657 ], [ 0.000215079297025, -0.004240225285447 ] ] ] ] } },
{ "type": "Feature", "properties": { "id": 8, "name": "ACCOUNTING AND BUDGET OFFICE", "room_code": "admin-208", "type": "office", "floor": 2 }, "geometry": { "type": "MultiPolygon", "coordinates": [ [ [ [ 0.006035892280812, -0.002734408877798 ], [ 0.008065488958933, -0.002734408877798 ], [ 0.008068357900257, -0.005411042483361 ], [ 0.00603571297198, -0.005408018418279 ], [ 0.006035892280812, -0.002734408877798 ] ] ] ] } },
{ "type": "Feature", "properties": { "id": 9, "name": "HEAD QUALITY/ASSURANCE OFFICE", "room_code": "admin-209", "type": "office", "floor": 2 }, "geometry": { "type": "MultiPolygon", "coordinates": [ [ [ [ 0.006035892280812, -0.0054659796657 ], [ 0.008065488958933, -0.005466105668412 ], [ 0.008066206194264, -0.006286635327561 ], [ 0.006036430207311, -0.006285963313098 ], [ 0.006035892280812, -0.0054659796657 ] ] ] ] } }
]
}
