{
"type": "FeatureCollection",
"name": "indoor_rooms_1f",
"crs": { "type": "name", "properties": { "name": "urn:ogc:def:crs:OGC:1.3:CRS84" } },
"features": [
{ "type": "Feature", "properties": { "id": 1, "name": "SOC SCI 1", "room_code": "ab-101", "type": "classroom", "floor": 1 }, "geometry": { "type": "MultiPolygon", "coordinates": [ [ [ [ -0.002262319127858, -0.000128179812348 ], [ -0.00110553309807, -0.000126154964329 ], [ -0.001106652207418, -0.004332439250321 ], [ -0.002262319127858, -0.0043371638957 ], [ -0.002262319127858, -0.000128179812348 ] ] ] ] } },
{ "type": "Feature", "properties": { "id": 2, "name": "SOC SCI 2", "room_code": "ab-102", "type": "classroom", "floor": 1 }, "geometry": { "type": "MultiPolygon", "coordinates": [ [ [ [ -0.001050090555768, -0.000128011075013 ], [ 0.000072702527562, -0.000126998651004 ], [ 0.000072516009337, -0.004333282936996 ], [ -0.001050323703549, -0.004334632835676 ], [ -0.001050090555768, -0.000128011075013 ] ] ] ] } },
{ "type": "Feature", "properties": { "id": 3, "name": "BEED 1", "room_code": "ab-103", "type": "classroom", "floor": 1 }, "geometry": { "type": "MultiPolygon", "coordinates": [ [ [ [ 0.000128844513206, -0.000127673600343 ], [ 0.001217551390967, -0.000127673600343 ], [ 0.001217737909192, -0.004334632835676 ], [ 0.000128657994982, -0.004335307785016 ], [ 0.000128844513206, -0.000127673600343 ] ] ] ] } },
{ "type": "Feature", "properties": { "id": 4, "name": "BEED-2", "room_code": "ab-104", "type": "classroom", "floor": 1 }, "geometry": { "type": "MultiPolygon", "coordinates": [ [ [ [ 0.001279475441578, -0.000128348549683 ], [ 0.002391310579206, -0.000124973802984 ], [ 0.002390937542756, -0.004332270512986 ], [ 0.001279288923353, -0.004332945462326 ], [ 0.001279475441578, -0.000128348549683 ] ] ] ] } },
{ "type": "Feature", "properties": { "id": 5, "name": "ELEMENTARY & PROFESSIONAL OFFICE", "room_code": "ab-105", "type": "office", "floor": 1 }, "geometry": { "type": "MultiPolygon", "coordinates": [ [ [ [ 0.002446799751063, -0.000128011075013 ], [ 0.003563857398984, -0.000126998651004 ], [ 0.003563857398984, -0.004331933038316 ], [ 0.002446986269288, -0.004334632835676 ], [ 0.002446799751063, -0.000128011075013 ] ] ] ] } },
{ "type": "Feature", "properties": { "id": 6, "name": "FILIPINO classroom", "room_code": "ab-106", "type": "classroom", "floor": 1 }, "geometry": { "type": "MultiPolygon", "coordinates": [ [ [ [ 0.003619999384628, -0.000188419040931 ], [ 0.004720083874097, -0.000188081566261 ], [ 0.004720270392322, -0.004332270512986 ], [ 0.003619672977735, -0.004332945462326 ], [ 0.003619999384628, -0.000188419040931 ] ] ] ] } },
{ "type": "Feature", "properties": { "id": 7, "name": "MATH ROOM", "room_code": "ab-107", "type": "classroom", "floor": 1 }, "geometry": { "type": "MultiPolygon", "coordinates": [ [ [ [ 0.004776272489298, -0.000187406616921 ], [ 0.005887734590476, -0.000188081566261 ], [ 0.005887548072251, -0.004353868891862 ], [ 0.004776645525747, -0.004353868891862 ], [ 0.004776272489298, -0.000187406616921 ] ] ] ] } },
{ "type": "Feature", "properties": { "id": 8, "name": "HUMANITIES 1", "room_code": "ab-108", "type": "classroom", "floor": 1 }, "geometry": { "type": "MultiPolygon", "coordinates": [ [ [ [ 0.00594387657612, -0.000188756515601 ], [ 0.007055152159074, -0.000188756515601 ], [ 0.007055431936411, -0.004352856467852 ], [ 0.005943969835233, -0.004352518993182 ], [ 0.00594387657612, -0.000188756515601 ] ] ] ] } },
{ "type": "Feature", "properties": { "id": 9, "name": "HUMANITIES 2", "room_code": "ab-109", "type": "classroom", "floor": 1 }, "geometry": { "type": "MultiPolygon", "coordinates": [ [ [ [ 0.007111434033386, -0.000188756515601 ], [ 0.008155469796324, -0.000188419040931 ], [ 0.008155469796324, -0.004352856467852 ], [ 0.007110594701375, -0.004355556265211 ], [ 0.007111434033386, -0.000188756515601 ] ] ] ] } },
{ "type": "Feature", "properties": { "id": 10, "name": "HUMANITIES 3", "room_code": "ab-110", "type": "classroom", "floor": 1 }, "geometry": { "type": "MultiPolygon", "coordinates": [ [ [ [ 0.008211518522856, -0.000188756515601 ], [ 0.009221934375785, -0.000188756515601 ], [ 0.009221957690563, -0.004332523618989 ], [ 0.008217114069598, -0.004311093977448 ], [ 0.008211518522856, -0.000188756515601 ] ] ] ] } },
{ "type": "Feature", "properties": { "id": 11, "name": "SOC-PHILO 1", "room_code": "ab-111", "type": "classroom", "floor": 1 }, "geometry": { "type": "MultiPolygon", "coordinates": [ [ [ [ 0.009283718537728, -0.000188840884268 ], [ 0.010282523631168, -0.000188840884268 ], [ 0.010282523631168, -0.004333029830993 ], [ 0.009283718537728, -0.004334379729673 ], [ 0.009283718537728, -0.000188840884268 ] ] ] ] } },
{ "type": "Feature", "properties": { "id": 12, "name": "SOC-PHILO 2", "room_code": "ab-112", "type": "classroom", "floor": 1 }, "geometry": { "type": "MultiPolygon", "coordinates": [ [ [ [ 0.010339038653262, -0.000168592404072 ], [ 0.011355189941602, -0.000167917454732 ], [ 0.011355003423377, -0.004352940836519 ], [ 0.010339038653262, -0.00435159093784 ], [ 0.010339038653262, -0.000168592404072 ] ] ] ] } },
{ "type": "Feature", "properties": { "id": null, "name": "MALE COMFORT ROOM", "room_code": "MCR", "type": "restroom", "floor": 1 }, "geometry": { "type": "MultiPolygon", "coordinates": [ [ [ [ 0.011573975819212, -0.000188503409598 ], [ 0.012393443639572, -0.000188840884268 ], [ 0.012393303750904, -0.002158680532642 ], [ 0.0115738825601, -0.002158849269977 ], [ 0.011573975819212, -0.000188503409598 ] ] ] ] } },
{ "type": "Feature", "properties": { "id": null, "name": "FEMALE COMFORT ROOM", "room_code": "FCR", "type": "restroom", "floor": 1 }, "geometry": { "type": "MultiPolygon", "coordinates": [ [ [ [ 0.011573835930544, -0.002341802725412 ], [ 0.012393408667405, -0.002342098015749 ], [ 0.01239322214918, -0.004332186144318 ], [ 0.01157375432882, -0.004333198568328 ], [ 0.011573835930544, -0.002341802725412 ] ] ] ] } }
]
}
