{
"type": "FeatureCollection",
"name": "indoor_rooms_1f",
"crs": { "type": "name", "properties": { "name": "urn:ogc:def:crs:OGC:1.3:CRS84" } },
"features": [
{ "type": "Feature", "properties": { "id": 1, "name": "SOC SCI 1", "room_code": "ab-101", "type": "classroom", "floor": 1 }, "geometry": { "type": "MultiPolygon", "coordinates": [ [ [ [ -0.002181817155347, -0.000130026589201 ], [ 0.00047795509017, -0.000127998203012 ], [ 0.000475381947076, -0.004341632445637 ], [ -0.002181817155347, -0.004346365346744 ], [ -0.002181817155347, -0.000130026589201 ] ] ] ] } },
{ "type": "Feature", "properties": { "id": 2, "name": "SOC SCI 2", "room_code": "ab-102", "type": "classroom", "floor": 1 }, "geometry": { "type": "MultiPolygon", "coordinates": [ [ [ [ 0.000605432887652, -0.000129857557018 ], [ 0.003187045911668, -0.000128843363924 ], [ 0.003186617054486, -0.004342477606549 ], [ 0.000604896816174, -0.004343829864008 ], [ 0.000605432887652, -0.000129857557018 ] ] ] ] } },
{ "type": "Feature", "properties": { "id": 3, "name": "BEED 1", "room_code": "ab-103", "type": "classroom", "floor": 1 }, "geometry": { "type": "MultiPolygon", "coordinates": [ [ [ [ 0.003316131923584, -0.000129519492653 ], [ 0.005819371297509, -0.000129519492653 ], [ 0.005819800154691, -0.004343829864008 ], [ 0.003315703066401, -0.004344505992738 ], [ 0.003316131923584, -0.000129519492653 ] ] ] ] } },
{ "type": "Feature", "properties": { "id": 4, "name": "BEED-2", "room_code": "ab-104", "type": "classroom", "floor": 1 }, "geometry": { "type": "MultiPolygon", "coordinates": [ [ [ [ 0.00596175188208, -0.000130195621383 ], [ 0.008518169546628, -0.000126814977735 ], [ 0.008517311832263, -0.004341463413455 ], [ 0.005961323024897, -0.004342139542184 ], [ 0.00596175188208, -0.000130195621383 ] ] ] ] } },
{ "type": "Feature", "properties": { "id": 5, "name": "ELEMENTARY & PROFESSIONAL OFFICE", "room_code": "ab-105", "type": "office", "floor": 1 }, "geometry": { "type": "MultiPolygon", "coordinates": [ [ [ [ 0.008645754558405, -0.000129857557018 ], [ 0.011214180224061, -0.000128843363924 ], [ 0.011214180224061, -0.00434112534909 ], [ 0.008646183415587, -0.004343829864008 ], [ 0.008645754558405, -0.000129857557018 ] ] ] ] } },
{ "type": "Feature", "properties": { "id": 6, "name": "FILIPINO classroom", "room_code": "ab-106", "type": "classroom", "floor": 1 }, "geometry": { "type": "MultiPolygon", "coordinates": [ [ [ [ 0.011343266235977, -0.000190371078314 ], [ 0.013872665898031, -0.000190033013949 ], [ 0.013873094755213, -0.004341463413455 ], [ 0.011342515735907, -0.004342139542184 ], [ 0.011343266235977, -0.000190371078314 ] ] ] ] } },
{ "type": "Feature", "properties": { "id": 7, "name": "MATH ROOM", "room_code": "ab-107", "type": "classroom", "floor": 1 }, "geometry": { "type": "MultiPolygon", "coordinates": [ [ [ [ 0.014001859124242, -0.00018935688522 ], [ 0.016557419074425, -0.000190033013949 ], [ 0.016556990217243, -0.004363099532801 ], [ 0.014002716838607, -0.004363099532801 ], [ 0.014001859124242, -0.00018935688522 ] ] ] ] } },
{ "type": "Feature", "properties": { "id": 8, "name": "HUMANITIES 1", "room_code": "ab-108", "type": "classroom", "floor": 1 }, "geometry": { "type": "MultiPolygon", "coordinates": [ [ [ [ 0.016686505086341, -0.000190709142679 ], [ 0.019241636179341, -0.000190709142679 ], [ 0.019242279465115, -0.004362085339707 ], [ 0.016686719514932, -0.004361747275342 ], [ 0.016686505086341, -0.000190709142679 ] ] ] ] } },
{ "type": "Feature", "properties": { "id": 9, "name": "HUMANITIES 2", "room_code": "ab-109", "type": "classroom", "floor": 1 }, "geometry": { "type": "MultiPolygon", "coordinates": [ [ [ [ 0.019371043834144, -0.000190709142679 ], [ 0.021771571912873, -0.000190371078314 ], [ 0.021771571912873, -0.004362085339707 ], [ 0.019369113976823, -0.004364789854625 ], [ 0.019371043834144, -0.000190709142679 ] ] ] ] } },
{ "type": "Feature", "properties": { "id": 10, "name": "HUMANITIES 3", "room_code": "ab-110", "type": "classroom", "floor": 1 }, "geometry": { "type": "MultiPolygon", "coordinates": [ [ [ [ 0.021900443496197, -0.000190709142679 ], [ 0.024223670067792, -0.000190709142679 ], [ 0.024223723674939, -0.004341716961728 ], [ 0.021913309211671, -0.004320249874565 ], [ 0.021900443496197, -0.000190709142679 ] ] ] ] } },
{ "type": "Feature", "properties": { "id": 11, "name": "SOC-PHILO 1", "room_code": "ab-111", "type": "classroom", "floor": 1 }, "geometry": { "type": "MultiPolygon", "coordinates": [ [ [ [ 0.024365729009476, -0.00019079365877 ], [ 0.026662259221463, -0.00019079365877 ], [ 0.026662259221463, -0.004342224058276 ], [ 0.024365729009476, -0.004343576315735 ], [ 0.024365729009476, -0.00019079365877 ] ] ] ] } },
{ "type": "Feature", "properties": { "id": 12, "name": "SOC-PHILO 2", "room_code": "ab-112", "type": "classroom", "floor": 1 }, "geometry": { "type": "MultiPolygon", "coordinates": [ [ [ [ 0.026792202947743, -0.000170509796883 ], [ 0.029128616877697, -0.000169833668153 ], [ 0.029128188020515, -0.004362169855798 ], [ 0.026792202947743, -0.004360817598338 ], [ 0.026792202947743, -0.000170509796883 ] ] ] ] } },
{ "type": "Feature", "properties": { "id": null, "name": "MALE COMFORT ROOM", "room_code": "MCR", "type": "restroom", "floor": 1 }, "geometry": { "type": "MultiPolygon", "coordinates": [ [ [ [ 0.029631666352704, -0.000190455594405 ], [ 0.031515850383771, -0.00019079365877 ], [ 0.031515528740884, -0.002164075355994 ], [ 0.029631451924113, -0.002164244388177 ], [ 0.029631666352704, -0.000190455594405 ] ] ] ] } },
{ "type": "Feature", "properties": { "id": null, "name": "FEMALE COMFORT ROOM", "room_code": "FCR", "type": "restroom", "floor": 1 }, "geometry": { "type": "MultiPolygon", "coordinates": [ [ [ [ 0.029631344709817, -0.002347517531933 ], [ 0.031515769973049, -0.002347813338252 ], [ 0.031515341115867, -0.004341378897363 ], [ 0.0296311570848, -0.004342393090458 ], [ 0.029631344709817, -0.002347517531933 ] ] ] ] } }
]
}
