{
"type": "FeatureCollection",
"name": "indoor_rooms_1f",
"crs": { "type": "name", "properties": { "name": "urn:ogc:def:crs:OGC:1.3:CRS84" } },
"features": [
{ "type": "Feature", "properties": { "id": 1, "name": "PHYSICS LEC & LAB ROOM", "room_code": "smb-101", "type": "classroom", "floor": 1 }, "geometry": { "type": "MultiPolygon", "coordinates": [ [ [ [ -0.00053544689929, 0.000858825298271 ], [ 0.003865706555347, 0.000858825298271 ], [ 0.003864587428345, -0.002952230780887 ], [ -0.00053544689929, -0.002952526417849 ], [ -0.00053544689929, 0.000858825298271 ] ] ] ] } },
{ "type": "Feature", "properties": { "id": 2, "name": "LABORATORY STOCK ROOM", "room_code": "smb-102", "type": "room", "floor": 1 }, "geometry": { "type": "MultiPolygon", "coordinates": [ [ [ [ 0.003914108798163, 0.000858012296625 ], [ 0.006009860629672, 0.000857790568903 ], [ 0.006009767369089, -0.000850251979955 ], [ 0.003915227925164, -0.000849845479132 ], [ 0.003914108798163, 0.000858012296625 ] ] ] ] } },
{ "type": "Feature", "properties": { "id": 3, "name": "LABORATORY COUNTER", "room_code": "smb-103", "type": "room", "floor": 1 }, "geometry": { "type": "MultiPolygon", "coordinates": [ [ [ [ 0.003914481840496, -0.000889756469023 ], [ 0.006009114545004, -0.000889460832061 ], [ 0.006010233672006, -0.002951824280064 ], [ 0.003914481840496, -0.002951528643102 ], [ 0.003914481840496, -0.000889756469023 ] ] ] ] } },
{ "type": "Feature", "properties": { "id": 4, "name": "Biology Lec & Lab ROOM", "room_code": "smb-104", "type": "classroom", "floor": 1 }, "geometry": { "type": "MultiPolygon", "coordinates": [ [ [ [ 0.00606936088192, 0.000857605795802 ], [ 0.010647522923963, 0.000859379617575 ], [ 0.010650507262634, -0.002951972098545 ], [ 0.006066563064416, -0.002954337194242 ], [ 0.00606936088192, 0.000857605795802 ] ] ] ] } },
{ "type": "Feature", "properties": { "id": 5, "name": "WEIGHING ROOM", "room_code": "smb-105", "type": "room", "floor": 1 }, "geometry": { "type": "MultiPolygon", "coordinates": [ [ [ [ 0.010697883639032, 0.000857975342005 ], [ 0.012258226460898, 0.000857605795802 ], [ 0.012258226460898, -0.000849402023689 ], [ 0.010697417336114, -0.0008508802085 ], [ 0.010697883639032, 0.000857975342005 ] ] ] ] } },
{ "type": "Feature", "properties": { "id": 6, "name": "NatSci Room", "room_code": "smb-106", "type": "room", "floor": 1 }, "geometry": { "type": "MultiPolygon", "coordinates": [ [ [ [ 0.010697417336114, -0.000889904287504 ], [ 0.012257853418564, -0.000889017376618 ], [ 0.012257480376231, -0.002952563372469 ], [ 0.010697417336114, -0.002952267735507 ], [ 0.010697417336114, -0.000889904287504 ] ] ] ] } },
{ "type": "Feature", "properties": { "id": null, "name": "COMFORT ROOM 1", "room_code": "cr1", "type": "restroom", "floor": 1 }, "geometry": { "type": "MultiPolygon", "coordinates": [ [ [ [ -0.002114721619599, 0.000857605795802 ], [ -0.00058450196619, 0.000858788343651 ], [ -0.000585248050858, -0.000197818159096 ], [ -0.002115467704267, -0.000199000706945 ], [ -0.002114721619599, 0.000857605795802 ] ] ] ] } },
{ "type": "Feature", "properties": { "id": null, "name": "COMFORT ROOM 2", "room_code": "cr2", "type": "restroom", "floor": 1 }, "geometry": { "type": "MultiPolygon", "coordinates": [ [ [ [ -0.002115840746601, -0.000235955327214 ], [ -0.001150780228958, -0.000235955327214 ], [ -0.00115189935596, -0.001692854276721 ], [ -0.002117332915936, -0.00169403682457 ], [ -0.002115840746601, -0.000235955327214 ] ] ] ] } }
]
}
