{
"type": "FeatureCollection",
"name": "indoor_entrance_2f",
"crs": { "type": "name", "properties": { "name": "urn:ogc:def:crs:OGC:1.3:CRS84" } },
"features": [
{ "type": "Feature", "properties": { "id": 1, "name": "LABORATORY 3 DOOR", "ent_type": "door", "room_code": "it-201", "floor": 2 }, "geometry": { "type": "Point", "coordinates": [ 0.00130571704645, -0.002898650351072 ] } },
{ "type": "Feature", "properties": { "id": 2, "name": "LECTURE ROOM DOOR", "ent_type": "door", "room_code": "it-202", "floor": 2 }, "geometry": { "type": "Point", "coordinates": [ 0.006122820350223, -0.001678884335631 ] } },
{ "type": "Feature", "properties": { "id": 3, "name": "LABORATORY 2", "ent_type": "door", "room_code": "it-203", "floor": 2 }, "geometry": { "type": "Point", "coordinates": [ 0.008933261264031, -0.002962411960213 ] } },
{ "type": "Feature", "properties": { "id": 4, "name": "STAIRS 2F", "ent_type": "stairs", "room_code": "STAIRS_2F", "floor": 2 }, "geometry": { "type": "Point", "coordinates": [ 0.006148524272195, -0.003710685123633 ] } }
]
}
