{
  "type": "FeatureCollection",
  "name": "indoor_rooms",
  "crs": {
    "type": "name",
    "properties": {
      "name": "urn:ogc:def:crs:OGC:1.3:CRS84"
    }
  },
  "features": [
    {
      "type": "Feature",
      "properties": {
        "id": 1,
        "name": "room 101",
        "room_code": "iT-101",
        "type": "office",
        "floor": 1,
        "building": "IT Building"
      },
      "geometry": {
        "type": "MultiPolygon",
        "coordinates": [
          [
            [
              [
                0.00033344746913,
                -0.000347536798811
              ],
              [
                0.002667579753036,
                -0.000342840355584
              ],
              [
                0.002705151298854,
                -0.001944327496051
              ],
              [
                0.000338143912357,
                -0.001925541723142
              ],
              [
                0.00033344746913,
                -0.000347536798811
              ]
            ]
          ]
        ]
      }
    },
    {
      "type": "Feature",
      "properties": {
        "id": 2,
        "name": "room 102",
        "room_code": "IT-102",
        "type": "office",
        "floor": 1,
        "building": "IT Building"
      },
      "geometry": {
        "type": "MultiPolygon",
        "coordinates": [
          [
            [
              [
                0.002883616141486,
                -0.000352233242038
              ],
              [
                0.004968836934353,
                -0.000347536798811
              ],
              [
                0.004982926264034,
                -0.001944327496051
              ],
              [
                0.002878919698259,
                -0.001949023939278
              ],
              [
                0.002883616141486,
                -0.000352233242038
              ]
            ]
          ]
        ]
      }
    }
  ]
}