{
"type": "FeatureCollection",
"name": "indoor_entrances",
"crs": { "type": "name", "properties": { "name": "urn:ogc:def:crs:OGC:1.3:CRS84" } },
"features": [
{ "type": "Feature", "properties": { "id": 1, "name": "Door 001", "ent_type": "door", "room_code": "admin-001", "floor": 0, "building": "Admin Building" }, "geometry": { "type": "Point", "coordinates": [ 0.001849336080182, -0.003309976695926 ] } },
{ "type": "Feature", "properties": { "id": 2, "name": "Door MCR", "ent_type": "door", "room_code": "MCR", "floor": 0, "building": "Admin Building" }, "geometry": { "type": "Point", "coordinates": [ 0.002446523788236, -0.001548020520638 ] } },
{ "type": "Feature", "properties": { "id": 3, "name": "Door FCR", "ent_type": "door", "room_code": "FCR", "floor": 0, "building": "Admin Building" }, "geometry": { "type": "Point", "coordinates": [ 0.005311977635921, -0.001557744065406 ] } },
{ "type": "Feature", "properties": { "id": 4, "name": "Door 004", "ent_type": "door", "room_code": "admin-004", "floor": 0, "building": "Admin Building" }, "geometry": { "type": "Point", "coordinates": [ 0.005872951372742, -0.002643789219146 ] } },
{ "type": "Feature", "properties": { "id": 5, "name": "Door 005", "ent_type": "door", "room_code": "admin-005", "floor": 0, "building": "Admin Building" }, "geometry": { "type": "Point", "coordinates": [ 0.001842916047416, -0.003667005313543 ] } },
{ "type": "Feature", "properties": { "id": 6, "name": "Door 006", "ent_type": "door", "room_code": "admin-006", "floor": 0, "building": "Admin Building" }, "geometry": { "type": "Point", "coordinates": [ 0.003886356379411, -0.00375975297117 ] } },
{ "type": "Feature", "properties": { "id": null, "name": "Staird 0F A", "ent_type": "stairs", "room_code": "STAIRS_0F_A", "floor": 0, "building": "Admin Building" }, "geometry": { "type": "Point", "coordinates": [ 0.003138391396982, -0.001337842360642 ] } },
{ "type": "Feature", "properties": { "id": null, "name": "Stairs 0F B", "ent_type": "stairs", "room_code": "STAIRS_0F_B", "floor": 0, "building": "Admin Building" }, "geometry": { "type": "Point", "coordinates": [ 0.0038953319592, -0.001628052773727 ] } },
{ "type": "Feature", "properties": { "id": null, "name": "Stairs 0F C", "ent_type": "stairs", "room_code": "STAIRS_0F_C", "floor": 0, "building": "Admin Building" }, "geometry": { "type": "Point", "coordinates": [ 0.004646288801559, -0.001337842360642 ] } }
]
}
